{"type":"FeatureCollection","features":[{"type":"Feature","properties":{"axis":"E","value":331000,"spacing":1000,"datum":"gda2020","anchor":false},"geometry":{"type":"LineString","coordinates":[[151.1715596,-33.9309011],[151.1717523,-33.9218867],[151.1719449,-33.9128723],[151.1721374,-33.9038578],[151.1723298,-33.8948434],[151.1725221,-33.8858289],[151.1727143,-33.8768144],[151.1729065,-33.8677999],[151.1730985,-33.8587854],[151.1732905,-33.8497708],[151.1734824,-33.8407563],[151.1736742,-33.8317417],[151.1738659,-33.8227271],[151.1740576,-33.8137126]]}},{"type":"Feature","properties":{"axis":"E","value":332000,"spacing":1000,"datum":"gda2020","anchor":false},"geometry":{"type":"LineString","coordinates":[[151.182374,-33.9310613],[151.1825656,-33.9220468],[151.182757,-33.9130323],[151.1829483,-33.9040178],[151.1831396,-33.8950033],[151.1833308,-33.8859888],[151.1835219,-33.8769742],[151.1837129,-33.8679597],[151.1839038,-33.8589451],[151.1840947,-33.8499305],[151.1842854,-33.8409159],[151.1844761,-33.8319013],[151.1846667,-33.8228867],[151.1848572,-33.813872]]}},{"type":"Feature","properties":{"axis":"E","value":333000,"spacing":1000,"datum":"gda2020","anchor":false},"geometry":{"type":"LineString","coordinates":[[151.1931885,-33.9312205],[151.1933789,-33.922206],[151.1935692,-33.9131914],[151.1937594,-33.9041769],[151.1939495,-33.8951623],[151.1941396,-33.8861477],[151.1943295,-33.8771331],[151.1945194,-33.8681185],[151.1947092,-33.8591039],[151.1948989,-33.8500892],[151.1950886,-33.8410746],[151.1952781,-33.8320599],[151.1954676,-33.8230452],[151.1956569,-33.8140305]]}},{"type":"Feature","properties":{"axis":"E","value":334000,"spacing":1000,"datum":"gda2020","anchor":false},"geometry":{"type":"LineString","coordinates":[[151.2040031,-33.9313788],[151.2041923,-33.9223642],[151.2043815,-33.9133496],[151.2045706,-33.904335],[151.2047595,-33.8953204],[151.2049485,-33.8863057],[151.2051373,-33.8772911],[151.205326,-33.8682764],[151.2055147,-33.8592617],[151.2057033,-33.850247],[151.2058918,-33.8412323],[151.2060802,-33.8322176],[151.2062685,-33.8232028],[151.2064567,-33.8141881]]}},{"type":"Feature","properties":{"axis":"E","value":335000,"spacing":1000,"datum":"gda2020","anchor":false},"geometry":{"type":"LineString","coordinates":[[151.2148177,-33.9315361],[151.2150058,-33.9225214],[151.2151938,-33.9135068],[151.2153818,-33.9044921],[151.2155696,-33.8954774],[151.2157574,-33.8864628],[151.2159451,-33.877448],[151.2161327,-33.8684333],[151.2163202,-33.8594186],[151.2165077,-33.8504038],[151.216695,-33.8413891],[151.2168823,-33.8323743],[151.2170695,-33.8233595],[151.2172566,-33.8143447]]}},{"type":"Feature","properties":{"axis":"E","value":336000,"spacing":1000,"datum":"gda2020","anchor":false},"geometry":{"type":"LineString","coordinates":[[151.2256324,-33.9316924],[151.2258194,-33.9226777],[151.2260063,-33.913663],[151.2261931,-33.9046483],[151.2263798,-33.8956336],[151.2265665,-33.8866188],[151.226753,-33.8776041],[151.2269395,-33.8685893],[151.2271259,-33.8595745],[151.2273122,-33.8505597],[151.2274984,-33.8415449],[151.2276845,-33.8325301],[151.2278706,-33.8235152],[151.2280566,-33.8145004]]}},{"type":"Feature","properties":{"axis":"E","value":337000,"spacing":1000,"datum":"gda2020","anchor":false},"geometry":{"type":"LineString","coordinates":[[151.2364472,-33.9318478],[151.2366331,-33.9228331],[151.2368188,-33.9138183],[151.2370045,-33.9048036],[151.2371901,-33.8957888],[151.2373756,-33.886774],[151.237561,-33.8777592],[151.2377463,-33.8687444],[151.2379316,-33.8597295],[151.2381168,-33.8507147],[151.2383019,-33.8416998],[151.2384869,-33.8326849],[151.2386718,-33.82367],[151.2388566,-33.8146551]]}},{"type":"Feature","properties":{"axis":"E","value":338000,"spacing":1000,"datum":"gda2020","anchor":true},"geometry":{"type":"LineString","coordinates":[[151.2472621,-33.9320023],[151.2474468,-33.9229875],[151.2476314,-33.9139727],[151.247816,-33.9049579],[151.2480004,-33.895943],[151.2481848,-33.8869282],[151.2483691,-33.8779133],[151.2485533,-33.8688985],[151.2487374,-33.8598836],[151.2489214,-33.8508687],[151.2491054,-33.8418537],[151.2492893,-33.8328388],[151.2494731,-33.8238239],[151.2496568,-33.8148089]]}},{"type":"Feature","properties":{"axis":"E","value":339000,"spacing":1000,"datum":"gda2020","anchor":false},"geometry":{"type":"LineString","coordinates":[[151.2580771,-33.9321558],[151.2582607,-33.923141],[151.2584441,-33.9141261],[151.2586275,-33.9051112],[151.2588108,-33.8960964],[151.2589941,-33.8870815],[151.2591772,-33.8780665],[151.2593603,-33.8690516],[151.2595433,-33.8600367],[151.2597262,-33.8510217],[151.259909,-33.8420067],[151.2600917,-33.8329917],[151.2602744,-33.8239767],[151.260457,-33.8149617]]}},{"type":"Feature","properties":{"axis":"E","value":340000,"spacing":1000,"datum":"gda2020","anchor":false},"geometry":{"type":"LineString","coordinates":[[151.2688922,-33.9323084],[151.2690746,-33.9232935],[151.2692569,-33.9142786],[151.2694392,-33.9052636],[151.2696213,-33.8962487],[151.2698034,-33.8872338],[151.2699855,-33.8782188],[151.2701674,-33.8692038],[151.2703492,-33.8601888],[151.270531,-33.8511738],[151.2707127,-33.8421588],[151.2708943,-33.8331437],[151.2710758,-33.8241287],[151.2712573,-33.8151136]]}},{"type":"Feature","properties":{"axis":"E","value":341000,"spacing":1000,"datum":"gda2020","anchor":false},"geometry":{"type":"LineString","coordinates":[[151.2797073,-33.93246],[151.2798886,-33.923445],[151.2800698,-33.9144301],[151.2802509,-33.9054151],[151.2804319,-33.8964001],[151.2806129,-33.8873851],[151.2807938,-33.8783701],[151.2809746,-33.8693551],[151.2811553,-33.86034],[151.2813359,-33.851325],[151.2815165,-33.8423099],[151.2816969,-33.8332948],[151.2818773,-33.8242797],[151.2820577,-33.8152646]]}},{"type":"Feature","properties":{"axis":"E","value":342000,"spacing":1000,"datum":"gda2020","anchor":false},"geometry":{"type":"LineString","coordinates":[[151.2905225,-33.9326107],[151.2907026,-33.9235957],[151.2908827,-33.9145806],[151.2910627,-33.9055656],[151.2912426,-33.8965506],[151.2914224,-33.8875355],[151.2916022,-33.8785205],[151.2917818,-33.8695054],[151.2919614,-33.8604903],[151.2921409,-33.8514752],[151.2923203,-33.84246],[151.2924997,-33.8334449],[151.2926789,-33.8244297],[151.2928581,-33.8154146]]}},{"type":"Feature","properties":{"axis":"E","value":343000,"spacing":1000,"datum":"gda2020","anchor":false},"geometry":{"type":"LineString","coordinates":[[151.3013378,-33.9327604],[151.3015168,-33.9237453],[151.3016957,-33.9147303],[151.3018746,-33.9057152],[151.3020533,-33.8967001],[151.302232,-33.887685],[151.3024106,-33.8786699],[151.3025892,-33.8696547],[151.3027676,-33.8606396],[151.302946,-33.8516244],[151.3031243,-33.8426092],[151.3033025,-33.8335941],[151.3034806,-33.8245788],[151.3036587,-33.8155636]]}},{"type":"Feature","properties":{"axis":"E","value":344000,"spacing":1000,"datum":"gda2020","anchor":false},"geometry":{"type":"LineString","coordinates":[[151.3121532,-33.9329091],[151.312331,-33.923894],[151.3125088,-33.9148789],[151.3126865,-33.9058638],[151.3128642,-33.8968487],[151.3130417,-33.8878335],[151.3132192,-33.8788183],[151.3133966,-33.8698031],[151.3135739,-33.8607879],[151.3137511,-33.8517727],[151.3139283,-33.8427575],[151.3141054,-33.8337423],[151.3142824,-33.824727],[151.3144593,-33.8157117]]}},{"type":"Feature","properties":{"axis":"N","value":6244000,"spacing":1000,"datum":"gda2020","anchor":false},"geometry":{"type":"LineString","coordinates":[[151.1715596,-33.9309011],[151.182374,-33.9310613],[151.1931885,-33.9312205],[151.2040031,-33.9313788],[151.2148177,-33.9315361],[151.2256324,-33.9316924],[151.2364472,-33.9318478],[151.2472621,-33.9320023],[151.2580771,-33.9321558],[151.2688922,-33.9323084],[151.2797073,-33.93246],[151.2905225,-33.9326107],[151.3013378,-33.9327604],[151.3121532,-33.9329091]]}},{"type":"Feature","properties":{"axis":"N","value":6245000,"spacing":1000,"datum":"gda2020","anchor":false},"geometry":{"type":"LineString","coordinates":[[151.1717523,-33.9218867],[151.1825656,-33.9220468],[151.1933789,-33.922206],[151.2041923,-33.9223642],[151.2150058,-33.9225214],[151.2258194,-33.9226777],[151.2366331,-33.9228331],[151.2474468,-33.9229875],[151.2582607,-33.923141],[151.2690746,-33.9232935],[151.2798886,-33.923445],[151.2907026,-33.9235957],[151.3015168,-33.9237453],[151.312331,-33.923894]]}},{"type":"Feature","properties":{"axis":"N","value":6246000,"spacing":1000,"datum":"gda2020","anchor":false},"geometry":{"type":"LineString","coordinates":[[151.1719449,-33.9128723],[151.182757,-33.9130323],[151.1935692,-33.9131914],[151.2043815,-33.9133496],[151.2151938,-33.9135068],[151.2260063,-33.913663],[151.2368188,-33.9138183],[151.2476314,-33.9139727],[151.2584441,-33.9141261],[151.2692569,-33.9142786],[151.2800698,-33.9144301],[151.2908827,-33.9145806],[151.3016957,-33.9147303],[151.3125088,-33.9148789]]}},{"type":"Feature","properties":{"axis":"N","value":6247000,"spacing":1000,"datum":"gda2020","anchor":false},"geometry":{"type":"LineString","coordinates":[[151.1721374,-33.9038578],[151.1829483,-33.9040178],[151.1937594,-33.9041769],[151.2045706,-33.904335],[151.2153818,-33.9044921],[151.2261931,-33.9046483],[151.2370045,-33.9048036],[151.247816,-33.9049579],[151.2586275,-33.9051112],[151.2694392,-33.9052636],[151.2802509,-33.9054151],[151.2910627,-33.9055656],[151.3018746,-33.9057152],[151.3126865,-33.9058638]]}},{"type":"Feature","properties":{"axis":"N","value":6248000,"spacing":1000,"datum":"gda2020","anchor":false},"geometry":{"type":"LineString","coordinates":[[151.1723298,-33.8948434],[151.1831396,-33.8950033],[151.1939495,-33.8951623],[151.2047595,-33.8953204],[151.2155696,-33.8954774],[151.2263798,-33.8956336],[151.2371901,-33.8957888],[151.2480004,-33.895943],[151.2588108,-33.8960964],[151.2696213,-33.8962487],[151.2804319,-33.8964001],[151.2912426,-33.8965506],[151.3020533,-33.8967001],[151.3128642,-33.8968487]]}},{"type":"Feature","properties":{"axis":"N","value":6249000,"spacing":1000,"datum":"gda2020","anchor":false},"geometry":{"type":"LineString","coordinates":[[151.1725221,-33.8858289],[151.1833308,-33.8859888],[151.1941396,-33.8861477],[151.2049485,-33.8863057],[151.2157574,-33.8864628],[151.2265665,-33.8866188],[151.2373756,-33.886774],[151.2481848,-33.8869282],[151.2589941,-33.8870815],[151.2698034,-33.8872338],[151.2806129,-33.8873851],[151.2914224,-33.8875355],[151.302232,-33.887685],[151.3130417,-33.8878335]]}},{"type":"Feature","properties":{"axis":"N","value":6250000,"spacing":1000,"datum":"gda2020","anchor":true},"geometry":{"type":"LineString","coordinates":[[151.1727143,-33.8768144],[151.1835219,-33.8769742],[151.1943295,-33.8771331],[151.2051373,-33.8772911],[151.2159451,-33.877448],[151.226753,-33.8776041],[151.237561,-33.8777592],[151.2483691,-33.8779133],[151.2591772,-33.8780665],[151.2699855,-33.8782188],[151.2807938,-33.8783701],[151.2916022,-33.8785205],[151.3024106,-33.8786699],[151.3132192,-33.8788183]]}},{"type":"Feature","properties":{"axis":"N","value":6251000,"spacing":1000,"datum":"gda2020","anchor":false},"geometry":{"type":"LineString","coordinates":[[151.1729065,-33.8677999],[151.1837129,-33.8679597],[151.1945194,-33.8681185],[151.205326,-33.8682764],[151.2161327,-33.8684333],[151.2269395,-33.8685893],[151.2377463,-33.8687444],[151.2485533,-33.8688985],[151.2593603,-33.8690516],[151.2701674,-33.8692038],[151.2809746,-33.8693551],[151.2917818,-33.8695054],[151.3025892,-33.8696547],[151.3133966,-33.8698031]]}},{"type":"Feature","properties":{"axis":"N","value":6252000,"spacing":1000,"datum":"gda2020","anchor":false},"geometry":{"type":"LineString","coordinates":[[151.1730985,-33.8587854],[151.1839038,-33.8589451],[151.1947092,-33.8591039],[151.2055147,-33.8592617],[151.2163202,-33.8594186],[151.2271259,-33.8595745],[151.2379316,-33.8597295],[151.2487374,-33.8598836],[151.2595433,-33.8600367],[151.2703492,-33.8601888],[151.2811553,-33.86034],[151.2919614,-33.8604903],[151.3027676,-33.8606396],[151.3135739,-33.8607879]]}},{"type":"Feature","properties":{"axis":"N","value":6253000,"spacing":1000,"datum":"gda2020","anchor":false},"geometry":{"type":"LineString","coordinates":[[151.1732905,-33.8497708],[151.1840947,-33.8499305],[151.1948989,-33.8500892],[151.2057033,-33.850247],[151.2165077,-33.8504038],[151.2273122,-33.8505597],[151.2381168,-33.8507147],[151.2489214,-33.8508687],[151.2597262,-33.8510217],[151.270531,-33.8511738],[151.2813359,-33.851325],[151.2921409,-33.8514752],[151.302946,-33.8516244],[151.3137511,-33.8517727]]}},{"type":"Feature","properties":{"axis":"N","value":6254000,"spacing":1000,"datum":"gda2020","anchor":false},"geometry":{"type":"LineString","coordinates":[[151.1734824,-33.8407563],[151.1842854,-33.8409159],[151.1950886,-33.8410746],[151.2058918,-33.8412323],[151.216695,-33.8413891],[151.2274984,-33.8415449],[151.2383019,-33.8416998],[151.2491054,-33.8418537],[151.259909,-33.8420067],[151.2707127,-33.8421588],[151.2815165,-33.8423099],[151.2923203,-33.84246],[151.3031243,-33.8426092],[151.3139283,-33.8427575]]}},{"type":"Feature","properties":{"axis":"N","value":6255000,"spacing":1000,"datum":"gda2020","anchor":false},"geometry":{"type":"LineString","coordinates":[[151.1736742,-33.8317417],[151.1844761,-33.8319013],[151.1952781,-33.8320599],[151.2060802,-33.8322176],[151.2168823,-33.8323743],[151.2276845,-33.8325301],[151.2384869,-33.8326849],[151.2492893,-33.8328388],[151.2600917,-33.8329917],[151.2708943,-33.8331437],[151.2816969,-33.8332948],[151.2924997,-33.8334449],[151.3033025,-33.8335941],[151.3141054,-33.8337423]]}},{"type":"Feature","properties":{"axis":"N","value":6256000,"spacing":1000,"datum":"gda2020","anchor":false},"geometry":{"type":"LineString","coordinates":[[151.1738659,-33.8227271],[151.1846667,-33.8228867],[151.1954676,-33.8230452],[151.2062685,-33.8232028],[151.2170695,-33.8233595],[151.2278706,-33.8235152],[151.2386718,-33.82367],[151.2494731,-33.8238239],[151.2602744,-33.8239767],[151.2710758,-33.8241287],[151.2818773,-33.8242797],[151.2926789,-33.8244297],[151.3034806,-33.8245788],[151.3142824,-33.824727]]}},{"type":"Feature","properties":{"axis":"N","value":6257000,"spacing":1000,"datum":"gda2020","anchor":false},"geometry":{"type":"LineString","coordinates":[[151.1740576,-33.8137126],[151.1848572,-33.813872],[151.1956569,-33.8140305],[151.2064567,-33.8141881],[151.2172566,-33.8143447],[151.2280566,-33.8145004],[151.2388566,-33.8146551],[151.2496568,-33.8148089],[151.260457,-33.8149617],[151.2712573,-33.8151136],[151.2820577,-33.8152646],[151.2928581,-33.8154146],[151.3036587,-33.8155636],[151.3144593,-33.8157117]]}},{"type":"Feature","properties":{"axis":"E","value":331500,"spacing":250,"datum":"gda2020","anchor":false},"geometry":{"type":"LineString","coordinates":[[151.1769668,-33.9309813],[151.1771629,-33.9217791],[151.1773589,-33.9125768],[151.1775548,-33.9033745],[151.1777507,-33.8941723],[151.1779464,-33.8849699],[151.1781421,-33.8757676],[151.1783376,-33.8665653],[151.1785331,-33.8573629],[151.1787285,-33.8481606],[151.1789238,-33.8389582],[151.179119,-33.8297558],[151.1793141,-33.8205534]]}},{"type":"Feature","properties":{"axis":"E","value":331750,"spacing":250,"datum":"gda2020","anchor":false},"geometry":{"type":"LineString","coordinates":[[151.1796704,-33.9310214],[151.1798662,-33.9218191],[151.1800619,-33.9126168],[151.1802576,-33.9034145],[151.1804531,-33.8942122],[151.1806486,-33.8850099],[151.1808439,-33.8758075],[151.1810392,-33.8666052],[151.1812344,-33.8574028],[151.1814295,-33.8482004],[151.1816245,-33.838998],[151.1818194,-33.8297956],[151.1820142,-33.8205932]]}},{"type":"Feature","properties":{"axis":"E","value":332250,"spacing":250,"datum":"gda2020","anchor":false},"geometry":{"type":"LineString","coordinates":[[151.1850776,-33.9311012],[151.1852729,-33.9218989],[151.185468,-33.9126966],[151.185663,-33.9034943],[151.185858,-33.8942919],[151.1860529,-33.8850896],[151.1862476,-33.8758872],[151.1864423,-33.8666848],[151.1866369,-33.8574824],[151.1868315,-33.84828],[151.1870259,-33.8390776],[151.1872202,-33.8298752],[151.1874145,-33.8206727]]}},{"type":"Feature","properties":{"axis":"E","value":332500,"spacing":250,"datum":"gda2020","anchor":false},"geometry":{"type":"LineString","coordinates":[[151.1877813,-33.931141],[151.1879762,-33.9219387],[151.188171,-33.9127364],[151.1883658,-33.9035341],[151.1885605,-33.8943317],[151.188755,-33.8851294],[151.1889495,-33.875927],[151.1891439,-33.8667246],[151.1893382,-33.8575222],[151.1895325,-33.8483197],[151.1897266,-33.8391173],[151.1899206,-33.8299149],[151.1901146,-33.8207124]]}},{"type":"Feature","properties":{"axis":"E","value":332750,"spacing":250,"datum":"gda2020","anchor":false},"geometry":{"type":"LineString","coordinates":[[151.1904849,-33.9311808],[151.1906795,-33.9219785],[151.1908741,-33.9127761],[151.1910685,-33.9035738],[151.1912629,-33.8943714],[151.1914572,-33.8851691],[151.1916514,-33.8759667],[151.1918455,-33.8667643],[151.1920395,-33.8575618],[151.1922335,-33.8483594],[151.1924273,-33.8391569],[151.1926211,-33.8299545],[151.1928148,-33.820752]]}},{"type":"Feature","properties":{"axis":"E","value":333250,"spacing":250,"datum":"gda2020","anchor":false},"geometry":{"type":"LineString","coordinates":[[151.1958921,-33.9312602],[151.1960862,-33.9220578],[151.1962802,-33.9128555],[151.1964741,-33.9036531],[151.1966678,-33.8944507],[151.1968616,-33.8852483],[151.1970552,-33.8760459],[151.1972487,-33.8668434],[151.1974422,-33.857641],[151.1976355,-33.8484385],[151.1978288,-33.839236],[151.198022,-33.8300335],[151.1982151,-33.820831]]}},{"type":"Feature","properties":{"axis":"E","value":333500,"spacing":250,"datum":"gda2020","anchor":false},"geometry":{"type":"LineString","coordinates":[[151.1985958,-33.9312998],[151.1987895,-33.9220974],[151.1989832,-33.912895],[151.1991768,-33.9036926],[151.1993703,-33.8944902],[151.1995637,-33.8852878],[151.1997571,-33.8760854],[151.1999503,-33.8668829],[151.2001435,-33.8576805],[151.2003365,-33.848478],[151.2005295,-33.8392755],[151.2007224,-33.830073],[151.2009152,-33.8208705]]}},{"type":"Feature","properties":{"axis":"E","value":333750,"spacing":250,"datum":"gda2020","anchor":false},"geometry":{"type":"LineString","coordinates":[[151.2012994,-33.9313393],[151.2014929,-33.9221369],[151.2016863,-33.9129345],[151.2018796,-33.9037321],[151.2020728,-33.8945297],[151.2022659,-33.8853273],[151.202459,-33.8761248],[151.2026519,-33.8669224],[151.2028448,-33.8577199],[151.2030376,-33.8485174],[151.2032303,-33.8393149],[151.2034229,-33.8301124],[151.2036154,-33.8209098]]}},{"type":"Feature","properties":{"axis":"E","value":334250,"spacing":250,"datum":"gda2020","anchor":false},"geometry":{"type":"LineString","coordinates":[[151.2067067,-33.9314182],[151.2068996,-33.9222158],[151.2070924,-33.9130134],[151.2072851,-33.9038109],[151.2074778,-33.8946085],[151.2076703,-33.885406],[151.2078628,-33.8762036],[151.2080552,-33.8670011],[151.2082475,-33.8577986],[151.2084397,-33.848596],[151.2086318,-33.8393935],[151.2088238,-33.830191],[151.2090157,-33.8209884]]}},{"type":"Feature","properties":{"axis":"E","value":334500,"spacing":250,"datum":"gda2020","anchor":false},"geometry":{"type":"LineString","coordinates":[[151.2094104,-33.9314575],[151.209603,-33.9222551],[151.2097955,-33.9130527],[151.2099879,-33.9038503],[151.2101803,-33.8946478],[151.2103725,-33.8854453],[151.2105647,-33.8762428],[151.2107568,-33.8670403],[151.2109488,-33.8578378],[151.2111407,-33.8486353],[151.2113325,-33.8394327],[151.2115243,-33.8302302],[151.2117159,-33.8210276]]}},{"type":"Feature","properties":{"axis":"E","value":334750,"spacing":250,"datum":"gda2020","anchor":false},"geometry":{"type":"LineString","coordinates":[[151.212114,-33.9314968],[151.2123064,-33.9222944],[151.2124986,-33.913092],[151.2126907,-33.9038895],[151.2128828,-33.894687],[151.2130748,-33.8854846],[151.2132666,-33.876282],[151.2134584,-33.8670795],[151.2136501,-33.857877],[151.2138418,-33.8486745],[151.2140333,-33.8394719],[151.2142247,-33.8302693],[151.2144161,-33.8210667]]}},{"type":"Feature","properties":{"axis":"E","value":335250,"spacing":250,"datum":"gda2020","anchor":false},"geometry":{"type":"LineString","coordinates":[[151.2175214,-33.9315753],[151.2177131,-33.9223728],[151.2179048,-33.9131703],[151.2180963,-33.9039678],[151.2182878,-33.8947653],[151.2184792,-33.8855628],[151.2186705,-33.8763603],[151.2188617,-33.8671578],[151.2190528,-33.8579552],[151.2192439,-33.8487526],[151.2194348,-33.83955],[151.2196257,-33.8303474],[151.2198165,-33.8211448]]}},{"type":"Feature","properties":{"axis":"E","value":335500,"spacing":250,"datum":"gda2020","anchor":false},"geometry":{"type":"LineString","coordinates":[[151.2202251,-33.9316144],[151.2204165,-33.9224119],[151.2206079,-33.9132094],[151.2207991,-33.9040069],[151.2209903,-33.8948044],[151.2211814,-33.8856019],[151.2213724,-33.8763993],[151.2215634,-33.8671968],[151.2217542,-33.8579942],[151.2219449,-33.8487916],[151.2221356,-33.839589],[151.2223262,-33.8303864],[151.2225167,-33.8211838]]}},{"type":"Feature","properties":{"axis":"E","value":335750,"spacing":250,"datum":"gda2020","anchor":false},"geometry":{"type":"LineString","coordinates":[[151.2229287,-33.9316534],[151.2231199,-33.922451],[151.223311,-33.9132485],[151.2235019,-33.9040459],[151.2236928,-33.8948434],[151.2238837,-33.8856409],[151.2240744,-33.8764383],[151.224265,-33.8672358],[151.2244556,-33.8580332],[151.224646,-33.8488306],[151.2248364,-33.839628],[151.2250267,-33.8304253],[151.2252169,-33.8212227]]}},{"type":"Feature","properties":{"axis":"E","value":336250,"spacing":250,"datum":"gda2020","anchor":false},"geometry":{"type":"LineString","coordinates":[[151.2283361,-33.9317314],[151.2285267,-33.9225289],[151.2287172,-33.9133263],[151.2289076,-33.9041238],[151.2290979,-33.8949213],[151.2292881,-33.8857187],[151.2294783,-33.8765161],[151.2296683,-33.8673135],[151.2298583,-33.8581109],[151.2300482,-33.8489083],[151.230238,-33.8397056],[151.2304277,-33.830503],[151.2306173,-33.8213003]]}},{"type":"Feature","properties":{"axis":"E","value":336500,"spacing":250,"datum":"gda2020","anchor":false},"geometry":{"type":"LineString","coordinates":[[151.2310398,-33.9317703],[151.2312301,-33.9225677],[151.2314203,-33.9133652],[151.2316104,-33.9041626],[151.2318004,-33.8949601],[151.2319904,-33.8857575],[151.2321802,-33.8765549],[151.23237,-33.8673523],[151.2325597,-33.8581497],[151.2327493,-33.848947],[151.2329388,-33.8397444],[151.2331282,-33.8305417],[151.2333175,-33.821339]]}},{"type":"Feature","properties":{"axis":"E","value":336750,"spacing":250,"datum":"gda2020","anchor":false},"geometry":{"type":"LineString","coordinates":[[151.2337435,-33.9318091],[151.2339335,-33.9226065],[151.2341234,-33.913404],[151.2343133,-33.9042014],[151.234503,-33.8949989],[151.2346926,-33.8857963],[151.2348822,-33.8765936],[151.2350717,-33.867391],[151.2352611,-33.8581884],[151.2354504,-33.8489857],[151.2356396,-33.8397831],[151.2358287,-33.8305804],[151.2360178,-33.8213777]]}},{"type":"Feature","properties":{"axis":"E","value":337250,"spacing":250,"datum":"gda2020","anchor":false},"geometry":{"type":"LineString","coordinates":[[151.239151,-33.9318866],[151.2393404,-33.922684],[151.2395297,-33.9134814],[151.2397189,-33.9042788],[151.2399081,-33.8950762],[151.2400972,-33.8858736],[151.2402861,-33.876671],[151.240475,-33.8674683],[151.2406639,-33.8582656],[151.2408526,-33.849063],[151.2410412,-33.8398603],[151.2412298,-33.8306576],[151.2414182,-33.8214548]]}},{"type":"Feature","properties":{"axis":"E","value":337500,"spacing":250,"datum":"gda2020","anchor":false},"geometry":{"type":"LineString","coordinates":[[151.2418547,-33.9319252],[151.2420438,-33.9227226],[151.2422328,-33.91352],[151.2424218,-33.9043174],[151.2426106,-33.8951148],[151.2427994,-33.8859122],[151.2429881,-33.8767095],[151.2431767,-33.8675069],[151.2433653,-33.8583042],[151.2435537,-33.8491015],[151.243742,-33.8398988],[151.2439303,-33.8306961],[151.2441185,-33.8214933]]}},{"type":"Feature","properties":{"axis":"E","value":337750,"spacing":250,"datum":"gda2020","anchor":false},"geometry":{"type":"LineString","coordinates":[[151.2445584,-33.9319638],[151.2447472,-33.9227612],[151.244936,-33.9135586],[151.2451246,-33.904356],[151.2453132,-33.8951533],[151.2455017,-33.8859507],[151.2456901,-33.876748],[151.2458784,-33.8675454],[151.2460667,-33.8583427],[151.2462548,-33.84914],[151.2464429,-33.8399372],[151.2466308,-33.8307345],[151.2468187,-33.8215317]]}},{"type":"Feature","properties":{"axis":"E","value":338250,"spacing":250,"datum":"gda2020","anchor":false},"geometry":{"type":"LineString","coordinates":[[151.2499659,-33.9320408],[151.2501541,-33.9228382],[151.2503423,-33.9136355],[151.2505304,-33.9044329],[151.2507184,-33.8952302],[151.2509063,-33.8860276],[151.2510941,-33.8768249],[151.2512818,-33.8676222],[151.2514695,-33.8584194],[151.2516571,-33.8492167],[151.2518445,-33.840014],[151.2520319,-33.8308112],[151.2522192,-33.8216084]]}},{"type":"Feature","properties":{"axis":"E","value":338500,"spacing":250,"datum":"gda2020","anchor":false},"geometry":{"type":"LineString","coordinates":[[151.2526696,-33.9320792],[151.2528576,-33.9228766],[151.2530454,-33.9136739],[151.2532332,-33.9044713],[151.2534209,-33.8952686],[151.2536086,-33.8860659],[151.2537961,-33.8768632],[151.2539835,-33.8676605],[151.2541709,-33.8584577],[151.2543582,-33.849255],[151.2545454,-33.8400522],[151.2547325,-33.8308495],[151.2549195,-33.8216467]]}},{"type":"Feature","properties":{"axis":"E","value":338750,"spacing":250,"datum":"gda2020","anchor":false},"geometry":{"type":"LineString","coordinates":[[151.2553733,-33.9321175],[151.255561,-33.9229149],[151.2557486,-33.9137122],[151.2559361,-33.9045096],[151.2561235,-33.8953069],[151.2563109,-33.8861042],[151.2564981,-33.8769015],[151.2566853,-33.8676987],[151.2568723,-33.858496],[151.2570593,-33.8492932],[151.2572462,-33.8400905],[151.257433,-33.8308877],[151.2576198,-33.8216849]]}},{"type":"Feature","properties":{"axis":"E","value":339250,"spacing":250,"datum":"gda2020","anchor":false},"geometry":{"type":"LineString","coordinates":[[151.2607809,-33.9321941],[151.2609679,-33.9229914],[151.261155,-33.9137887],[151.2613419,-33.904586],[151.2615287,-33.8953833],[151.2617155,-33.8861806],[151.2619021,-33.8769778],[151.2620887,-33.8677751],[151.2622752,-33.8585723],[151.2624616,-33.8493695],[151.2626479,-33.8401667],[151.2628342,-33.8309639],[151.2630203,-33.8217611]]}},{"type":"Feature","properties":{"axis":"E","value":339500,"spacing":250,"datum":"gda2020","anchor":false},"geometry":{"type":"LineString","coordinates":[[151.2634846,-33.9322322],[151.2636714,-33.9230295],[151.2638581,-33.9138268],[151.2640448,-33.9046241],[151.2642313,-33.8954214],[151.2644178,-33.8862187],[151.2646041,-33.8770159],[151.2647904,-33.8678131],[151.2649766,-33.8586104],[151.2651628,-33.8494076],[151.2653488,-33.8402047],[151.2655348,-33.8310019],[151.2657206,-33.8217991]]}},{"type":"Feature","properties":{"axis":"E","value":339750,"spacing":250,"datum":"gda2020","anchor":false},"geometry":{"type":"LineString","coordinates":[[151.2661884,-33.9322703],[151.2663749,-33.9230676],[151.2665613,-33.9138649],[151.2667477,-33.9046622],[151.2669339,-33.8954595],[151.2671201,-33.8862567],[151.2673062,-33.8770539],[151.2674922,-33.8678512],[151.2676781,-33.8586484],[151.2678639,-33.8494456],[151.2680497,-33.8402427],[151.2682353,-33.8310399],[151.2684209,-33.821837]]}},{"type":"Feature","properties":{"axis":"E","value":340250,"spacing":250,"datum":"gda2020","anchor":false},"geometry":{"type":"LineString","coordinates":[[151.2715959,-33.9323464],[151.2717819,-33.9231437],[151.2719677,-33.9139409],[151.2721535,-33.9047382],[151.2723391,-33.8955354],[151.2725247,-33.8863326],[151.2727102,-33.8771298],[151.2728957,-33.867927],[151.273081,-33.8587242],[151.2732662,-33.8495214],[151.2734514,-33.8403185],[151.2736365,-33.8311156],[151.2738215,-33.8219128]]}},{"type":"Feature","properties":{"axis":"E","value":340500,"spacing":250,"datum":"gda2020","anchor":false},"geometry":{"type":"LineString","coordinates":[[151.2742997,-33.9323843],[151.2744853,-33.9231816],[151.2746709,-33.9139788],[151.2748564,-33.9047761],[151.2750418,-33.8955733],[151.2752271,-33.8863705],[151.2754123,-33.8771677],[151.2755974,-33.8679649],[151.2757825,-33.858762],[151.2759674,-33.8495592],[151.2761523,-33.8403563],[151.2763371,-33.8311534],[151.2765218,-33.8219505]]}},{"type":"Feature","properties":{"axis":"E","value":340750,"spacing":250,"datum":"gda2020","anchor":false},"geometry":{"type":"LineString","coordinates":[[151.2770035,-33.9324222],[151.2771888,-33.9232194],[151.2773741,-33.9140167],[151.2775593,-33.9048139],[151.2777444,-33.8956111],[151.2779294,-33.8864083],[151.2781143,-33.8772055],[151.2782992,-33.8680026],[151.2784839,-33.8587998],[151.2786686,-33.8495969],[151.2788532,-33.8403941],[151.2790377,-33.8311912],[151.2792221,-33.8219883]]}},{"type":"Feature","properties":{"axis":"E","value":341250,"spacing":250,"datum":"gda2020","anchor":false},"geometry":{"type":"LineString","coordinates":[[151.2824111,-33.9324978],[151.2825959,-33.923295],[151.2827805,-33.9140922],[151.2829651,-33.9048894],[151.2831496,-33.8956866],[151.2833341,-33.8864837],[151.2835184,-33.8772809],[151.2837027,-33.868078],[151.2838869,-33.8588752],[151.284071,-33.8496723],[151.284255,-33.8404694],[151.2844389,-33.8312664],[151.2846227,-33.8220635]]}},{"type":"Feature","properties":{"axis":"E","value":341500,"spacing":250,"datum":"gda2020","anchor":false},"geometry":{"type":"LineString","coordinates":[[151.2851149,-33.9325354],[151.2852994,-33.9233327],[151.2854838,-33.9141299],[151.2856681,-33.904927],[151.2858523,-33.8957242],[151.2860364,-33.8865214],[151.2862205,-33.8773185],[151.2864045,-33.8681156],[151.2865883,-33.8589127],[151.2867722,-33.8497098],[151.2869559,-33.8405069],[151.2871395,-33.831304],[151.2873231,-33.822101]]}},{"type":"Feature","properties":{"axis":"E","value":341750,"spacing":250,"datum":"gda2020","anchor":false},"geometry":{"type":"LineString","coordinates":[[151.2878187,-33.9325731],[151.2880029,-33.9233703],[151.288187,-33.9141675],[151.288371,-33.9049646],[151.2885549,-33.8957618],[151.2887388,-33.8865589],[151.2889225,-33.8773561],[151.2891062,-33.8681532],[151.2892898,-33.8589503],[151.2894734,-33.8497474],[151.2896568,-33.8405444],[151.2898401,-33.8313415],[151.2900234,-33.8221385]]}},{"type":"Feature","properties":{"axis":"E","value":342250,"spacing":250,"datum":"gda2020","anchor":false},"geometry":{"type":"LineString","coordinates":[[151.2932263,-33.9326482],[151.2934099,-33.9234454],[151.2935934,-33.9142425],[151.2937769,-33.9050397],[151.2939602,-33.8958368],[151.2941435,-33.8866339],[151.2943267,-33.877431],[151.2945098,-33.8682281],[151.2946928,-33.8590252],[151.2948758,-33.8498222],[151.2950586,-33.8406193],[151.2952414,-33.8314163],[151.2954241,-33.8222133]]}},{"type":"Feature","properties":{"axis":"E","value":342500,"spacing":250,"datum":"gda2020","anchor":false},"geometry":{"type":"LineString","coordinates":[[151.2959301,-33.9326856],[151.2961135,-33.9234828],[151.2962967,-33.9142799],[151.2964798,-33.9050771],[151.2966629,-33.8958742],[151.2968459,-33.8866713],[151.2970288,-33.8774684],[151.2972116,-33.8682655],[151.2973943,-33.8590625],[151.297577,-33.8498596],[151.2977595,-33.8406566],[151.297942,-33.8314536],[151.2981244,-33.8222506]]}},{"type":"Feature","properties":{"axis":"E","value":342750,"spacing":250,"datum":"gda2020","anchor":false},"geometry":{"type":"LineString","coordinates":[[151.298634,-33.932723],[151.298817,-33.9235202],[151.2989999,-33.9143173],[151.2991828,-33.9051144],[151.2993656,-33.8959115],[151.2995483,-33.8867086],[151.2997309,-33.8775057],[151.2999134,-33.8683028],[151.3000958,-33.8590998],[151.3002782,-33.8498969],[151.3004605,-33.8406939],[151.3006427,-33.8314909],[151.3008248,-33.8222879]]}},{"type":"Feature","properties":{"axis":"E","value":343250,"spacing":250,"datum":"gda2020","anchor":false},"geometry":{"type":"LineString","coordinates":[[151.3040416,-33.9327977],[151.3042241,-33.9235948],[151.3044064,-33.9143919],[151.3045887,-33.905189],[151.3047709,-33.8959861],[151.304953,-33.8867831],[151.305135,-33.8775802],[151.305317,-33.8683772],[151.3054989,-33.8591742],[151.3056806,-33.8499712],[151.3058623,-33.8407682],[151.3060439,-33.8315652],[151.3062255,-33.8223622]]}},{"type":"Feature","properties":{"axis":"E","value":343500,"spacing":250,"datum":"gda2020","anchor":false},"geometry":{"type":"LineString","coordinates":[[151.3067455,-33.9328349],[151.3069276,-33.923632],[151.3071097,-33.9144291],[151.3072917,-33.9052262],[151.3074736,-33.8960232],[151.3076554,-33.8868203],[151.3078371,-33.8776173],[151.3080188,-33.8684143],[151.3082004,-33.8592114],[151.3083819,-33.8500083],[151.3085633,-33.8408053],[151.3087446,-33.8316023],[151.3089258,-33.8223992]]}},{"type":"Feature","properties":{"axis":"E","value":343750,"spacing":250,"datum":"gda2020","anchor":false},"geometry":{"type":"LineString","coordinates":[[151.3094493,-33.932872],[151.3096312,-33.9236691],[151.309813,-33.9144662],[151.3099947,-33.9052633],[151.3101763,-33.8960603],[151.3103578,-33.8868574],[151.3105393,-33.8776544],[151.3107206,-33.8684514],[151.3109019,-33.8592484],[151.3110831,-33.8500454],[151.3112642,-33.8408424],[151.3114453,-33.8316393],[151.3116262,-33.8224362]]}},{"type":"Feature","properties":{"axis":"N","value":6244250,"spacing":250,"datum":"gda2020","anchor":false},"geometry":{"type":"LineString","coordinates":[[151.1770149,-33.9287277],[151.1880543,-33.9288907],[151.1990938,-33.9290527],[151.2101334,-33.9292137],[151.2211732,-33.9293737],[151.2322129,-33.9295328],[151.2432528,-33.9296908],[151.2542928,-33.9298479],[151.2653328,-33.9300039],[151.276373,-33.930159],[151.2874132,-33.9303131],[151.2984535,-33.9304662],[151.3094939,-33.9306183]]}},{"type":"Feature","properties":{"axis":"N","value":6244500,"spacing":250,"datum":"gda2020","anchor":false},"geometry":{"type":"LineString","coordinates":[[151.1770629,-33.9264741],[151.188102,-33.9266371],[151.1991413,-33.9267991],[151.2101806,-33.9269601],[151.22122,-33.9271201],[151.2322595,-33.9272791],[151.2432991,-33.9274371],[151.2543388,-33.9275941],[151.2653785,-33.9277502],[151.2764184,-33.9279053],[151.2874583,-33.9280593],[151.2984983,-33.9282124],[151.3095384,-33.9283645]]}},{"type":"Feature","properties":{"axis":"N","value":6244750,"spacing":250,"datum":"gda2020","anchor":false},"geometry":{"type":"LineString","coordinates":[[151.1771109,-33.9242205],[151.1881498,-33.9243835],[151.1991887,-33.9245454],[151.2102277,-33.9247064],[151.2212669,-33.9248664],[151.2323061,-33.9250254],[151.2433454,-33.9251834],[151.2543848,-33.9253404],[151.2654242,-33.9254965],[151.2764638,-33.9256515],[151.2875034,-33.9258056],[151.2985431,-33.9259586],[151.3095829,-33.9261107]]}},{"type":"Feature","properties":{"axis":"N","value":6245250,"spacing":250,"datum":"gda2020","anchor":false},"geometry":{"type":"LineString","coordinates":[[151.1772069,-33.9197133],[151.1882452,-33.9198762],[151.1992836,-33.9200382],[151.210322,-33.9201991],[151.2213606,-33.9203591],[151.2323992,-33.920518],[151.2434379,-33.920676],[151.2544767,-33.920833],[151.2655156,-33.920989],[151.2765546,-33.9211441],[151.2875936,-33.9212981],[151.2986328,-33.9214511],[151.309672,-33.9216032]]}},{"type":"Feature","properties":{"axis":"N","value":6245500,"spacing":250,"datum":"gda2020","anchor":false},"geometry":{"type":"LineString","coordinates":[[151.1772549,-33.9174597],[151.1882929,-33.9176226],[151.199331,-33.9177845],[151.2103692,-33.9179454],[151.2214074,-33.9181054],[151.2324458,-33.9182644],[151.2434842,-33.9184223],[151.2545227,-33.9185793],[151.2655613,-33.9187353],[151.2766,-33.9188903],[151.2876387,-33.9190443],[151.2986776,-33.9191974],[151.3097165,-33.9193494]]}},{"type":"Feature","properties":{"axis":"N","value":6245750,"spacing":250,"datum":"gda2020","anchor":false},"geometry":{"type":"LineString","coordinates":[[151.1773029,-33.915206],[151.1883406,-33.915369],[151.1993784,-33.9155309],[151.2104163,-33.9156918],[151.2214543,-33.9158517],[151.2324923,-33.9160107],[151.2435304,-33.9161686],[151.2545687,-33.9163256],[151.265607,-33.9164816],[151.2766454,-33.9166366],[151.2876838,-33.9167906],[151.2987224,-33.9169436],[151.309761,-33.9170956]]}},{"type":"Feature","properties":{"axis":"N","value":6246250,"spacing":250,"datum":"gda2020","anchor":false},"geometry":{"type":"LineString","coordinates":[[151.1773989,-33.9106988],[151.188436,-33.9108617],[151.1994732,-33.9110236],[151.2105105,-33.9111845],[151.2215479,-33.9113444],[151.2325854,-33.9115033],[151.2436229,-33.9116612],[151.2546606,-33.9118182],[151.2656983,-33.9119741],[151.2767361,-33.9121291],[151.287774,-33.9122831],[151.298812,-33.9124361],[151.3098501,-33.9125881]]}},{"type":"Feature","properties":{"axis":"N","value":6246500,"spacing":250,"datum":"gda2020","anchor":false},"geometry":{"type":"LineString","coordinates":[[151.1774469,-33.9084452],[151.1884837,-33.9086081],[151.1995206,-33.9087699],[151.2105576,-33.9089308],[151.2215947,-33.9090907],[151.2326319,-33.9092496],[151.2436692,-33.9094075],[151.2547065,-33.9095645],[151.265744,-33.9097204],[151.2767815,-33.9098754],[151.2878191,-33.9100293],[151.2988568,-33.9101823],[151.3098946,-33.9103343]]}},{"type":"Feature","properties":{"axis":"N","value":6246750,"spacing":250,"datum":"gda2020","anchor":false},"geometry":{"type":"LineString","coordinates":[[151.1774949,-33.9061916],[151.1885314,-33.9063544],[151.199568,-33.9065163],[151.2106048,-33.9066772],[151.2216416,-33.906837],[151.2326784,-33.9069959],[151.2437154,-33.9071538],[151.2547525,-33.9073108],[151.2657896,-33.9074667],[151.2768269,-33.9076216],[151.2878642,-33.9077756],[151.2989016,-33.9079285],[151.309939,-33.9080805]]}},{"type":"Feature","properties":{"axis":"N","value":6247250,"spacing":250,"datum":"gda2020","anchor":false},"geometry":{"type":"LineString","coordinates":[[151.1775908,-33.9016843],[151.1886268,-33.9018472],[151.1996628,-33.902009],[151.210699,-33.9021698],[151.2217352,-33.9023297],[151.2327715,-33.9024885],[151.2438079,-33.9026464],[151.2548444,-33.9028033],[151.2658809,-33.9029592],[151.2769176,-33.9031141],[151.2879543,-33.9032681],[151.2989911,-33.903421],[151.310028,-33.903573]]}},{"type":"Feature","properties":{"axis":"N","value":6247500,"spacing":250,"datum":"gda2020","anchor":false},"geometry":{"type":"LineString","coordinates":[[151.1776388,-33.8994307],[151.1886744,-33.8995935],[151.1997102,-33.8997553],[151.210746,-33.8999162],[151.221782,-33.900076],[151.232818,-33.9002349],[151.2438541,-33.9003927],[151.2548903,-33.9005496],[151.2659266,-33.9007055],[151.2769629,-33.9008604],[151.2879994,-33.9010143],[151.2990359,-33.9011672],[151.3100725,-33.9013192]]}},{"type":"Feature","properties":{"axis":"N","value":6247750,"spacing":250,"datum":"gda2020","anchor":false},"geometry":{"type":"LineString","coordinates":[[151.1776867,-33.8971771],[151.1887221,-33.8973399],[151.1997576,-33.8975017],[151.2107931,-33.8976625],[151.2218288,-33.8978223],[151.2328645,-33.8979812],[151.2439003,-33.898139],[151.2549362,-33.8982959],[151.2659722,-33.8984518],[151.2770083,-33.8986067],[151.2880444,-33.8987606],[151.2990807,-33.8989135],[151.310117,-33.8990654]]}},{"type":"Feature","properties":{"axis":"N","value":6248250,"spacing":250,"datum":"gda2020","anchor":false},"geometry":{"type":"LineString","coordinates":[[151.1777826,-33.8926698],[151.1888174,-33.8928326],[151.1998523,-33.8929944],[151.2108873,-33.8931552],[151.2219223,-33.893315],[151.2329575,-33.8934738],[151.2439927,-33.8936316],[151.2550281,-33.8937884],[151.2660635,-33.8939443],[151.2770989,-33.8940992],[151.2881345,-33.894253],[151.2991702,-33.8944059],[151.3102059,-33.8945578]]}},{"type":"Feature","properties":{"axis":"N","value":6248500,"spacing":250,"datum":"gda2020","anchor":false},"geometry":{"type":"LineString","coordinates":[[151.1778306,-33.8904162],[151.1888651,-33.890579],[151.1998997,-33.8907407],[151.2109344,-33.8909015],[151.2219691,-33.8910613],[151.233004,-33.8912201],[151.2440389,-33.8913779],[151.255074,-33.8915347],[151.2661091,-33.8916906],[151.2771443,-33.8918454],[151.2881796,-33.8919993],[151.2992149,-33.8921521],[151.3102504,-33.892304]]}},{"type":"Feature","properties":{"axis":"N","value":6248750,"spacing":250,"datum":"gda2020","anchor":false},"geometry":{"type":"LineString","coordinates":[[151.1778785,-33.8881626],[151.1889127,-33.8883253],[151.199947,-33.8884871],[151.2109814,-33.8886478],[151.2220159,-33.8888076],[151.2330505,-33.8889664],[151.2440851,-33.8891242],[151.2551199,-33.889281],[151.2661547,-33.8894368],[151.2771896,-33.8895917],[151.2882246,-33.8897455],[151.2992597,-33.8898984],[151.3102948,-33.8900502]]}},{"type":"Feature","properties":{"axis":"N","value":6249250,"spacing":250,"datum":"gda2020","anchor":false},"geometry":{"type":"LineString","coordinates":[[151.1779744,-33.8836553],[151.189008,-33.883818],[151.2000417,-33.8839798],[151.2110755,-33.8841405],[151.2221094,-33.8843002],[151.2331434,-33.884459],[151.2441775,-33.8846168],[151.2552117,-33.8847736],[151.2662459,-33.8849294],[151.2772802,-33.8850842],[151.2883147,-33.885238],[151.2993492,-33.8853908],[151.3103837,-33.8855427]]}},{"type":"Feature","properties":{"axis":"N","value":6249500,"spacing":250,"datum":"gda2020","anchor":false},"geometry":{"type":"LineString","coordinates":[[151.1780223,-33.8814017],[151.1890556,-33.8815644],[151.2000891,-33.8817261],[151.2111226,-33.8818868],[151.2221562,-33.8820466],[151.2331899,-33.8822053],[151.2442237,-33.8823631],[151.2552576,-33.8825198],[151.2662915,-33.8826756],[151.2773256,-33.8828304],[151.2883597,-33.8829842],[151.2993939,-33.883137],[151.3104282,-33.8832889]]}},{"type":"Feature","properties":{"axis":"N","value":6249750,"spacing":250,"datum":"gda2020","anchor":false},"geometry":{"type":"LineString","coordinates":[[151.1780702,-33.8791481],[151.1891033,-33.8793107],[151.2001364,-33.8794724],[151.2111696,-33.8796332],[151.222203,-33.8797929],[151.2332364,-33.8799516],[151.2442699,-33.8801094],[151.2553034,-33.8802661],[151.2663371,-33.8804219],[151.2773709,-33.8805767],[151.2884047,-33.8807305],[151.2994386,-33.8808833],[151.3104726,-33.8810351]]}},{"type":"Feature","properties":{"axis":"N","value":6250250,"spacing":250,"datum":"gda2020","anchor":false},"geometry":{"type":"LineString","coordinates":[[151.178166,-33.8746408],[151.1891985,-33.8748035],[151.2002311,-33.8749651],[151.2112637,-33.8751258],[151.2222964,-33.8752855],[151.2333293,-33.8754442],[151.2443622,-33.8756019],[151.2553952,-33.8757587],[151.2664283,-33.8759144],[151.2774615,-33.8760692],[151.2884947,-33.8762229],[151.299528,-33.8763757],[151.3105615,-33.8765275]]}},{"type":"Feature","properties":{"axis":"N","value":6250500,"spacing":250,"datum":"gda2020","anchor":false},"geometry":{"type":"LineString","coordinates":[[151.1782139,-33.8723872],[151.1892461,-33.8725498],[151.2002784,-33.8727115],[151.2113107,-33.8728721],[151.2223432,-33.8730318],[151.2333757,-33.8731905],[151.2444084,-33.8733482],[151.2554411,-33.8735049],[151.2664739,-33.8736607],[151.2775067,-33.8738154],[151.2885397,-33.8739692],[151.2995728,-33.8741219],[151.3106059,-33.8742737]]}},{"type":"Feature","properties":{"axis":"N","value":6250750,"spacing":250,"datum":"gda2020","anchor":false},"geometry":{"type":"LineString","coordinates":[[151.1782618,-33.8701335],[151.1892937,-33.8702962],[151.2003257,-33.8704578],[151.2113578,-33.8706185],[151.2223899,-33.8707781],[151.2334222,-33.8709368],[151.2444545,-33.8710945],[151.2554869,-33.8712512],[151.2665194,-33.8714069],[151.277552,-33.8715617],[151.2885847,-33.8717154],[151.2996175,-33.8718682],[151.3106503,-33.8720199]]}},{"type":"Feature","properties":{"axis":"N","value":6251250,"spacing":250,"datum":"gda2020","anchor":false},"geometry":{"type":"LineString","coordinates":[[151.1783576,-33.8656263],[151.1893889,-33.8657889],[151.2004203,-33.8659505],[151.2114518,-33.8661111],[151.2224834,-33.8662707],[151.233515,-33.8664294],[151.2445468,-33.8665871],[151.2555786,-33.8667437],[151.2666106,-33.8668994],[151.2776426,-33.8670541],[151.2886747,-33.8672079],[151.2997069,-33.8673606],[151.3107391,-33.8675123]]}},{"type":"Feature","properties":{"axis":"N","value":6251500,"spacing":250,"datum":"gda2020","anchor":false},"geometry":{"type":"LineString","coordinates":[[151.1784054,-33.8633726],[151.1894365,-33.8635352],[151.2004676,-33.8636968],[151.2114988,-33.8638574],[151.2225301,-33.8640171],[151.2335615,-33.8641757],[151.2445929,-33.8643333],[151.2556245,-33.86449],[151.2666561,-33.8646457],[151.2776879,-33.8648004],[151.2887197,-33.8649541],[151.2997516,-33.8651068],[151.3107835,-33.8652585]]}},{"type":"Feature","properties":{"axis":"N","value":6251750,"spacing":250,"datum":"gda2020","anchor":false},"geometry":{"type":"LineString","coordinates":[[151.1784533,-33.861119],[151.1894841,-33.8612816],[151.2005149,-33.8614431],[151.2115458,-33.8616037],[151.2225768,-33.8617634],[151.2336079,-33.861922],[151.2446391,-33.8620796],[151.2556703,-33.8622363],[151.2667017,-33.8623919],[151.2777331,-33.8625466],[151.2887646,-33.8627003],[151.2997962,-33.862853],[151.3108279,-33.8630047]]}},{"type":"Feature","properties":{"axis":"N","value":6252250,"spacing":250,"datum":"gda2020","anchor":false},"geometry":{"type":"LineString","coordinates":[[151.178549,-33.8566117],[151.1895792,-33.8567743],[151.2006095,-33.8569358],[151.2116398,-33.8570964],[151.2226702,-33.857256],[151.2337007,-33.8574146],[151.2447313,-33.8575722],[151.255762,-33.8577288],[151.2667928,-33.8578845],[151.2778236,-33.8580391],[151.2888546,-33.8581928],[151.2998856,-33.8583455],[151.3109167,-33.8584971]]}},{"type":"Feature","properties":{"axis":"N","value":6252500,"spacing":250,"datum":"gda2020","anchor":false},"geometry":{"type":"LineString","coordinates":[[151.1785969,-33.8543581],[151.1896268,-33.8545206],[151.2006567,-33.8546821],[151.2116868,-33.8548427],[151.2227169,-33.8550023],[151.2337471,-33.8551609],[151.2447774,-33.8553185],[151.2558078,-33.8554751],[151.2668383,-33.8556307],[151.2778689,-33.8557853],[151.2888995,-33.855939],[151.2999303,-33.8560917],[151.3109611,-33.8562433]]}},{"type":"Feature","properties":{"axis":"N","value":6252750,"spacing":250,"datum":"gda2020","anchor":false},"geometry":{"type":"LineString","coordinates":[[151.1786447,-33.8521044],[151.1896743,-33.852267],[151.200704,-33.8524285],[151.2117338,-33.852589],[151.2227636,-33.8527486],[151.2337935,-33.8529072],[151.2448236,-33.8530647],[151.2558537,-33.8532213],[151.2668839,-33.853377],[151.2779141,-33.8535316],[151.2889445,-33.8536852],[151.2999749,-33.8538379],[151.3110055,-33.8539895]]}},{"type":"Feature","properties":{"axis":"N","value":6253250,"spacing":250,"datum":"gda2020","anchor":false},"geometry":{"type":"LineString","coordinates":[[151.1787404,-33.8475971],[151.1897694,-33.8477596],[151.2007985,-33.8479211],[151.2118277,-33.8480817],[151.222857,-33.8482412],[151.2338863,-33.8483997],[151.2449158,-33.8485573],[151.2559453,-33.8487139],[151.2669749,-33.8488695],[151.2780046,-33.8490241],[151.2890344,-33.8491777],[151.3000642,-33.8493303],[151.3110942,-33.8494819]]}},{"type":"Feature","properties":{"axis":"N","value":6253500,"spacing":250,"datum":"gda2020","anchor":false},"geometry":{"type":"LineString","coordinates":[[151.1787883,-33.8453435],[151.189817,-33.845506],[151.2008458,-33.8456675],[151.2118747,-33.845828],[151.2229037,-33.8459875],[151.2339327,-33.846146],[151.2449619,-33.8463036],[151.2559911,-33.8464601],[151.2670204,-33.8466157],[151.2780498,-33.8467703],[151.2890793,-33.8469239],[151.3001089,-33.8470765],[151.3111386,-33.8472281]]}},{"type":"Feature","properties":{"axis":"N","value":6253750,"spacing":250,"datum":"gda2020","anchor":false},"geometry":{"type":"LineString","coordinates":[[151.1788361,-33.8430899],[151.1898645,-33.8432523],[151.200893,-33.8434138],[151.2119216,-33.8435743],[151.2229503,-33.8437338],[151.2339791,-33.8438923],[151.245008,-33.8440498],[151.2560369,-33.8442064],[151.2670659,-33.844362],[151.2780951,-33.8445165],[151.2891243,-33.8446701],[151.3001535,-33.8448227],[151.3111829,-33.8449743]]}},{"type":"Feature","properties":{"axis":"N","value":6254250,"spacing":250,"datum":"gda2020","anchor":false},"geometry":{"type":"LineString","coordinates":[[151.1789317,-33.8385826],[151.1899596,-33.838745],[151.2009875,-33.8389065],[151.2120155,-33.8390669],[151.2230437,-33.8392264],[151.2340719,-33.8393849],[151.2451001,-33.8395424],[151.2561285,-33.8396989],[151.267157,-33.8398544],[151.2781855,-33.840009],[151.2892141,-33.8401626],[151.3002428,-33.8403151],[151.3112716,-33.8404667]]}},{"type":"Feature","properties":{"axis":"N","value":6254500,"spacing":250,"datum":"gda2020","anchor":false},"geometry":{"type":"LineString","coordinates":[[151.1789795,-33.8363289],[151.1900071,-33.8364913],[151.2010348,-33.8366528],[151.2120625,-33.8368132],[151.2230903,-33.8369727],[151.2341182,-33.8371312],[151.2451462,-33.8372887],[151.2561743,-33.8374452],[151.2672025,-33.8376007],[151.2782307,-33.8377552],[151.289259,-33.8379088],[151.3002875,-33.8380613],[151.311316,-33.8382129]]}},{"type":"Feature","properties":{"axis":"N","value":6254750,"spacing":250,"datum":"gda2020","anchor":false},"geometry":{"type":"LineString","coordinates":[[151.1790274,-33.8340753],[151.1900546,-33.8342377],[151.201082,-33.8343991],[151.2121094,-33.8345595],[151.223137,-33.834719],[151.2341646,-33.8348775],[151.2451923,-33.8350349],[151.2562201,-33.8351914],[151.267248,-33.8353469],[151.2782759,-33.8355015],[151.289304,-33.835655],[151.3003321,-33.8358075],[151.3113603,-33.8359591]]}},{"type":"Feature","properties":{"axis":"N","value":6255250,"spacing":250,"datum":"gda2020","anchor":false},"geometry":{"type":"LineString","coordinates":[[151.179123,-33.829568],[151.1901496,-33.8297304],[151.2011764,-33.8298917],[151.2122033,-33.8300522],[151.2232302,-33.8302116],[151.2342573,-33.83037],[151.2452844,-33.8305275],[151.2563116,-33.8306839],[151.2673389,-33.8308394],[151.2783663,-33.8309939],[151.2893938,-33.8311474],[151.3004213,-33.8313],[151.311449,-33.8314515]]}},{"type":"Feature","properties":{"axis":"N","value":6255500,"spacing":250,"datum":"gda2020","anchor":false},"geometry":{"type":"LineString","coordinates":[[151.1791707,-33.8273143],[151.1901971,-33.8274767],[151.2012236,-33.8276381],[151.2122502,-33.8277985],[151.2232769,-33.8279579],[151.2343036,-33.8281163],[151.2453305,-33.8282737],[151.2563574,-33.8284302],[151.2673844,-33.8285857],[151.2784115,-33.8287401],[151.2894387,-33.8288936],[151.3004659,-33.8290462],[151.3114933,-33.8291977]]}},{"type":"Feature","properties":{"axis":"N","value":6255750,"spacing":250,"datum":"gda2020","anchor":false},"geometry":{"type":"LineString","coordinates":[[151.1792185,-33.8250607],[151.1902446,-33.825223],[151.2012708,-33.8253844],[151.2122971,-33.8255448],[151.2233235,-33.8257042],[151.23435,-33.8258626],[151.2453765,-33.82602],[151.2564032,-33.8261764],[151.2674299,-33.8263319],[151.2784567,-33.8264864],[151.2894836,-33.8266399],[151.3005105,-33.8267924],[151.3115376,-33.8269439]]}},{"type":"Feature","properties":{"axis":"N","value":6256250,"spacing":250,"datum":"gda2020","anchor":false},"geometry":{"type":"LineString","coordinates":[[151.1793141,-33.8205534],[151.1903396,-33.8207157],[151.2013652,-33.820877],[151.212391,-33.8210374],[151.2234168,-33.8211968],[151.2344426,-33.8213551],[151.2454686,-33.8215125],[151.2564947,-33.821669],[151.2675208,-33.8218244],[151.278547,-33.8219788],[151.2895733,-33.8221323],[151.3005997,-33.8222848],[151.3116262,-33.8224362]]}}]}