{"type":"FeatureCollection","features":[{"type":"Feature","properties":{"axis":"E","value":544000,"spacing":1000,"datum":"nad83_2011","anchor":false},"geometry":{"type":"LineString","coordinates":[[-122.4151832,47.5549314],[-122.4150831,47.5639288],[-122.4149829,47.5729262],[-122.4148827,47.5819235],[-122.4147824,47.5909209],[-122.414682,47.5999183],[-122.4145817,47.6089156],[-122.4144812,47.6179129],[-122.4143808,47.6269103],[-122.4142802,47.6359075],[-122.4141797,47.6449048],[-122.414079,47.6539021],[-122.4139784,47.6628994]]}},{"type":"Feature","properties":{"axis":"E","value":545000,"spacing":1000,"datum":"nad83_2011","anchor":false},"geometry":{"type":"LineString","coordinates":[[-122.4018922,47.5548628],[-122.4017898,47.5638602],[-122.4016873,47.5728576],[-122.4015848,47.5818549],[-122.4014823,47.5908523],[-122.4013797,47.5998496],[-122.401277,47.6088469],[-122.4011743,47.6178442],[-122.4010715,47.6268415],[-122.4009687,47.6358388],[-122.4008659,47.6448361],[-122.4007629,47.6538333],[-122.40066,47.6628306]]}},{"type":"Feature","properties":{"axis":"E","value":546000,"spacing":1000,"datum":"nad83_2011","anchor":false},"geometry":{"type":"LineString","coordinates":[[-122.3886013,47.5547927],[-122.3884966,47.5637901],[-122.3883918,47.5727875],[-122.388287,47.5817848],[-122.3881822,47.5907821],[-122.3880773,47.5997794],[-122.3879724,47.6087767],[-122.3878674,47.617774],[-122.3877623,47.6267713],[-122.3876572,47.6357685],[-122.3875521,47.6447658],[-122.3874469,47.653763],[-122.3873417,47.6627602]]}},{"type":"Feature","properties":{"axis":"E","value":547000,"spacing":1000,"datum":"nad83_2011","anchor":false},"geometry":{"type":"LineString","coordinates":[[-122.3753104,47.5547211],[-122.3752034,47.5637185],[-122.3750964,47.5727158],[-122.3749893,47.5817131],[-122.3748822,47.5907104],[-122.374775,47.5997077],[-122.3746678,47.608705],[-122.3745605,47.6177022],[-122.3744532,47.6266995],[-122.3743458,47.6356967],[-122.3742384,47.6446939],[-122.3741309,47.6536911],[-122.3740234,47.6626883]]}},{"type":"Feature","properties":{"axis":"E","value":548000,"spacing":1000,"datum":"nad83_2011","anchor":false},"geometry":{"type":"LineString","coordinates":[[-122.3620195,47.554648],[-122.3619103,47.5636453],[-122.361801,47.5726426],[-122.3616916,47.5816399],[-122.3615822,47.5906372],[-122.3614728,47.5996344],[-122.3613633,47.6086317],[-122.3612537,47.6176289],[-122.3611441,47.6266261],[-122.3610345,47.6356233],[-122.3609248,47.6446205],[-122.360815,47.6536177],[-122.3607052,47.6626149]]}},{"type":"Feature","properties":{"axis":"E","value":549000,"spacing":1000,"datum":"nad83_2011","anchor":false},"geometry":{"type":"LineString","coordinates":[[-122.3487287,47.5545733],[-122.3486172,47.5635706],[-122.3485056,47.5725678],[-122.348394,47.5815651],[-122.3482823,47.5905624],[-122.3481706,47.5995596],[-122.3480588,47.6085568],[-122.347947,47.6175541],[-122.3478351,47.6265512],[-122.3477232,47.6355484],[-122.3476112,47.6445456],[-122.3474991,47.6535428],[-122.347387,47.6625399]]}},{"type":"Feature","properties":{"axis":"E","value":550000,"spacing":1000,"datum":"nad83_2011","anchor":true},"geometry":{"type":"LineString","coordinates":[[-122.335438,47.554497],[-122.3353242,47.5634943],[-122.3352104,47.5724915],[-122.3350965,47.5814888],[-122.3349825,47.590486],[-122.3348685,47.5994832],[-122.3347544,47.6084805],[-122.3346403,47.6174776],[-122.3345261,47.6264748],[-122.3344119,47.635472],[-122.3342976,47.6444691],[-122.3341833,47.6534663],[-122.3340689,47.6624634]]}},{"type":"Feature","properties":{"axis":"E","value":551000,"spacing":1000,"datum":"nad83_2011","anchor":false},"geometry":{"type":"LineString","coordinates":[[-122.3221473,47.5544192],[-122.3220312,47.5634165],[-122.3219151,47.5724137],[-122.3217989,47.5814109],[-122.3216827,47.5904082],[-122.3215664,47.5994053],[-122.3214501,47.6084025],[-122.3213337,47.6173997],[-122.3212172,47.6263968],[-122.3211007,47.635394],[-122.3209841,47.6443911],[-122.3208675,47.6533882],[-122.3207508,47.6623853]]}},{"type":"Feature","properties":{"axis":"E","value":552000,"spacing":1000,"datum":"nad83_2011","anchor":false},"geometry":{"type":"LineString","coordinates":[[-122.3088567,47.5543399],[-122.3087383,47.5633371],[-122.3086199,47.5723343],[-122.3085015,47.5813315],[-122.308383,47.5903287],[-122.3082644,47.5993259],[-122.3081458,47.6083231],[-122.3080271,47.6173202],[-122.3079084,47.6263173],[-122.3077896,47.6353144],[-122.3076707,47.6443115],[-122.3075518,47.6533086],[-122.3074328,47.6623057]]}},{"type":"Feature","properties":{"axis":"E","value":553000,"spacing":1000,"datum":"nad83_2011","anchor":false},"geometry":{"type":"LineString","coordinates":[[-122.2955661,47.554259],[-122.2954455,47.5632562],[-122.2953248,47.5722534],[-122.2952041,47.5812506],[-122.2950833,47.5902478],[-122.2949625,47.5992449],[-122.2948416,47.608242],[-122.2947206,47.6172392],[-122.2945996,47.6262363],[-122.2944785,47.6352333],[-122.2943573,47.6442304],[-122.2942361,47.6532275],[-122.2941149,47.6622245]]}},{"type":"Feature","properties":{"axis":"E","value":554000,"spacing":1000,"datum":"nad83_2011","anchor":false},"geometry":{"type":"LineString","coordinates":[[-122.2822756,47.5541766],[-122.2821527,47.5631738],[-122.2820298,47.572171],[-122.2819068,47.5811681],[-122.2817837,47.5901653],[-122.2816606,47.5991624],[-122.2815374,47.6081595],[-122.2814141,47.6171566],[-122.2812908,47.6261536],[-122.2811675,47.6351507],[-122.281044,47.6441478],[-122.2809205,47.6531448],[-122.280797,47.6621418]]}},{"type":"Feature","properties":{"axis":"E","value":555000,"spacing":1000,"datum":"nad83_2011","anchor":false},"geometry":{"type":"LineString","coordinates":[[-122.2689851,47.5540927],[-122.26886,47.5630899],[-122.2687348,47.572087],[-122.2686095,47.5810841],[-122.2684841,47.5900812],[-122.2683587,47.5990783],[-122.2682333,47.6080754],[-122.2681077,47.6170725],[-122.2679821,47.6260695],[-122.2678565,47.6350665],[-122.2677308,47.6440636],[-122.267605,47.6530606],[-122.2674792,47.6620575]]}},{"type":"Feature","properties":{"axis":"E","value":556000,"spacing":1000,"datum":"nad83_2011","anchor":false},"geometry":{"type":"LineString","coordinates":[[-122.2556948,47.5540072],[-122.2555673,47.5630043],[-122.2554398,47.5720015],[-122.2553123,47.5809986],[-122.2551846,47.5899956],[-122.2550569,47.5989927],[-122.2549292,47.6079897],[-122.2548014,47.6169868],[-122.2546735,47.6259838],[-122.2545456,47.6349808],[-122.2544176,47.6439778],[-122.2542895,47.6529748],[-122.2541614,47.6619717]]}},{"type":"Feature","properties":{"axis":"N","value":5267000,"spacing":1000,"datum":"nad83_2011","anchor":false},"geometry":{"type":"LineString","coordinates":[[-122.4151832,47.5549314],[-122.4018922,47.5548628],[-122.3886013,47.5547927],[-122.3753104,47.5547211],[-122.3620195,47.554648],[-122.3487287,47.5545733],[-122.335438,47.554497],[-122.3221473,47.5544192],[-122.3088567,47.5543399],[-122.2955661,47.554259],[-122.2822756,47.5541766],[-122.2689851,47.5540927],[-122.2556948,47.5540072]]}},{"type":"Feature","properties":{"axis":"N","value":5268000,"spacing":1000,"datum":"nad83_2011","anchor":false},"geometry":{"type":"LineString","coordinates":[[-122.4150831,47.5639288],[-122.4017898,47.5638602],[-122.3884966,47.5637901],[-122.3752034,47.5637185],[-122.3619103,47.5636453],[-122.3486172,47.5635706],[-122.3353242,47.5634943],[-122.3220312,47.5634165],[-122.3087383,47.5633371],[-122.2954455,47.5632562],[-122.2821527,47.5631738],[-122.26886,47.5630899],[-122.2555673,47.5630043]]}},{"type":"Feature","properties":{"axis":"N","value":5269000,"spacing":1000,"datum":"nad83_2011","anchor":false},"geometry":{"type":"LineString","coordinates":[[-122.4149829,47.5729262],[-122.4016873,47.5728576],[-122.3883918,47.5727875],[-122.3750964,47.5727158],[-122.361801,47.5726426],[-122.3485056,47.5725678],[-122.3352104,47.5724915],[-122.3219151,47.5724137],[-122.3086199,47.5723343],[-122.2953248,47.5722534],[-122.2820298,47.572171],[-122.2687348,47.572087],[-122.2554398,47.5720015]]}},{"type":"Feature","properties":{"axis":"N","value":5270000,"spacing":1000,"datum":"nad83_2011","anchor":false},"geometry":{"type":"LineString","coordinates":[[-122.4148827,47.5819235],[-122.4015848,47.5818549],[-122.388287,47.5817848],[-122.3749893,47.5817131],[-122.3616916,47.5816399],[-122.348394,47.5815651],[-122.3350965,47.5814888],[-122.3217989,47.5814109],[-122.3085015,47.5813315],[-122.2952041,47.5812506],[-122.2819068,47.5811681],[-122.2686095,47.5810841],[-122.2553123,47.5809986]]}},{"type":"Feature","properties":{"axis":"N","value":5271000,"spacing":1000,"datum":"nad83_2011","anchor":false},"geometry":{"type":"LineString","coordinates":[[-122.4147824,47.5909209],[-122.4014823,47.5908523],[-122.3881822,47.5907821],[-122.3748822,47.5907104],[-122.3615822,47.5906372],[-122.3482823,47.5905624],[-122.3349825,47.590486],[-122.3216827,47.5904082],[-122.308383,47.5903287],[-122.2950833,47.5902478],[-122.2817837,47.5901653],[-122.2684841,47.5900812],[-122.2551846,47.5899956]]}},{"type":"Feature","properties":{"axis":"N","value":5272000,"spacing":1000,"datum":"nad83_2011","anchor":false},"geometry":{"type":"LineString","coordinates":[[-122.414682,47.5999183],[-122.4013797,47.5998496],[-122.3880773,47.5997794],[-122.374775,47.5997077],[-122.3614728,47.5996344],[-122.3481706,47.5995596],[-122.3348685,47.5994832],[-122.3215664,47.5994053],[-122.3082644,47.5993259],[-122.2949625,47.5992449],[-122.2816606,47.5991624],[-122.2683587,47.5990783],[-122.2550569,47.5989927]]}},{"type":"Feature","properties":{"axis":"N","value":5273000,"spacing":1000,"datum":"nad83_2011","anchor":true},"geometry":{"type":"LineString","coordinates":[[-122.4145817,47.6089156],[-122.401277,47.6088469],[-122.3879724,47.6087767],[-122.3746678,47.608705],[-122.3613633,47.6086317],[-122.3480588,47.6085568],[-122.3347544,47.6084805],[-122.3214501,47.6084025],[-122.3081458,47.6083231],[-122.2948416,47.608242],[-122.2815374,47.6081595],[-122.2682333,47.6080754],[-122.2549292,47.6079897]]}},{"type":"Feature","properties":{"axis":"N","value":5274000,"spacing":1000,"datum":"nad83_2011","anchor":false},"geometry":{"type":"LineString","coordinates":[[-122.4144812,47.6179129],[-122.4011743,47.6178442],[-122.3878674,47.617774],[-122.3745605,47.6177022],[-122.3612537,47.6176289],[-122.347947,47.6175541],[-122.3346403,47.6174776],[-122.3213337,47.6173997],[-122.3080271,47.6173202],[-122.2947206,47.6172392],[-122.2814141,47.6171566],[-122.2681077,47.6170725],[-122.2548014,47.6169868]]}},{"type":"Feature","properties":{"axis":"N","value":5275000,"spacing":1000,"datum":"nad83_2011","anchor":false},"geometry":{"type":"LineString","coordinates":[[-122.4143808,47.6269103],[-122.4010715,47.6268415],[-122.3877623,47.6267713],[-122.3744532,47.6266995],[-122.3611441,47.6266261],[-122.3478351,47.6265512],[-122.3345261,47.6264748],[-122.3212172,47.6263968],[-122.3079084,47.6263173],[-122.2945996,47.6262363],[-122.2812908,47.6261536],[-122.2679821,47.6260695],[-122.2546735,47.6259838]]}},{"type":"Feature","properties":{"axis":"N","value":5276000,"spacing":1000,"datum":"nad83_2011","anchor":false},"geometry":{"type":"LineString","coordinates":[[-122.4142802,47.6359075],[-122.4009687,47.6358388],[-122.3876572,47.6357685],[-122.3743458,47.6356967],[-122.3610345,47.6356233],[-122.3477232,47.6355484],[-122.3344119,47.635472],[-122.3211007,47.635394],[-122.3077896,47.6353144],[-122.2944785,47.6352333],[-122.2811675,47.6351507],[-122.2678565,47.6350665],[-122.2545456,47.6349808]]}},{"type":"Feature","properties":{"axis":"N","value":5277000,"spacing":1000,"datum":"nad83_2011","anchor":false},"geometry":{"type":"LineString","coordinates":[[-122.4141797,47.6449048],[-122.4008659,47.6448361],[-122.3875521,47.6447658],[-122.3742384,47.6446939],[-122.3609248,47.6446205],[-122.3476112,47.6445456],[-122.3342976,47.6444691],[-122.3209841,47.6443911],[-122.3076707,47.6443115],[-122.2943573,47.6442304],[-122.281044,47.6441478],[-122.2677308,47.6440636],[-122.2544176,47.6439778]]}},{"type":"Feature","properties":{"axis":"N","value":5278000,"spacing":1000,"datum":"nad83_2011","anchor":false},"geometry":{"type":"LineString","coordinates":[[-122.414079,47.6539021],[-122.4007629,47.6538333],[-122.3874469,47.653763],[-122.3741309,47.6536911],[-122.360815,47.6536177],[-122.3474991,47.6535428],[-122.3341833,47.6534663],[-122.3208675,47.6533882],[-122.3075518,47.6533086],[-122.2942361,47.6532275],[-122.2809205,47.6531448],[-122.267605,47.6530606],[-122.2542895,47.6529748]]}},{"type":"Feature","properties":{"axis":"N","value":5279000,"spacing":1000,"datum":"nad83_2011","anchor":false},"geometry":{"type":"LineString","coordinates":[[-122.4139784,47.6628994],[-122.40066,47.6628306],[-122.3873417,47.6627602],[-122.3740234,47.6626883],[-122.3607052,47.6626149],[-122.347387,47.6625399],[-122.3340689,47.6624634],[-122.3207508,47.6623853],[-122.3074328,47.6623057],[-122.2941149,47.6622245],[-122.280797,47.6621418],[-122.2674792,47.6620575],[-122.2541614,47.6619717]]}},{"type":"Feature","properties":{"axis":"E","value":544250,"spacing":250,"datum":"nad83_2011","anchor":false},"geometry":{"type":"LineString","coordinates":[[-122.4118604,47.5549144],[-122.4117597,47.5639118],[-122.411659,47.5729092],[-122.4115582,47.5819065],[-122.4114573,47.5909039],[-122.4113564,47.5999013],[-122.4112555,47.6088986],[-122.4111545,47.6178959],[-122.4110534,47.6268932],[-122.4109523,47.6358905],[-122.4108512,47.6448878],[-122.41075,47.6538851],[-122.4106488,47.6628823]]}},{"type":"Feature","properties":{"axis":"E","value":544500,"spacing":250,"datum":"nad83_2011","anchor":false},"geometry":{"type":"LineString","coordinates":[[-122.4085377,47.5548973],[-122.4084364,47.5638947],[-122.4083351,47.5728921],[-122.4082337,47.5818894],[-122.4081323,47.5908868],[-122.4080308,47.5998841],[-122.4079293,47.6088815],[-122.4078278,47.6178788],[-122.4077261,47.6268761],[-122.4076245,47.6358734],[-122.4075227,47.6448706],[-122.407421,47.6538679],[-122.4073192,47.6628652]]}},{"type":"Feature","properties":{"axis":"E","value":544750,"spacing":250,"datum":"nad83_2011","anchor":false},"geometry":{"type":"LineString","coordinates":[[-122.4052149,47.5548801],[-122.4051131,47.5638775],[-122.4050112,47.5728749],[-122.4049093,47.5818722],[-122.4048073,47.5908696],[-122.4047052,47.5998669],[-122.4046032,47.6088643],[-122.404501,47.6178616],[-122.4043988,47.6268589],[-122.4042966,47.6358561],[-122.4041943,47.6448534],[-122.404092,47.6538507],[-122.4039896,47.6628479]]}},{"type":"Feature","properties":{"axis":"E","value":545250,"spacing":250,"datum":"nad83_2011","anchor":false},"geometry":{"type":"LineString","coordinates":[[-122.3985695,47.5548454],[-122.3984665,47.5638428],[-122.3983635,47.5728402],[-122.3982604,47.5818376],[-122.3981572,47.5908349],[-122.3980541,47.5998322],[-122.3979508,47.6088295],[-122.3978476,47.6178268],[-122.3977442,47.6268241],[-122.3976408,47.6358214],[-122.3975374,47.6448186],[-122.3974339,47.6538159],[-122.3973304,47.6628131]]}},{"type":"Feature","properties":{"axis":"E","value":545500,"spacing":250,"datum":"nad83_2011","anchor":false},"geometry":{"type":"LineString","coordinates":[[-122.3952467,47.554828],[-122.3951432,47.5638253],[-122.3950396,47.5728227],[-122.3949359,47.5818201],[-122.3948322,47.5908174],[-122.3947285,47.5998147],[-122.3946247,47.608812],[-122.3945208,47.6178093],[-122.3944169,47.6268066],[-122.394313,47.6358039],[-122.394209,47.6448011],[-122.3941049,47.6537984],[-122.3940008,47.6627956]]}},{"type":"Feature","properties":{"axis":"E","value":545750,"spacing":250,"datum":"nad83_2011","anchor":false},"geometry":{"type":"LineString","coordinates":[[-122.391924,47.5548104],[-122.3918199,47.5638078],[-122.3917157,47.5728051],[-122.3916115,47.5818025],[-122.3915072,47.5907998],[-122.3914029,47.5997971],[-122.3912985,47.6087944],[-122.3911941,47.6177917],[-122.3910896,47.626789],[-122.3909851,47.6357863],[-122.3908805,47.6447835],[-122.3907759,47.6537807],[-122.3906712,47.6627779]]}},{"type":"Feature","properties":{"axis":"E","value":546250,"spacing":250,"datum":"nad83_2011","anchor":false},"geometry":{"type":"LineString","coordinates":[[-122.3852785,47.554775],[-122.3851733,47.5637723],[-122.385068,47.5727697],[-122.3849626,47.581767],[-122.3848572,47.5907643],[-122.3847517,47.5997616],[-122.3846462,47.6087589],[-122.3845407,47.6177562],[-122.3844351,47.6267535],[-122.3843294,47.6357507],[-122.3842237,47.644748],[-122.3841179,47.6537452],[-122.3840121,47.6627424]]}},{"type":"Feature","properties":{"axis":"E","value":546500,"spacing":250,"datum":"nad83_2011","anchor":false},"geometry":{"type":"LineString","coordinates":[[-122.3819558,47.5547571],[-122.38185,47.5637545],[-122.3817441,47.5727518],[-122.3816382,47.5817491],[-122.3815322,47.5907465],[-122.3814262,47.5997438],[-122.3813201,47.608741],[-122.381214,47.6177383],[-122.3811078,47.6267356],[-122.3810015,47.6357328],[-122.3808952,47.64473],[-122.3807889,47.6537273],[-122.3806825,47.6627245]]}},{"type":"Feature","properties":{"axis":"E","value":546750,"spacing":250,"datum":"nad83_2011","anchor":false},"geometry":{"type":"LineString","coordinates":[[-122.3786331,47.5547392],[-122.3785267,47.5637365],[-122.3784202,47.5727339],[-122.3783137,47.5817312],[-122.3782072,47.5907285],[-122.3781006,47.5997258],[-122.3779939,47.6087231],[-122.3778872,47.6177203],[-122.3777805,47.6267176],[-122.3776737,47.6357148],[-122.3775668,47.644712],[-122.3774599,47.6537092],[-122.3773529,47.6627064]]}},{"type":"Feature","properties":{"axis":"E","value":547250,"spacing":250,"datum":"nad83_2011","anchor":false},"geometry":{"type":"LineString","coordinates":[[-122.3719876,47.554703],[-122.3718801,47.5637003],[-122.3717725,47.5726976],[-122.3716649,47.5816949],[-122.3715572,47.5906922],[-122.3714495,47.5996895],[-122.3713417,47.6086868],[-122.3712338,47.6176841],[-122.3711259,47.6266813],[-122.371018,47.6356785],[-122.37091,47.6446757],[-122.3708019,47.6536729],[-122.3706938,47.6626701]]}},{"type":"Feature","properties":{"axis":"E","value":547500,"spacing":250,"datum":"nad83_2011","anchor":false},"geometry":{"type":"LineString","coordinates":[[-122.3686649,47.5546847],[-122.3685568,47.5636821],[-122.3684487,47.5726794],[-122.3683405,47.5816767],[-122.3682322,47.590674],[-122.3681239,47.5996713],[-122.3680155,47.6086685],[-122.3679071,47.6176658],[-122.3677987,47.626663],[-122.3676901,47.6356602],[-122.3675816,47.6446574],[-122.3674729,47.6536546],[-122.3673643,47.6626518]]}},{"type":"Feature","properties":{"axis":"E","value":547750,"spacing":250,"datum":"nad83_2011","anchor":false},"geometry":{"type":"LineString","coordinates":[[-122.3653422,47.5546664],[-122.3652336,47.5636637],[-122.3651248,47.572661],[-122.3650161,47.5816583],[-122.3649072,47.5906556],[-122.3647984,47.5996529],[-122.3646894,47.6086501],[-122.3645804,47.6176474],[-122.3644714,47.6266446],[-122.3643623,47.6356418],[-122.3642532,47.644639],[-122.364144,47.6536362],[-122.3640347,47.6626334]]}},{"type":"Feature","properties":{"axis":"E","value":548250,"spacing":250,"datum":"nad83_2011","anchor":false},"geometry":{"type":"LineString","coordinates":[[-122.3586968,47.5546294],[-122.358587,47.5636267],[-122.3584771,47.572624],[-122.3583672,47.5816213],[-122.3582573,47.5906186],[-122.3581472,47.5996159],[-122.3580372,47.6086131],[-122.357927,47.6176103],[-122.3578169,47.6266076],[-122.3577066,47.6356048],[-122.3575963,47.644602],[-122.357486,47.6535991],[-122.3573756,47.6625963]]}},{"type":"Feature","properties":{"axis":"E","value":548500,"spacing":250,"datum":"nad83_2011","anchor":false},"geometry":{"type":"LineString","coordinates":[[-122.3553741,47.5546108],[-122.3552637,47.5636081],[-122.3551533,47.5726054],[-122.3550428,47.5816027],[-122.3549323,47.5906],[-122.3548217,47.5995972],[-122.3547111,47.6085944],[-122.3546004,47.6175917],[-122.3544896,47.6265889],[-122.3543788,47.6355861],[-122.3542679,47.6445833],[-122.354157,47.6535804],[-122.3540461,47.6625776]]}},{"type":"Feature","properties":{"axis":"E","value":548750,"spacing":250,"datum":"nad83_2011","anchor":false},"geometry":{"type":"LineString","coordinates":[[-122.3520514,47.5545921],[-122.3519405,47.5635894],[-122.3518295,47.5725867],[-122.3517184,47.5815839],[-122.3516073,47.5905812],[-122.3514962,47.5995785],[-122.3513849,47.6085757],[-122.3512737,47.6175729],[-122.3511624,47.6265701],[-122.351051,47.6355673],[-122.3509396,47.6445645],[-122.3508281,47.6535616],[-122.3507165,47.6625588]]}},{"type":"Feature","properties":{"axis":"E","value":549250,"spacing":250,"datum":"nad83_2011","anchor":false},"geometry":{"type":"LineString","coordinates":[[-122.345406,47.5545543],[-122.345294,47.5635516],[-122.3451818,47.5725489],[-122.3450696,47.5815462],[-122.3449574,47.5905434],[-122.3448451,47.5995407],[-122.3447327,47.6085379],[-122.3446203,47.6175351],[-122.3445079,47.6265323],[-122.3443953,47.6355295],[-122.3442828,47.6445266],[-122.3441701,47.6535238],[-122.3440575,47.6625209]]}},{"type":"Feature","properties":{"axis":"E","value":549500,"spacing":250,"datum":"nad83_2011","anchor":false},"geometry":{"type":"LineString","coordinates":[[-122.3420833,47.5545353],[-122.3419707,47.5635326],[-122.341858,47.5725299],[-122.3417452,47.5815271],[-122.3416324,47.5905244],[-122.3415196,47.5995216],[-122.3414066,47.6085188],[-122.3412936,47.617516],[-122.3411806,47.6265132],[-122.3410675,47.6355104],[-122.3409544,47.6445076],[-122.3408412,47.6535047],[-122.3407279,47.6625018]]}},{"type":"Feature","properties":{"axis":"E","value":549750,"spacing":250,"datum":"nad83_2011","anchor":false},"geometry":{"type":"LineString","coordinates":[[-122.3387607,47.5545162],[-122.3386474,47.5635135],[-122.3385342,47.5725108],[-122.3384208,47.581508],[-122.3383075,47.5905053],[-122.338194,47.5995025],[-122.3380805,47.6084997],[-122.337967,47.6174969],[-122.3378534,47.6264941],[-122.3377397,47.6354912],[-122.337626,47.6444884],[-122.3375122,47.6534855],[-122.3373984,47.6624827]]}},{"type":"Feature","properties":{"axis":"E","value":550250,"spacing":250,"datum":"nad83_2011","anchor":false},"geometry":{"type":"LineString","coordinates":[[-122.3321153,47.5544777],[-122.332001,47.563475],[-122.3318865,47.5724722],[-122.3317721,47.5814695],[-122.3316576,47.5904667],[-122.331543,47.5994639],[-122.3314283,47.6084611],[-122.3313136,47.6174583],[-122.3311989,47.6264555],[-122.3310841,47.6354526],[-122.3309692,47.6444498],[-122.3308543,47.6534469],[-122.3307394,47.662444]]}},{"type":"Feature","properties":{"axis":"E","value":550500,"spacing":250,"datum":"nad83_2011","anchor":false},"geometry":{"type":"LineString","coordinates":[[-122.3287926,47.5544583],[-122.3286777,47.5634556],[-122.3285627,47.5724528],[-122.3284477,47.5814501],[-122.3283326,47.5904473],[-122.3282175,47.5994445],[-122.3281022,47.6084417],[-122.327987,47.6174389],[-122.3278717,47.626436],[-122.3277563,47.6354332],[-122.3276409,47.6444303],[-122.3275254,47.6534274],[-122.3274098,47.6624245]]}},{"type":"Feature","properties":{"axis":"E","value":550750,"spacing":250,"datum":"nad83_2011","anchor":false},"geometry":{"type":"LineString","coordinates":[[-122.32547,47.5544388],[-122.3253545,47.5634361],[-122.3252389,47.5724333],[-122.3251233,47.5814305],[-122.3250077,47.5904278],[-122.3248919,47.599425],[-122.3247762,47.6084222],[-122.3246603,47.6174193],[-122.3245444,47.6264165],[-122.3244285,47.6354136],[-122.3243125,47.6444108],[-122.3241964,47.6534079],[-122.3240803,47.662405]]}},{"type":"Feature","properties":{"axis":"E","value":551250,"spacing":250,"datum":"nad83_2011","anchor":false},"geometry":{"type":"LineString","coordinates":[[-122.3188246,47.5543995],[-122.318708,47.5633968],[-122.3185913,47.572394],[-122.3184746,47.5813912],[-122.3183578,47.5903884],[-122.3182409,47.5993856],[-122.318124,47.6083828],[-122.318007,47.61738],[-122.31789,47.6263771],[-122.3177729,47.6353742],[-122.3176558,47.6443714],[-122.3175386,47.6533685],[-122.3174213,47.6623655]]}},{"type":"Feature","properties":{"axis":"E","value":551500,"spacing":250,"datum":"nad83_2011","anchor":false},"geometry":{"type":"LineString","coordinates":[[-122.315502,47.5543798],[-122.3153848,47.563377],[-122.3152675,47.5723742],[-122.3151502,47.5813714],[-122.3150328,47.5903686],[-122.3149154,47.5993658],[-122.3147979,47.608363],[-122.3146804,47.6173601],[-122.3145628,47.6263573],[-122.3144451,47.6353544],[-122.3143274,47.6443515],[-122.3142096,47.6533486],[-122.3140918,47.6623457]]}},{"type":"Feature","properties":{"axis":"E","value":551750,"spacing":250,"datum":"nad83_2011","anchor":false},"geometry":{"type":"LineString","coordinates":[[-122.3121793,47.5543599],[-122.3120616,47.5633571],[-122.3119437,47.5723543],[-122.3118258,47.5813515],[-122.3117079,47.5903487],[-122.3115899,47.5993459],[-122.3114719,47.6083431],[-122.3113537,47.6173402],[-122.3112356,47.6263373],[-122.3111173,47.6353345],[-122.3109991,47.6443316],[-122.3108807,47.6533287],[-122.3107623,47.6623257]]}},{"type":"Feature","properties":{"axis":"E","value":552250,"spacing":250,"datum":"nad83_2011","anchor":false},"geometry":{"type":"LineString","coordinates":[[-122.305534,47.5543198],[-122.3054151,47.5633171],[-122.3052962,47.5723143],[-122.3051771,47.5813115],[-122.3050581,47.5903086],[-122.3049389,47.5993058],[-122.3048197,47.6083029],[-122.3047005,47.6173001],[-122.3045812,47.6262972],[-122.3044618,47.6352943],[-122.3043424,47.6442914],[-122.3042229,47.6532885],[-122.3041033,47.6622855]]}},{"type":"Feature","properties":{"axis":"E","value":552500,"spacing":250,"datum":"nad83_2011","anchor":false},"geometry":{"type":"LineString","coordinates":[[-122.3022114,47.5542997],[-122.3020919,47.5632969],[-122.3019724,47.5722941],[-122.3018528,47.5812913],[-122.3017331,47.5902884],[-122.3016134,47.5992856],[-122.3014937,47.6082827],[-122.3013738,47.6172799],[-122.301254,47.626277],[-122.301134,47.6352741],[-122.301014,47.6442712],[-122.300894,47.6532682],[-122.3007738,47.6622653]]}},{"type":"Feature","properties":{"axis":"E","value":552750,"spacing":250,"datum":"nad83_2011","anchor":false},"geometry":{"type":"LineString","coordinates":[[-122.2988887,47.5542794],[-122.2987687,47.5632766],[-122.2986486,47.5722738],[-122.2985284,47.581271],[-122.2984082,47.5902682],[-122.2982879,47.5992653],[-122.2981676,47.6082624],[-122.2980472,47.6172596],[-122.2979268,47.6262567],[-122.2978062,47.6352538],[-122.2976857,47.6442508],[-122.297565,47.6532479],[-122.2974444,47.662245]]}},{"type":"Feature","properties":{"axis":"E","value":553250,"spacing":250,"datum":"nad83_2011","anchor":false},"geometry":{"type":"LineString","coordinates":[[-122.2922435,47.5542386],[-122.2921223,47.5632358],[-122.2920011,47.572233],[-122.2918798,47.5812301],[-122.2917584,47.5902273],[-122.291637,47.5992244],[-122.2915155,47.6082215],[-122.291394,47.6172187],[-122.2912724,47.6262158],[-122.2911507,47.6352128],[-122.291029,47.6442099],[-122.2909072,47.6532069],[-122.2907854,47.662204]]}},{"type":"Feature","properties":{"axis":"E","value":553500,"spacing":250,"datum":"nad83_2011","anchor":false},"geometry":{"type":"LineString","coordinates":[[-122.2889208,47.554218],[-122.2887991,47.5632152],[-122.2886773,47.5722124],[-122.2885554,47.5812096],[-122.2884335,47.5902067],[-122.2883115,47.5992038],[-122.2881895,47.608201],[-122.2880673,47.6171981],[-122.2879452,47.6261951],[-122.287823,47.6351922],[-122.2877007,47.6441893],[-122.2875783,47.6531863],[-122.2874559,47.6621834]]}},{"type":"Feature","properties":{"axis":"E","value":553750,"spacing":250,"datum":"nad83_2011","anchor":false},"geometry":{"type":"LineString","coordinates":[[-122.2855982,47.5541974],[-122.2854759,47.5631946],[-122.2853535,47.5721917],[-122.2852311,47.5811889],[-122.2851086,47.590186],[-122.284986,47.5991832],[-122.2848634,47.6081803],[-122.2847407,47.6171774],[-122.284618,47.6261744],[-122.2844952,47.6351715],[-122.2843723,47.6441686],[-122.2842494,47.6531656],[-122.2841265,47.6621626]]}},{"type":"Feature","properties":{"axis":"E","value":554250,"spacing":250,"datum":"nad83_2011","anchor":false},"geometry":{"type":"LineString","coordinates":[[-122.278953,47.5541558],[-122.2788295,47.563153],[-122.278706,47.5721501],[-122.2785824,47.5811473],[-122.2784588,47.5901444],[-122.2783351,47.5991415],[-122.2782113,47.6081386],[-122.2780875,47.6171357],[-122.2779636,47.6261328],[-122.2778397,47.6351298],[-122.2777157,47.6441269],[-122.2775916,47.6531239],[-122.2774675,47.6621209]]}},{"type":"Feature","properties":{"axis":"E","value":554500,"spacing":250,"datum":"nad83_2011","anchor":false},"geometry":{"type":"LineString","coordinates":[[-122.2756304,47.5541349],[-122.2755063,47.563132],[-122.2753823,47.5721292],[-122.2752581,47.5811263],[-122.2751339,47.5901234],[-122.2750096,47.5991205],[-122.2748853,47.6081176],[-122.2747609,47.6171147],[-122.2746365,47.6261118],[-122.274512,47.6351088],[-122.2743874,47.6441058],[-122.2742628,47.6531029],[-122.2741381,47.6620999]]}},{"type":"Feature","properties":{"axis":"E","value":554750,"spacing":250,"datum":"nad83_2011","anchor":false},"geometry":{"type":"LineString","coordinates":[[-122.2723078,47.5541138],[-122.2721832,47.563111],[-122.2720585,47.5721081],[-122.2719338,47.5811053],[-122.271809,47.5901024],[-122.2716842,47.5990995],[-122.2715593,47.6080966],[-122.2714343,47.6170936],[-122.2713093,47.6260907],[-122.2711842,47.6350877],[-122.2710591,47.6440847],[-122.2709339,47.6530818],[-122.2708086,47.6620788]]}},{"type":"Feature","properties":{"axis":"E","value":555250,"spacing":250,"datum":"nad83_2011","anchor":false},"geometry":{"type":"LineString","coordinates":[[-122.2656625,47.5540715],[-122.2655368,47.5630686],[-122.265411,47.5720658],[-122.2652852,47.5810629],[-122.2651593,47.59006],[-122.2650333,47.5990571],[-122.2649072,47.6080541],[-122.2647811,47.6170512],[-122.264655,47.6260482],[-122.2645288,47.6350452],[-122.2644025,47.6440423],[-122.2642761,47.6530393],[-122.2641497,47.6620362]]}},{"type":"Feature","properties":{"axis":"E","value":555500,"spacing":250,"datum":"nad83_2011","anchor":false},"geometry":{"type":"LineString","coordinates":[[-122.2623399,47.5540502],[-122.2622136,47.5630473],[-122.2620873,47.5720444],[-122.2619609,47.5810415],[-122.2618344,47.5900386],[-122.2617078,47.5990357],[-122.2615812,47.6080328],[-122.2614546,47.6170298],[-122.2613278,47.6260268],[-122.261201,47.6350239],[-122.2610742,47.6440209],[-122.2609473,47.6530179],[-122.2608203,47.6620148]]}},{"type":"Feature","properties":{"axis":"E","value":555750,"spacing":250,"datum":"nad83_2011","anchor":false},"geometry":{"type":"LineString","coordinates":[[-122.2590174,47.5540287],[-122.2588905,47.5630259],[-122.2587636,47.572023],[-122.2586366,47.5810201],[-122.2585095,47.5900172],[-122.2583824,47.5990142],[-122.2582552,47.6080113],[-122.258128,47.6170083],[-122.2580007,47.6260054],[-122.2578733,47.6350024],[-122.2577459,47.6439994],[-122.2576184,47.6529964],[-122.2574908,47.6619933]]}},{"type":"Feature","properties":{"axis":"N","value":5267250,"spacing":250,"datum":"nad83_2011","anchor":false},"geometry":{"type":"LineString","coordinates":[[-122.4151582,47.5571807],[-122.4018666,47.5571122],[-122.3885751,47.5570421],[-122.3752836,47.5569705],[-122.3619922,47.5568973],[-122.3487009,47.5568226],[-122.3354095,47.5567463],[-122.3221183,47.5566685],[-122.3088271,47.5565892],[-122.295536,47.5565083],[-122.2822449,47.5564259],[-122.2689539,47.556342],[-122.2556629,47.5562565]]}},{"type":"Feature","properties":{"axis":"N","value":5267500,"spacing":250,"datum":"nad83_2011","anchor":false},"geometry":{"type":"LineString","coordinates":[[-122.4151331,47.5594301],[-122.401841,47.5593615],[-122.3885489,47.5592914],[-122.3752569,47.5592198],[-122.3619649,47.5591466],[-122.348673,47.5590719],[-122.3353811,47.5589957],[-122.3220893,47.5589179],[-122.3087975,47.5588385],[-122.2955058,47.5587577],[-122.2822142,47.5586752],[-122.2689226,47.5585913],[-122.255631,47.5585058]]}},{"type":"Feature","properties":{"axis":"N","value":5267750,"spacing":250,"datum":"nad83_2011","anchor":false},"geometry":{"type":"LineString","coordinates":[[-122.4151081,47.5616794],[-122.4018154,47.5616109],[-122.3885227,47.5615408],[-122.3752301,47.5614691],[-122.3619376,47.5613959],[-122.3486451,47.5613212],[-122.3353527,47.561245],[-122.3220603,47.5611672],[-122.3087679,47.5610878],[-122.2954757,47.561007],[-122.2821834,47.5609245],[-122.2688913,47.5608406],[-122.2555992,47.5607551]]}},{"type":"Feature","properties":{"axis":"N","value":5268250,"spacing":250,"datum":"nad83_2011","anchor":false},"geometry":{"type":"LineString","coordinates":[[-122.415058,47.5661781],[-122.4017642,47.5661096],[-122.3884704,47.5660394],[-122.3751767,47.5659678],[-122.361883,47.5658946],[-122.3485893,47.5658199],[-122.3352957,47.5657436],[-122.3220022,47.5656658],[-122.3087087,47.5655864],[-122.2954153,47.5655055],[-122.282122,47.5654231],[-122.2688287,47.5653391],[-122.2555355,47.5652536]]}},{"type":"Feature","properties":{"axis":"N","value":5268500,"spacing":250,"datum":"nad83_2011","anchor":false},"geometry":{"type":"LineString","coordinates":[[-122.415033,47.5684275],[-122.4017386,47.5683589],[-122.3884442,47.5682888],[-122.3751499,47.5682171],[-122.3618556,47.5681439],[-122.3485614,47.5680692],[-122.3352673,47.5679929],[-122.3219732,47.5679151],[-122.3086791,47.5678357],[-122.2953852,47.5677548],[-122.2820912,47.5676724],[-122.2687974,47.5675884],[-122.2555036,47.5675029]]}},{"type":"Feature","properties":{"axis":"N","value":5268750,"spacing":250,"datum":"nad83_2011","anchor":false},"geometry":{"type":"LineString","coordinates":[[-122.4150079,47.5706768],[-122.401713,47.5706082],[-122.388418,47.5705381],[-122.3751231,47.5704665],[-122.3618283,47.5703933],[-122.3485335,47.5703185],[-122.3352388,47.5702422],[-122.3219442,47.5701644],[-122.3086495,47.570085],[-122.295355,47.5700041],[-122.2820605,47.5699217],[-122.2687661,47.5698377],[-122.2554717,47.5697522]]}},{"type":"Feature","properties":{"axis":"N","value":5269250,"spacing":250,"datum":"nad83_2011","anchor":false},"geometry":{"type":"LineString","coordinates":[[-122.4149578,47.5751755],[-122.4016617,47.5751069],[-122.3883656,47.5750368],[-122.3750696,47.5749651],[-122.3617737,47.5748919],[-122.3484777,47.5748172],[-122.3351819,47.5747409],[-122.3218861,47.574663],[-122.3085903,47.5745836],[-122.2952946,47.5745027],[-122.281999,47.5744203],[-122.2687034,47.5743363],[-122.2554079,47.5742507]]}},{"type":"Feature","properties":{"axis":"N","value":5269500,"spacing":250,"datum":"nad83_2011","anchor":false},"geometry":{"type":"LineString","coordinates":[[-122.4149328,47.5774249],[-122.4016361,47.5773563],[-122.3883394,47.5772861],[-122.3750429,47.5772145],[-122.3617463,47.5771412],[-122.3484498,47.5770665],[-122.3351534,47.5769902],[-122.321857,47.5769123],[-122.3085607,47.5768329],[-122.2952645,47.576752],[-122.2819683,47.5766696],[-122.2686721,47.5765856],[-122.255376,47.5765]]}},{"type":"Feature","properties":{"axis":"N","value":5269750,"spacing":250,"datum":"nad83_2011","anchor":false},"geometry":{"type":"LineString","coordinates":[[-122.4149077,47.5796742],[-122.4016105,47.5796056],[-122.3883132,47.5795355],[-122.3750161,47.5794638],[-122.361719,47.5793906],[-122.3484219,47.5793158],[-122.3351249,47.5792395],[-122.321828,47.5791616],[-122.3085311,47.5790822],[-122.2952343,47.5790013],[-122.2819375,47.5789188],[-122.2686408,47.5788348],[-122.2553442,47.5787493]]}},{"type":"Feature","properties":{"axis":"N","value":5270250,"spacing":250,"datum":"nad83_2011","anchor":false},"geometry":{"type":"LineString","coordinates":[[-122.4148576,47.5841729],[-122.4015592,47.5841043],[-122.3882608,47.5840341],[-122.3749625,47.5839624],[-122.3616643,47.5838892],[-122.3483661,47.5838144],[-122.335068,47.5837381],[-122.3217699,47.5836602],[-122.3084719,47.5835808],[-122.2951739,47.5834999],[-122.281876,47.5834174],[-122.2685781,47.5833334],[-122.2552804,47.5832478]]}},{"type":"Feature","properties":{"axis":"N","value":5270500,"spacing":250,"datum":"nad83_2011","anchor":false},"geometry":{"type":"LineString","coordinates":[[-122.4148325,47.5864222],[-122.4015335,47.5863536],[-122.3882346,47.5862835],[-122.3749358,47.5862118],[-122.361637,47.5861385],[-122.3483382,47.5860637],[-122.3350395,47.5859874],[-122.3217408,47.5859095],[-122.3084422,47.5858301],[-122.2951437,47.5857492],[-122.2818452,47.5856667],[-122.2685468,47.5855827],[-122.2552485,47.5854971]]}},{"type":"Feature","properties":{"axis":"N","value":5270750,"spacing":250,"datum":"nad83_2011","anchor":false},"geometry":{"type":"LineString","coordinates":[[-122.4148074,47.5886716],[-122.4015079,47.588603],[-122.3882084,47.5885328],[-122.374909,47.5884611],[-122.3616096,47.5883878],[-122.3483103,47.5883131],[-122.335011,47.5882367],[-122.3217118,47.5881588],[-122.3084126,47.5880794],[-122.2951135,47.5879985],[-122.2818145,47.587916],[-122.2685155,47.5878319],[-122.2552165,47.5877464]]}},{"type":"Feature","properties":{"axis":"N","value":5271250,"spacing":250,"datum":"nad83_2011","anchor":false},"geometry":{"type":"LineString","coordinates":[[-122.4147573,47.5931703],[-122.4014566,47.5931016],[-122.388156,47.5930315],[-122.3748554,47.5929597],[-122.3615549,47.5928865],[-122.3482544,47.5928117],[-122.334954,47.5927353],[-122.3216536,47.5926575],[-122.3083533,47.592578],[-122.2950531,47.5924971],[-122.2817529,47.5924145],[-122.2684528,47.5923305],[-122.2551527,47.5922449]]}},{"type":"Feature","properties":{"axis":"N","value":5271500,"spacing":250,"datum":"nad83_2011","anchor":false},"geometry":{"type":"LineString","coordinates":[[-122.4147322,47.5954196],[-122.401431,47.595351],[-122.3881298,47.5952808],[-122.3748286,47.5952091],[-122.3615275,47.5951358],[-122.3482265,47.595061],[-122.3349255,47.5949846],[-122.3216246,47.5949067],[-122.3083237,47.5948273],[-122.2950229,47.5947463],[-122.2817221,47.5946638],[-122.2684214,47.5945798],[-122.2551208,47.5944942]]}},{"type":"Feature","properties":{"axis":"N","value":5271750,"spacing":250,"datum":"nad83_2011","anchor":false},"geometry":{"type":"LineString","coordinates":[[-122.4147071,47.5976689],[-122.4014053,47.5976003],[-122.3881035,47.5975301],[-122.3748018,47.5974584],[-122.3615002,47.5973851],[-122.3481986,47.5973103],[-122.334897,47.5972339],[-122.3215955,47.597156],[-122.3082941,47.5970766],[-122.2949927,47.5969956],[-122.2816913,47.5969131],[-122.2683901,47.596829],[-122.2550889,47.5967434]]}},{"type":"Feature","properties":{"axis":"N","value":5272250,"spacing":250,"datum":"nad83_2011","anchor":false},"geometry":{"type":"LineString","coordinates":[[-122.4146569,47.6021676],[-122.401354,47.602099],[-122.3880511,47.6020288],[-122.3747482,47.601957],[-122.3614454,47.6018837],[-122.3481427,47.6018089],[-122.33484,47.6017325],[-122.3215373,47.6016546],[-122.3082348,47.6015752],[-122.2949322,47.6014942],[-122.2816298,47.6014117],[-122.2683274,47.6013276],[-122.255025,47.601242]]}},{"type":"Feature","properties":{"axis":"N","value":5272500,"spacing":250,"datum":"nad83_2011","anchor":false},"geometry":{"type":"LineString","coordinates":[[-122.4146319,47.6044169],[-122.4013283,47.6043483],[-122.3880249,47.6042781],[-122.3747214,47.6042063],[-122.3614181,47.6041331],[-122.3481147,47.6040582],[-122.3348115,47.6039819],[-122.3215083,47.6039039],[-122.3082051,47.6038245],[-122.294902,47.6037435],[-122.281599,47.6036609],[-122.268296,47.6035769],[-122.2549931,47.6034912]]}},{"type":"Feature","properties":{"axis":"N","value":5272750,"spacing":250,"datum":"nad83_2011","anchor":false},"geometry":{"type":"LineString","coordinates":[[-122.4146068,47.6066663],[-122.4013027,47.6065976],[-122.3879986,47.6065274],[-122.3746946,47.6064557],[-122.3613907,47.6063824],[-122.3480868,47.6063075],[-122.334783,47.6062312],[-122.3214792,47.6061532],[-122.3081754,47.6060738],[-122.2948718,47.6059928],[-122.2815682,47.6059102],[-122.2682646,47.6058261],[-122.2549611,47.6057405]]}},{"type":"Feature","properties":{"axis":"N","value":5273250,"spacing":250,"datum":"nad83_2011","anchor":false},"geometry":{"type":"LineString","coordinates":[[-122.4145566,47.6111649],[-122.4012513,47.6110963],[-122.3879461,47.6110261],[-122.374641,47.6109543],[-122.3613359,47.610881],[-122.3480309,47.6108061],[-122.3347259,47.6107298],[-122.321421,47.6106518],[-122.3081161,47.6105723],[-122.2948113,47.6104913],[-122.2815066,47.6104088],[-122.2682019,47.6103247],[-122.2548973,47.610239]]}},{"type":"Feature","properties":{"axis":"N","value":5273500,"spacing":250,"datum":"nad83_2011","anchor":false},"geometry":{"type":"LineString","coordinates":[[-122.4145315,47.6134143],[-122.4012256,47.6133456],[-122.3879199,47.6132754],[-122.3746142,47.6132036],[-122.3613085,47.6131303],[-122.3480029,47.6130554],[-122.3346974,47.612979],[-122.3213919,47.6129011],[-122.3080865,47.6128216],[-122.2947811,47.6127406],[-122.2814758,47.612658],[-122.2681705,47.6125739],[-122.2548653,47.6124883]]}},{"type":"Feature","properties":{"axis":"N","value":5273750,"spacing":250,"datum":"nad83_2011","anchor":false},"geometry":{"type":"LineString","coordinates":[[-122.4145063,47.6156636],[-122.4012,47.6155949],[-122.3878936,47.6155247],[-122.3745874,47.6154529],[-122.3612811,47.6153796],[-122.347975,47.6153047],[-122.3346688,47.6152283],[-122.3213628,47.6151504],[-122.3080568,47.6150709],[-122.2947508,47.6149899],[-122.2814449,47.6149073],[-122.2681391,47.6148232],[-122.2548333,47.6147375]]}},{"type":"Feature","properties":{"axis":"N","value":5274250,"spacing":250,"datum":"nad83_2011","anchor":false},"geometry":{"type":"LineString","coordinates":[[-122.4144561,47.6201623],[-122.4011486,47.6200936],[-122.3878411,47.6200233],[-122.3745337,47.6199515],[-122.3612263,47.6198782],[-122.347919,47.6198034],[-122.3346118,47.6197269],[-122.3213046,47.619649],[-122.3079974,47.6195695],[-122.2946903,47.6194884],[-122.2813833,47.6194058],[-122.2680763,47.6193217],[-122.2547694,47.619236]]}},{"type":"Feature","properties":{"axis":"N","value":5274500,"spacing":250,"datum":"nad83_2011","anchor":false},"geometry":{"type":"LineString","coordinates":[[-122.414431,47.6224116],[-122.4011229,47.6223429],[-122.3878149,47.6222727],[-122.3745069,47.6222009],[-122.3611989,47.6221275],[-122.3478911,47.6220527],[-122.3345832,47.6219762],[-122.3212755,47.6218983],[-122.3079677,47.6218188],[-122.2946601,47.6217377],[-122.2813525,47.6216551],[-122.2680449,47.621571],[-122.2547375,47.6214853]]}},{"type":"Feature","properties":{"axis":"N","value":5274750,"spacing":250,"datum":"nad83_2011","anchor":false},"geometry":{"type":"LineString","coordinates":[[-122.4144059,47.6246609],[-122.4010972,47.6245922],[-122.3877886,47.624522],[-122.37448,47.6244502],[-122.3611715,47.6243768],[-122.3478631,47.624302],[-122.3345547,47.6242255],[-122.3212463,47.6241476],[-122.3079381,47.624068],[-122.2946298,47.623987],[-122.2813217,47.6239044],[-122.2680135,47.6238202],[-122.2547055,47.6237345]]}},{"type":"Feature","properties":{"axis":"N","value":5275250,"spacing":250,"datum":"nad83_2011","anchor":false},"geometry":{"type":"LineString","coordinates":[[-122.4143556,47.6291596],[-122.4010458,47.6290909],[-122.3877361,47.6290206],[-122.3744264,47.6289488],[-122.3611167,47.6288754],[-122.3478071,47.6288005],[-122.3344976,47.6287241],[-122.3211881,47.6286461],[-122.3078787,47.6285666],[-122.2945693,47.6284855],[-122.28126,47.6284029],[-122.2679507,47.6283188],[-122.2546415,47.6282331]]}},{"type":"Feature","properties":{"axis":"N","value":5275500,"spacing":250,"datum":"nad83_2011","anchor":false},"geometry":{"type":"LineString","coordinates":[[-122.4143305,47.6314089],[-122.4010201,47.6313402],[-122.3877098,47.6312699],[-122.3743995,47.6311981],[-122.3610893,47.6311247],[-122.3477791,47.6310498],[-122.334469,47.6309734],[-122.321159,47.6308954],[-122.307849,47.6308159],[-122.294539,47.6307348],[-122.2812291,47.6306522],[-122.2679193,47.630568],[-122.2546096,47.6304823]]}},{"type":"Feature","properties":{"axis":"N","value":5275750,"spacing":250,"datum":"nad83_2011","anchor":false},"geometry":{"type":"LineString","coordinates":[[-122.4143054,47.6336582],[-122.4009944,47.6335895],[-122.3876835,47.6335192],[-122.3743727,47.6334474],[-122.3610619,47.633374],[-122.3477512,47.6332991],[-122.3344405,47.6332227],[-122.3211298,47.6331447],[-122.3078193,47.6330652],[-122.2945088,47.6329841],[-122.2811983,47.6329014],[-122.2678879,47.6328173],[-122.2545776,47.6327316]]}},{"type":"Feature","properties":{"axis":"N","value":5276250,"spacing":250,"datum":"nad83_2011","anchor":false},"geometry":{"type":"LineString","coordinates":[[-122.4142551,47.6381569],[-122.400943,47.6380881],[-122.387631,47.6380178],[-122.374319,47.637946],[-122.361007,47.6378726],[-122.3476952,47.6377977],[-122.3343833,47.6377213],[-122.3210716,47.6376433],[-122.3077599,47.6375637],[-122.2944482,47.6374826],[-122.2811366,47.6374],[-122.2678251,47.6373158],[-122.2545136,47.6372301]]}},{"type":"Feature","properties":{"axis":"N","value":5276500,"spacing":250,"datum":"nad83_2011","anchor":false},"geometry":{"type":"LineString","coordinates":[[-122.4142299,47.6404062],[-122.4009173,47.6403374],[-122.3876047,47.6402672],[-122.3742921,47.6401953],[-122.3609796,47.6401219],[-122.3476672,47.640047],[-122.3343548,47.6399706],[-122.3210424,47.6398925],[-122.3077301,47.639813],[-122.2944179,47.6397319],[-122.2811057,47.6396492],[-122.2677936,47.639565],[-122.2544816,47.6394793]]}},{"type":"Feature","properties":{"axis":"N","value":5276750,"spacing":250,"datum":"nad83_2011","anchor":false},"geometry":{"type":"LineString","coordinates":[[-122.4142048,47.6426555],[-122.4008916,47.6425868],[-122.3875784,47.6425165],[-122.3742653,47.6424446],[-122.3609522,47.6423712],[-122.3476392,47.6422963],[-122.3343262,47.6422198],[-122.3210133,47.6421418],[-122.3077004,47.6420623],[-122.2943876,47.6419811],[-122.2810749,47.6418985],[-122.2677622,47.6418143],[-122.2544496,47.6417286]]}},{"type":"Feature","properties":{"axis":"N","value":5277250,"spacing":250,"datum":"nad83_2011","anchor":false},"geometry":{"type":"LineString","coordinates":[[-122.4141545,47.6471542],[-122.4008401,47.6470854],[-122.3875258,47.6470151],[-122.3742115,47.6469432],[-122.3608973,47.6468698],[-122.3475831,47.6467949],[-122.334269,47.6467184],[-122.320955,47.6466404],[-122.307641,47.6465608],[-122.294327,47.6464797],[-122.2810132,47.646397],[-122.2676993,47.6463128],[-122.2543856,47.646227]]}},{"type":"Feature","properties":{"axis":"N","value":5277500,"spacing":250,"datum":"nad83_2011","anchor":false},"geometry":{"type":"LineString","coordinates":[[-122.4141293,47.6494035],[-122.4008144,47.6493347],[-122.3874995,47.6492644],[-122.3741847,47.6491925],[-122.3608699,47.6491191],[-122.3475551,47.6490442],[-122.3342405,47.6489677],[-122.3209258,47.6488897],[-122.3076113,47.6488101],[-122.2942967,47.6487289],[-122.2809823,47.6486463],[-122.2676679,47.6485621],[-122.2543536,47.6484763]]}},{"type":"Feature","properties":{"axis":"N","value":5277750,"spacing":250,"datum":"nad83_2011","anchor":false},"geometry":{"type":"LineString","coordinates":[[-122.4141042,47.6516528],[-122.4007887,47.651584],[-122.3874732,47.6515137],[-122.3741578,47.6514418],[-122.3608424,47.6513684],[-122.3475271,47.6512935],[-122.3342119,47.651217],[-122.3208967,47.6511389],[-122.3075815,47.6510593],[-122.2942664,47.6509782],[-122.2809514,47.6508955],[-122.2676364,47.6508113],[-122.2543215,47.6507255]]}},{"type":"Feature","properties":{"axis":"N","value":5278250,"spacing":250,"datum":"nad83_2011","anchor":false},"geometry":{"type":"LineString","coordinates":[[-122.4140539,47.6561514],[-122.4007372,47.6560826],[-122.3874206,47.6560123],[-122.374104,47.6559404],[-122.3607875,47.655867],[-122.3474711,47.655792],[-122.3341547,47.6557155],[-122.3208383,47.6556375],[-122.3075221,47.6555579],[-122.2942058,47.6554767],[-122.2808897,47.655394],[-122.2675735,47.6553098],[-122.2542575,47.655224]]}},{"type":"Feature","properties":{"axis":"N","value":5278500,"spacing":250,"datum":"nad83_2011","anchor":false},"geometry":{"type":"LineString","coordinates":[[-122.4140287,47.6584007],[-122.4007115,47.6583319],[-122.3873943,47.6582616],[-122.3740772,47.6581897],[-122.3607601,47.6581163],[-122.3474431,47.6580413],[-122.3341261,47.6579648],[-122.3208092,47.6578868],[-122.3074923,47.6578071],[-122.2941755,47.657726],[-122.2808588,47.6576433],[-122.2675421,47.6575591],[-122.2542255,47.6574733]]}},{"type":"Feature","properties":{"axis":"N","value":5278750,"spacing":250,"datum":"nad83_2011","anchor":false},"geometry":{"type":"LineString","coordinates":[[-122.4140035,47.66065],[-122.4006857,47.6605813],[-122.387368,47.6605109],[-122.3740503,47.660439],[-122.3607326,47.6603656],[-122.347415,47.6602906],[-122.3340975,47.6602141],[-122.32078,47.660136],[-122.3074626,47.6600564],[-122.2941452,47.6599753],[-122.2808279,47.6598926],[-122.2675106,47.6598083],[-122.2541934,47.6597225]]}}]}