{"type":"FeatureCollection","features":[{"type":"Feature","properties":{"axis":"E","value":2490000,"spacing":1000,"datum":"vicgrid66","anchor":false},"geometry":{"type":"LineString","coordinates":[[144.8525151,-55.5118518],[144.8525382,-55.5033786],[144.8525612,-55.4949049],[144.8525842,-55.4864307],[144.8526072,-55.477956],[144.8526302,-55.4694809],[144.8526532,-55.4610052],[144.8526762,-55.452529],[144.8526992,-55.4440523],[144.8527222,-55.4355751],[144.8527452,-55.4270974],[144.8527681,-55.4186192],[144.8527911,-55.4101405],[144.8528141,-55.4016613]]}},{"type":"Feature","properties":{"axis":"E","value":2491000,"spacing":1000,"datum":"vicgrid66","anchor":false},"geometry":{"type":"LineString","coordinates":[[144.8674464,-55.5118642],[144.8674671,-55.503391],[144.8674878,-55.4949173],[144.8675085,-55.4864431],[144.8675292,-55.4779684],[144.8675499,-55.4694933],[144.8675705,-55.4610176],[144.8675912,-55.4525414],[144.8676118,-55.4440647],[144.8676325,-55.4355875],[144.8676531,-55.4271098],[144.8676738,-55.4186316],[144.8676944,-55.4101529],[144.867715,-55.4016737]]}},{"type":"Feature","properties":{"axis":"E","value":2492000,"spacing":1000,"datum":"vicgrid66","anchor":false},"geometry":{"type":"LineString","coordinates":[[144.8823778,-55.5118752],[144.8823961,-55.5034021],[144.8824145,-55.4949284],[144.8824328,-55.4864542],[144.8824512,-55.4779795],[144.8824695,-55.4695043],[144.8824878,-55.4610287],[144.8825062,-55.4525525],[144.8825245,-55.4440758],[144.8825428,-55.4355986],[144.8825611,-55.4271209],[144.8825794,-55.4186427],[144.8825977,-55.410164],[144.882616,-55.4016848]]}},{"type":"Feature","properties":{"axis":"E","value":2493000,"spacing":1000,"datum":"vicgrid66","anchor":false},"geometry":{"type":"LineString","coordinates":[[144.8973091,-55.511885],[144.8973252,-55.5034118],[144.8973412,-55.4949381],[144.8973572,-55.486464],[144.8973732,-55.4779893],[144.8973892,-55.4695141],[144.8974051,-55.4610384],[144.8974211,-55.4525622],[144.8974371,-55.4440855],[144.8974531,-55.4356083],[144.8974691,-55.4271306],[144.897485,-55.4186524],[144.897501,-55.4101737],[144.8975169,-55.4016946]]}},{"type":"Feature","properties":{"axis":"E","value":2494000,"spacing":1000,"datum":"vicgrid66","anchor":false},"geometry":{"type":"LineString","coordinates":[[144.9122405,-55.5118934],[144.9122542,-55.5034202],[144.9122678,-55.4949466],[144.9122815,-55.4864724],[144.9122952,-55.4779977],[144.9123088,-55.4695225],[144.9123225,-55.4610468],[144.9123361,-55.4525706],[144.9123498,-55.4440939],[144.9123634,-55.4356167],[144.912377,-55.427139],[144.9123907,-55.4186609],[144.9124043,-55.4101822],[144.9124179,-55.401703]]}},{"type":"Feature","properties":{"axis":"E","value":2495000,"spacing":1000,"datum":"vicgrid66","anchor":false},"geometry":{"type":"LineString","coordinates":[[144.9271718,-55.5119005],[144.9271832,-55.5034273],[144.9271945,-55.4949537],[144.9272058,-55.4864795],[144.9272171,-55.4780048],[144.9272285,-55.4695296],[144.9272398,-55.4610539],[144.9272511,-55.4525777],[144.9272624,-55.444101],[144.9272737,-55.4356238],[144.927285,-55.4271461],[144.9272963,-55.4186679],[144.9273076,-55.4101892],[144.9273189,-55.4017101]]}},{"type":"Feature","properties":{"axis":"E","value":2496000,"spacing":1000,"datum":"vicgrid66","anchor":false},"geometry":{"type":"LineString","coordinates":[[144.9421032,-55.5119063],[144.9421122,-55.5034331],[144.9421212,-55.4949594],[144.9421302,-55.4864852],[144.9421391,-55.4780106],[144.9421481,-55.4695354],[144.9421571,-55.4610597],[144.9421661,-55.4525835],[144.942175,-55.4441068],[144.942184,-55.4356296],[144.942193,-55.4271519],[144.9422019,-55.4186737],[144.9422109,-55.410195],[144.9422199,-55.4017158]]}},{"type":"Feature","properties":{"axis":"E","value":2497000,"spacing":1000,"datum":"vicgrid66","anchor":true},"geometry":{"type":"LineString","coordinates":[[144.9570346,-55.5119107],[144.9570412,-55.5034375],[144.9570479,-55.4949639],[144.9570545,-55.4864897],[144.9570611,-55.478015],[144.9570678,-55.4695398],[144.9570744,-55.4610641],[144.9570811,-55.4525879],[144.9570877,-55.4441112],[144.9570943,-55.435634],[144.957101,-55.4271563],[144.9571076,-55.4186781],[144.9571142,-55.4101994],[144.9571208,-55.4017202]]}},{"type":"Feature","properties":{"axis":"E","value":2498000,"spacing":1000,"datum":"vicgrid66","anchor":false},"geometry":{"type":"LineString","coordinates":[[144.9719659,-55.5119138],[144.9719702,-55.5034407],[144.9719745,-55.494967],[144.9719788,-55.4864928],[144.9719831,-55.4780181],[144.9719875,-55.4695429],[144.9719918,-55.4610672],[144.971996,-55.452591],[144.9720003,-55.4441143],[144.9720046,-55.4356371],[144.9720089,-55.4271594],[144.9720132,-55.4186812],[144.9720175,-55.4102025],[144.9720218,-55.4017233]]}},{"type":"Feature","properties":{"axis":"E","value":2499000,"spacing":1000,"datum":"vicgrid66","anchor":false},"geometry":{"type":"LineString","coordinates":[[144.9868973,-55.5119156],[144.9868993,-55.5034424],[144.9869012,-55.4949687],[144.9869032,-55.4864946],[144.9869052,-55.4780199],[144.9869071,-55.4695447],[144.9869091,-55.461069],[144.986911,-55.4525928],[144.986913,-55.4441161],[144.986915,-55.4356389],[144.9869169,-55.4271612],[144.9869189,-55.418683],[144.9869208,-55.4102043],[144.9869228,-55.4017251]]}},{"type":"Feature","properties":{"axis":"E","value":2500000,"spacing":1000,"datum":"vicgrid66","anchor":false},"geometry":{"type":"LineString","coordinates":[[145.0018287,-55.5119161],[145.0018283,-55.5034429],[145.0018279,-55.4949692],[145.0018275,-55.486495],[145.0018272,-55.4780203],[145.0018268,-55.4695451],[145.0018264,-55.4610694],[145.001826,-55.4525933],[145.0018257,-55.4441166],[145.0018253,-55.4356394],[145.0018249,-55.4271617],[145.0018245,-55.4186835],[145.0018242,-55.4102048],[145.0018238,-55.4017256]]}},{"type":"Feature","properties":{"axis":"E","value":2501000,"spacing":1000,"datum":"vicgrid66","anchor":false},"geometry":{"type":"LineString","coordinates":[[145.01676,-55.5119152],[145.0167573,-55.503442],[145.0167546,-55.4949683],[145.0167519,-55.4864941],[145.0167492,-55.4780194],[145.0167464,-55.4695443],[145.0167437,-55.4610686],[145.016741,-55.4525924],[145.0167383,-55.4441157],[145.0167356,-55.4356385],[145.0167329,-55.4271608],[145.0167302,-55.4186826],[145.0167275,-55.4102039],[145.0167248,-55.4017247]]}},{"type":"Feature","properties":{"axis":"E","value":2502000,"spacing":1000,"datum":"vicgrid66","anchor":false},"geometry":{"type":"LineString","coordinates":[[145.0316914,-55.511913],[145.0316863,-55.5034398],[145.0316813,-55.4949661],[145.0316762,-55.4864919],[145.0316712,-55.4780172],[145.0316661,-55.4695421],[145.0316611,-55.4610664],[145.031656,-55.4525902],[145.031651,-55.4441135],[145.0316459,-55.4356363],[145.0316409,-55.4271586],[145.0316358,-55.4186804],[145.0316308,-55.4102017],[145.0316258,-55.4017225]]}},{"type":"Feature","properties":{"axis":"E","value":2503000,"spacing":1000,"datum":"vicgrid66","anchor":false},"geometry":{"type":"LineString","coordinates":[[145.0466228,-55.5119094],[145.0466154,-55.5034363],[145.046608,-55.4949626],[145.0466006,-55.4864884],[145.0465932,-55.4780137],[145.0465858,-55.4695385],[145.0465784,-55.4610628],[145.046571,-55.4525866],[145.0465636,-55.4441099],[145.0465562,-55.4356327],[145.0465489,-55.4271551],[145.0465415,-55.4186769],[145.0465341,-55.4101982],[145.0465267,-55.401719]]}},{"type":"Feature","properties":{"axis":"N","value":2403000,"spacing":1000,"datum":"vicgrid66","anchor":false},"geometry":{"type":"LineString","coordinates":[[144.8525151,-55.5118518],[144.8674464,-55.5118642],[144.8823778,-55.5118752],[144.8973091,-55.511885],[144.9122405,-55.5118934],[144.9271718,-55.5119005],[144.9421032,-55.5119063],[144.9570346,-55.5119107],[144.9719659,-55.5119138],[144.9868973,-55.5119156],[145.0018287,-55.5119161],[145.01676,-55.5119152],[145.0316914,-55.511913],[145.0466228,-55.5119094]]}},{"type":"Feature","properties":{"axis":"N","value":2404000,"spacing":1000,"datum":"vicgrid66","anchor":false},"geometry":{"type":"LineString","coordinates":[[144.8525382,-55.5033786],[144.8674671,-55.503391],[144.8823961,-55.5034021],[144.8973252,-55.5034118],[144.9122542,-55.5034202],[144.9271832,-55.5034273],[144.9421122,-55.5034331],[144.9570412,-55.5034375],[144.9719702,-55.5034407],[144.9868993,-55.5034424],[145.0018283,-55.5034429],[145.0167573,-55.503442],[145.0316863,-55.5034398],[145.0466154,-55.5034363]]}},{"type":"Feature","properties":{"axis":"N","value":2405000,"spacing":1000,"datum":"vicgrid66","anchor":false},"geometry":{"type":"LineString","coordinates":[[144.8525612,-55.4949049],[144.8674878,-55.4949173],[144.8824145,-55.4949284],[144.8973412,-55.4949381],[144.9122678,-55.4949466],[144.9271945,-55.4949537],[144.9421212,-55.4949594],[144.9570479,-55.4949639],[144.9719745,-55.494967],[144.9869012,-55.4949687],[145.0018279,-55.4949692],[145.0167546,-55.4949683],[145.0316813,-55.4949661],[145.046608,-55.4949626]]}},{"type":"Feature","properties":{"axis":"N","value":2406000,"spacing":1000,"datum":"vicgrid66","anchor":false},"geometry":{"type":"LineString","coordinates":[[144.8525842,-55.4864307],[144.8675085,-55.4864431],[144.8824328,-55.4864542],[144.8973572,-55.486464],[144.9122815,-55.4864724],[144.9272058,-55.4864795],[144.9421302,-55.4864852],[144.9570545,-55.4864897],[144.9719788,-55.4864928],[144.9869032,-55.4864946],[145.0018275,-55.486495],[145.0167519,-55.4864941],[145.0316762,-55.4864919],[145.0466006,-55.4864884]]}},{"type":"Feature","properties":{"axis":"N","value":2407000,"spacing":1000,"datum":"vicgrid66","anchor":false},"geometry":{"type":"LineString","coordinates":[[144.8526072,-55.477956],[144.8675292,-55.4779684],[144.8824512,-55.4779795],[144.8973732,-55.4779893],[144.9122952,-55.4779977],[144.9272171,-55.4780048],[144.9421391,-55.4780106],[144.9570611,-55.478015],[144.9719831,-55.4780181],[144.9869052,-55.4780199],[145.0018272,-55.4780203],[145.0167492,-55.4780194],[145.0316712,-55.4780172],[145.0465932,-55.4780137]]}},{"type":"Feature","properties":{"axis":"N","value":2408000,"spacing":1000,"datum":"vicgrid66","anchor":false},"geometry":{"type":"LineString","coordinates":[[144.8526302,-55.4694809],[144.8675499,-55.4694933],[144.8824695,-55.4695043],[144.8973892,-55.4695141],[144.9123088,-55.4695225],[144.9272285,-55.4695296],[144.9421481,-55.4695354],[144.9570678,-55.4695398],[144.9719875,-55.4695429],[144.9869071,-55.4695447],[145.0018268,-55.4695451],[145.0167464,-55.4695443],[145.0316661,-55.4695421],[145.0465858,-55.4695385]]}},{"type":"Feature","properties":{"axis":"N","value":2409000,"spacing":1000,"datum":"vicgrid66","anchor":false},"geometry":{"type":"LineString","coordinates":[[144.8526532,-55.4610052],[144.8675705,-55.4610176],[144.8824878,-55.4610287],[144.8974051,-55.4610384],[144.9123225,-55.4610468],[144.9272398,-55.4610539],[144.9421571,-55.4610597],[144.9570744,-55.4610641],[144.9719918,-55.4610672],[144.9869091,-55.461069],[145.0018264,-55.4610694],[145.0167437,-55.4610686],[145.0316611,-55.4610664],[145.0465784,-55.4610628]]}},{"type":"Feature","properties":{"axis":"N","value":2410000,"spacing":1000,"datum":"vicgrid66","anchor":true},"geometry":{"type":"LineString","coordinates":[[144.8526762,-55.452529],[144.8675912,-55.4525414],[144.8825062,-55.4525525],[144.8974211,-55.4525622],[144.9123361,-55.4525706],[144.9272511,-55.4525777],[144.9421661,-55.4525835],[144.9570811,-55.4525879],[144.971996,-55.452591],[144.986911,-55.4525928],[145.001826,-55.4525933],[145.016741,-55.4525924],[145.031656,-55.4525902],[145.046571,-55.4525866]]}},{"type":"Feature","properties":{"axis":"N","value":2411000,"spacing":1000,"datum":"vicgrid66","anchor":false},"geometry":{"type":"LineString","coordinates":[[144.8526992,-55.4440523],[144.8676118,-55.4440647],[144.8825245,-55.4440758],[144.8974371,-55.4440855],[144.9123498,-55.4440939],[144.9272624,-55.444101],[144.942175,-55.4441068],[144.9570877,-55.4441112],[144.9720003,-55.4441143],[144.986913,-55.4441161],[145.0018257,-55.4441166],[145.0167383,-55.4441157],[145.031651,-55.4441135],[145.0465636,-55.4441099]]}},{"type":"Feature","properties":{"axis":"N","value":2412000,"spacing":1000,"datum":"vicgrid66","anchor":false},"geometry":{"type":"LineString","coordinates":[[144.8527222,-55.4355751],[144.8676325,-55.4355875],[144.8825428,-55.4355986],[144.8974531,-55.4356083],[144.9123634,-55.4356167],[144.9272737,-55.4356238],[144.942184,-55.4356296],[144.9570943,-55.435634],[144.9720046,-55.4356371],[144.986915,-55.4356389],[145.0018253,-55.4356394],[145.0167356,-55.4356385],[145.0316459,-55.4356363],[145.0465562,-55.4356327]]}},{"type":"Feature","properties":{"axis":"N","value":2413000,"spacing":1000,"datum":"vicgrid66","anchor":false},"geometry":{"type":"LineString","coordinates":[[144.8527452,-55.4270974],[144.8676531,-55.4271098],[144.8825611,-55.4271209],[144.8974691,-55.4271306],[144.912377,-55.427139],[144.927285,-55.4271461],[144.942193,-55.4271519],[144.957101,-55.4271563],[144.9720089,-55.4271594],[144.9869169,-55.4271612],[145.0018249,-55.4271617],[145.0167329,-55.4271608],[145.0316409,-55.4271586],[145.0465489,-55.4271551]]}},{"type":"Feature","properties":{"axis":"N","value":2414000,"spacing":1000,"datum":"vicgrid66","anchor":false},"geometry":{"type":"LineString","coordinates":[[144.8527681,-55.4186192],[144.8676738,-55.4186316],[144.8825794,-55.4186427],[144.897485,-55.4186524],[144.9123907,-55.4186609],[144.9272963,-55.4186679],[144.9422019,-55.4186737],[144.9571076,-55.4186781],[144.9720132,-55.4186812],[144.9869189,-55.418683],[145.0018245,-55.4186835],[145.0167302,-55.4186826],[145.0316358,-55.4186804],[145.0465415,-55.4186769]]}},{"type":"Feature","properties":{"axis":"N","value":2415000,"spacing":1000,"datum":"vicgrid66","anchor":false},"geometry":{"type":"LineString","coordinates":[[144.8527911,-55.4101405],[144.8676944,-55.4101529],[144.8825977,-55.410164],[144.897501,-55.4101737],[144.9124043,-55.4101822],[144.9273076,-55.4101892],[144.9422109,-55.410195],[144.9571142,-55.4101994],[144.9720175,-55.4102025],[144.9869208,-55.4102043],[145.0018242,-55.4102048],[145.0167275,-55.4102039],[145.0316308,-55.4102017],[145.0465341,-55.4101982]]}},{"type":"Feature","properties":{"axis":"N","value":2416000,"spacing":1000,"datum":"vicgrid66","anchor":false},"geometry":{"type":"LineString","coordinates":[[144.8528141,-55.4016613],[144.867715,-55.4016737],[144.882616,-55.4016848],[144.8975169,-55.4016946],[144.9124179,-55.401703],[144.9273189,-55.4017101],[144.9422199,-55.4017158],[144.9571208,-55.4017202],[144.9720218,-55.4017233],[144.9869228,-55.4017251],[145.0018238,-55.4017256],[145.0167248,-55.4017247],[145.0316258,-55.4017225],[145.0465267,-55.401719]]}},{"type":"Feature","properties":{"axis":"E","value":2490750,"spacing":250,"datum":"vicgrid66","anchor":false},"geometry":{"type":"LineString","coordinates":[[144.8637243,-55.5076247],[144.863746,-55.4989747],[144.8637677,-55.4903242],[144.8637894,-55.4816732],[144.8638111,-55.4730217],[144.8638328,-55.4643696],[144.8638545,-55.455717],[144.8638762,-55.4470639],[144.8638978,-55.4384103],[144.8639195,-55.4297562],[144.8639412,-55.4211015],[144.8639628,-55.4124463],[144.8639845,-55.4037906]]}},{"type":"Feature","properties":{"axis":"E","value":2491250,"spacing":250,"datum":"vicgrid66","anchor":false},"geometry":{"type":"LineString","coordinates":[[144.8711893,-55.5076305],[144.8712099,-55.4989806],[144.8712304,-55.4903301],[144.8712509,-55.4816791],[144.8712714,-55.4730275],[144.8712919,-55.4643755],[144.8713124,-55.4557229],[144.8713329,-55.4470698],[144.8713534,-55.4384162],[144.8713739,-55.429762],[144.8713943,-55.4211074],[144.8714148,-55.4124522],[144.8714352,-55.4037965]]}},{"type":"Feature","properties":{"axis":"E","value":2491500,"spacing":250,"datum":"vicgrid66","anchor":false},"geometry":{"type":"LineString","coordinates":[[144.8749219,-55.5076333],[144.8749418,-55.4989834],[144.8749617,-55.4903329],[144.8749817,-55.4816819],[144.8750016,-55.4730304],[144.8750215,-55.4643783],[144.8750414,-55.4557257],[144.8750613,-55.4470726],[144.8750811,-55.438419],[144.875101,-55.4297649],[144.8751209,-55.4211102],[144.8751408,-55.412455],[144.8751606,-55.4037993]]}},{"type":"Feature","properties":{"axis":"E","value":2491750,"spacing":250,"datum":"vicgrid66","anchor":false},"geometry":{"type":"LineString","coordinates":[[144.8786544,-55.5076361],[144.8786738,-55.4989861],[144.8786931,-55.4903356],[144.8787124,-55.4816846],[144.8787317,-55.4730331],[144.878751,-55.464381],[144.8787703,-55.4557284],[144.8787896,-55.4470753],[144.8788089,-55.4384217],[144.8788282,-55.4297676],[144.8788475,-55.4211129],[144.8788667,-55.4124577],[144.878886,-55.403802]]}},{"type":"Feature","properties":{"axis":"E","value":2492250,"spacing":250,"datum":"vicgrid66","anchor":false},"geometry":{"type":"LineString","coordinates":[[144.8861195,-55.5076413],[144.8861376,-55.4989913],[144.8861558,-55.4903408],[144.8861739,-55.4816898],[144.886192,-55.4730383],[144.8862101,-55.4643862],[144.8862283,-55.4557337],[144.8862464,-55.4470806],[144.8862645,-55.4384269],[144.8862825,-55.4297728],[144.8863006,-55.4211181],[144.8863187,-55.4124629],[144.8863368,-55.4038072]]}},{"type":"Feature","properties":{"axis":"E","value":2492500,"spacing":250,"datum":"vicgrid66","anchor":false},"geometry":{"type":"LineString","coordinates":[[144.8898521,-55.5076438],[144.8898696,-55.4989938],[144.8898871,-55.4903433],[144.8899047,-55.4816923],[144.8899222,-55.4730408],[144.8899397,-55.4643887],[144.8899572,-55.4557361],[144.8899747,-55.447083],[144.8899922,-55.4384294],[144.8900097,-55.4297753],[144.8900272,-55.4211206],[144.8900447,-55.4124654],[144.8900622,-55.4038097]]}},{"type":"Feature","properties":{"axis":"E","value":2492750,"spacing":250,"datum":"vicgrid66","anchor":false},"geometry":{"type":"LineString","coordinates":[[144.8935846,-55.5076462],[144.8936015,-55.4989962],[144.8936185,-55.4903457],[144.8936354,-55.4816947],[144.8936523,-55.4730432],[144.8936693,-55.4643911],[144.8936862,-55.4557385],[144.8937031,-55.4470854],[144.89372,-55.4384318],[144.8937369,-55.4297777],[144.8937538,-55.421123],[144.8937707,-55.4124678],[144.8937876,-55.4038121]]}},{"type":"Feature","properties":{"axis":"E","value":2493250,"spacing":250,"datum":"vicgrid66","anchor":false},"geometry":{"type":"LineString","coordinates":[[144.9010497,-55.5076507],[144.9010654,-55.4990007],[144.9010812,-55.4903503],[144.9010969,-55.4816992],[144.9011126,-55.4730477],[144.9011284,-55.4643956],[144.9011441,-55.4557431],[144.9011598,-55.44709],[144.9011755,-55.4384363],[144.9011912,-55.4297822],[144.9012069,-55.4211275],[144.9012226,-55.4124723],[144.9012383,-55.4038166]]}},{"type":"Feature","properties":{"axis":"E","value":2493500,"spacing":250,"datum":"vicgrid66","anchor":false},"geometry":{"type":"LineString","coordinates":[[144.9047822,-55.5076529],[144.9047974,-55.4990029],[144.9048125,-55.4903524],[144.9048277,-55.4817014],[144.9048428,-55.4730499],[144.9048579,-55.4643978],[144.9048731,-55.4557452],[144.9048882,-55.4470921],[144.9049033,-55.4384385],[144.9049184,-55.4297843],[144.9049335,-55.4211297],[144.9049486,-55.4124745],[144.9049637,-55.4038188]]}},{"type":"Feature","properties":{"axis":"E","value":2493750,"spacing":250,"datum":"vicgrid66","anchor":false},"geometry":{"type":"LineString","coordinates":[[144.9085148,-55.5076549],[144.9085293,-55.499005],[144.9085439,-55.4903545],[144.9085584,-55.4817035],[144.908573,-55.4730519],[144.9085875,-55.4643999],[144.908602,-55.4557473],[144.9086166,-55.4470942],[144.9086311,-55.4384405],[144.9086456,-55.4297864],[144.9086601,-55.4211317],[144.9086746,-55.4124765],[144.9086891,-55.4038208]]}},{"type":"Feature","properties":{"axis":"E","value":2494250,"spacing":250,"datum":"vicgrid66","anchor":false},"geometry":{"type":"LineString","coordinates":[[144.9159799,-55.5076588],[144.9159932,-55.4990088],[144.9160066,-55.4903583],[144.9160199,-55.4817073],[144.9160333,-55.4730558],[144.9160466,-55.4644037],[144.91606,-55.4557512],[144.9160733,-55.4470981],[144.9160866,-55.4384444],[144.9160999,-55.4297903],[144.9161133,-55.4211356],[144.9161266,-55.4124804],[144.9161399,-55.4038247]]}},{"type":"Feature","properties":{"axis":"E","value":2494500,"spacing":250,"datum":"vicgrid66","anchor":false},"geometry":{"type":"LineString","coordinates":[[144.9197124,-55.5076606],[144.9197252,-55.4990106],[144.9197379,-55.4903602],[144.9197507,-55.4817091],[144.9197634,-55.4730576],[144.9197762,-55.4644056],[144.9197889,-55.455753],[144.9198017,-55.4470999],[144.9198144,-55.4384462],[144.9198271,-55.4297921],[144.9198398,-55.4211374],[144.9198526,-55.4124822],[144.9198653,-55.4038265]]}},{"type":"Feature","properties":{"axis":"E","value":2494750,"spacing":250,"datum":"vicgrid66","anchor":false},"geometry":{"type":"LineString","coordinates":[[144.923445,-55.5076623],[144.9234571,-55.4990124],[144.9234693,-55.4903619],[144.9234814,-55.4817109],[144.9234936,-55.4730593],[144.9235057,-55.4644073],[144.9235179,-55.4557547],[144.92353,-55.4471016],[144.9235422,-55.438448],[144.9235543,-55.4297938],[144.9235664,-55.4211392],[144.9235785,-55.412484],[144.9235907,-55.4038283]]}},{"type":"Feature","properties":{"axis":"E","value":2495250,"spacing":250,"datum":"vicgrid66","anchor":false},"geometry":{"type":"LineString","coordinates":[[144.9309101,-55.5076656],[144.930921,-55.4990156],[144.930932,-55.4903651],[144.930943,-55.4817141],[144.9309539,-55.4730626],[144.9309649,-55.4644105],[144.9309758,-55.4557579],[144.9309868,-55.4471048],[144.9309977,-55.4384512],[144.9310086,-55.429797],[144.9310196,-55.4211424],[144.9310305,-55.4124872],[144.9310414,-55.4038315]]}},{"type":"Feature","properties":{"axis":"E","value":2495500,"spacing":250,"datum":"vicgrid66","anchor":false},"geometry":{"type":"LineString","coordinates":[[144.9346426,-55.507667],[144.934653,-55.4990171],[144.9346633,-55.4903666],[144.9346737,-55.4817156],[144.9346841,-55.473064],[144.9346944,-55.464412],[144.9347048,-55.4557594],[144.9347151,-55.4471063],[144.9347255,-55.4384527],[144.9347358,-55.4297985],[144.9347462,-55.4211438],[144.9347565,-55.4124887],[144.9347668,-55.4038329]]}},{"type":"Feature","properties":{"axis":"E","value":2495750,"spacing":250,"datum":"vicgrid66","anchor":false},"geometry":{"type":"LineString","coordinates":[[144.9383752,-55.5076684],[144.9383849,-55.4990185],[144.9383947,-55.490368],[144.9384045,-55.481717],[144.9384142,-55.4730654],[144.938424,-55.4644134],[144.9384337,-55.4557608],[144.9384435,-55.4471077],[144.9384532,-55.4384541],[144.938463,-55.4297999],[144.9384727,-55.4211452],[144.9384825,-55.4124901],[144.9384922,-55.4038343]]}},{"type":"Feature","properties":{"axis":"E","value":2496250,"spacing":250,"datum":"vicgrid66","anchor":false},"geometry":{"type":"LineString","coordinates":[[144.9458402,-55.507671],[144.9458488,-55.499021],[144.9458574,-55.4903705],[144.945866,-55.4817195],[144.9458745,-55.473068],[144.9458831,-55.4644159],[144.9458917,-55.4557633],[144.9459002,-55.4471102],[144.9459088,-55.4384566],[144.9459174,-55.4298025],[144.9459259,-55.4211478],[144.9459345,-55.4124926],[144.945943,-55.4038369]]}},{"type":"Feature","properties":{"axis":"E","value":2496500,"spacing":250,"datum":"vicgrid66","anchor":false},"geometry":{"type":"LineString","coordinates":[[144.9495728,-55.5076721],[144.9495808,-55.4990222],[144.9495888,-55.4903717],[144.9495967,-55.4817207],[144.9496047,-55.4730691],[144.9496127,-55.4644171],[144.9496206,-55.4557645],[144.9496286,-55.4471114],[144.9496366,-55.4384578],[144.9496445,-55.4298036],[144.9496525,-55.4211489],[144.9496604,-55.4124938],[144.9496684,-55.403838]]}},{"type":"Feature","properties":{"axis":"E","value":2496750,"spacing":250,"datum":"vicgrid66","anchor":false},"geometry":{"type":"LineString","coordinates":[[144.9533053,-55.5076732],[144.9533127,-55.4990232],[144.9533201,-55.4903728],[144.9533275,-55.4817217],[144.9533349,-55.4730702],[144.9533422,-55.4644181],[144.9533496,-55.4557656],[144.953357,-55.4471125],[144.9533643,-55.4384588],[144.9533717,-55.4298047],[144.9533791,-55.42115],[144.9533864,-55.4124948],[144.9533938,-55.4038391]]}},{"type":"Feature","properties":{"axis":"E","value":2497250,"spacing":250,"datum":"vicgrid66","anchor":false},"geometry":{"type":"LineString","coordinates":[[144.9607704,-55.5076751],[144.9607766,-55.4990251],[144.9607828,-55.4903746],[144.960789,-55.4817236],[144.9607952,-55.4730721],[144.9608014,-55.46442],[144.9608075,-55.4557674],[144.9608137,-55.4471143],[144.9608199,-55.4384607],[144.9608261,-55.4298066],[144.9608322,-55.4211519],[144.9608384,-55.4124967],[144.9608446,-55.403841]]}},{"type":"Feature","properties":{"axis":"E","value":2497500,"spacing":250,"datum":"vicgrid66","anchor":false},"geometry":{"type":"LineString","coordinates":[[144.964503,-55.5076759],[144.9645086,-55.4990259],[144.9645142,-55.4903755],[144.9645198,-55.4817244],[144.9645253,-55.4730729],[144.9645309,-55.4644208],[144.9645365,-55.4557683],[144.9645421,-55.4471152],[144.9645477,-55.4384615],[144.9645532,-55.4298074],[144.9645588,-55.4211527],[144.9645644,-55.4124975],[144.96457,-55.4038418]]}},{"type":"Feature","properties":{"axis":"E","value":2497750,"spacing":250,"datum":"vicgrid66","anchor":false},"geometry":{"type":"LineString","coordinates":[[144.9682355,-55.5076767],[144.9682405,-55.4990267],[144.9682455,-55.4903762],[144.9682505,-55.4817252],[144.9682555,-55.4730736],[144.9682605,-55.4644216],[144.9682655,-55.455769],[144.9682705,-55.4471159],[144.9682754,-55.4384623],[144.9682804,-55.4298081],[144.9682854,-55.4211534],[144.9682904,-55.4124983],[144.9682954,-55.4038425]]}},{"type":"Feature","properties":{"axis":"E","value":2498250,"spacing":250,"datum":"vicgrid66","anchor":false},"geometry":{"type":"LineString","coordinates":[[144.9757006,-55.5076779],[144.9757044,-55.4990279],[144.9757082,-55.4903774],[144.975712,-55.4817264],[144.9757158,-55.4730749],[144.9757196,-55.4644228],[144.9757234,-55.4557702],[144.9757272,-55.4471171],[144.975731,-55.4384635],[144.9757348,-55.4298093],[144.9757386,-55.4211547],[144.9757423,-55.4124995],[144.9757461,-55.4038438]]}},{"type":"Feature","properties":{"axis":"E","value":2498500,"spacing":250,"datum":"vicgrid66","anchor":false},"geometry":{"type":"LineString","coordinates":[[144.9794332,-55.5076784],[144.9794364,-55.4990284],[144.9794396,-55.4903779],[144.9794428,-55.4817269],[144.979446,-55.4730754],[144.9794492,-55.4644233],[144.9794524,-55.4557707],[144.9794556,-55.4471176],[144.9794588,-55.438464],[144.979462,-55.4298098],[144.9794651,-55.4211552],[144.9794683,-55.4125],[144.9794715,-55.4038443]]}},{"type":"Feature","properties":{"axis":"E","value":2498750,"spacing":250,"datum":"vicgrid66","anchor":false},"geometry":{"type":"LineString","coordinates":[[144.9831657,-55.5076788],[144.9831683,-55.4990288],[144.9831709,-55.4903783],[144.9831735,-55.4817273],[144.9831761,-55.4730758],[144.9831787,-55.4644237],[144.9831813,-55.4557711],[144.9831839,-55.447118],[144.9831865,-55.4384644],[144.9831891,-55.4298102],[144.9831917,-55.4211556],[144.9831943,-55.4125004],[144.9831969,-55.4038447]]}},{"type":"Feature","properties":{"axis":"E","value":2499250,"spacing":250,"datum":"vicgrid66","anchor":false},"geometry":{"type":"LineString","coordinates":[[144.9906308,-55.5076793],[144.9906322,-55.4990294],[144.9906336,-55.4903789],[144.9906351,-55.4817278],[144.9906365,-55.4730763],[144.9906379,-55.4644243],[144.9906393,-55.4557717],[144.9906407,-55.4471186],[144.9906421,-55.4384649],[144.9906435,-55.4298108],[144.9906449,-55.4211561],[144.9906463,-55.4125009],[144.9906477,-55.4038452]]}},{"type":"Feature","properties":{"axis":"E","value":2499500,"spacing":250,"datum":"vicgrid66","anchor":false},"geometry":{"type":"LineString","coordinates":[[144.9943634,-55.5076795],[144.9943642,-55.4990295],[144.994365,-55.490379],[144.9943658,-55.481728],[144.9943666,-55.4730765],[144.9943674,-55.4644244],[144.9943682,-55.4557718],[144.994369,-55.4471187],[144.9943699,-55.4384651],[144.9943707,-55.4298109],[144.9943715,-55.4211563],[144.9943723,-55.4125011],[144.9943731,-55.4038454]]}},{"type":"Feature","properties":{"axis":"E","value":2499750,"spacing":250,"datum":"vicgrid66","anchor":false},"geometry":{"type":"LineString","coordinates":[[144.9980959,-55.5076795],[144.9980961,-55.4990296],[144.9980964,-55.4903791],[144.9980966,-55.4817281],[144.9980968,-55.4730765],[144.998097,-55.4644245],[144.9980972,-55.4557719],[144.9980974,-55.4471188],[144.9980976,-55.4384652],[144.9980978,-55.429811],[144.9980981,-55.4211563],[144.9980983,-55.4125011],[144.9980985,-55.4038454]]}},{"type":"Feature","properties":{"axis":"E","value":2500250,"spacing":250,"datum":"vicgrid66","anchor":false},"geometry":{"type":"LineString","coordinates":[[145.005561,-55.5076794],[145.00556,-55.4990295],[145.0055591,-55.490379],[145.0055581,-55.481728],[145.0055571,-55.4730764],[145.0055561,-55.4644244],[145.0055551,-55.4557718],[145.0055542,-55.4471187],[145.0055532,-55.4384651],[145.0055522,-55.4298109],[145.0055512,-55.4211562],[145.0055502,-55.412501],[145.0055493,-55.4038453]]}},{"type":"Feature","properties":{"axis":"E","value":2500500,"spacing":250,"datum":"vicgrid66","anchor":false},"geometry":{"type":"LineString","coordinates":[[145.0092936,-55.5076793],[145.009292,-55.4990293],[145.0092904,-55.4903788],[145.0092888,-55.4817278],[145.0092873,-55.4730763],[145.0092857,-55.4644242],[145.0092841,-55.4557716],[145.0092825,-55.4471185],[145.009281,-55.4384649],[145.0092794,-55.4298107],[145.0092778,-55.4211561],[145.0092762,-55.4125009],[145.0092747,-55.4038452]]}},{"type":"Feature","properties":{"axis":"E","value":2500750,"spacing":250,"datum":"vicgrid66","anchor":false},"geometry":{"type":"LineString","coordinates":[[145.0130261,-55.507679],[145.0130239,-55.499029],[145.0130218,-55.4903785],[145.0130196,-55.4817275],[145.0130174,-55.473076],[145.0130152,-55.4644239],[145.0130131,-55.4557714],[145.0130109,-55.4471182],[145.0130087,-55.4384646],[145.0130066,-55.4298105],[145.0130044,-55.4211558],[145.0130022,-55.4125006],[145.0130001,-55.4038449]]}},{"type":"Feature","properties":{"axis":"E","value":2501250,"spacing":250,"datum":"vicgrid66","anchor":false},"geometry":{"type":"LineString","coordinates":[[145.0204912,-55.5076782],[145.0204878,-55.4990283],[145.0204845,-55.4903778],[145.0204811,-55.4817268],[145.0204777,-55.4730752],[145.0204744,-55.4644232],[145.020471,-55.4557706],[145.0204676,-55.4471175],[145.0204643,-55.4384638],[145.0204609,-55.4298097],[145.0204576,-55.421155],[145.0204542,-55.4124998],[145.0204508,-55.4038441]]}},{"type":"Feature","properties":{"axis":"E","value":2501500,"spacing":250,"datum":"vicgrid66","anchor":false},"geometry":{"type":"LineString","coordinates":[[145.0242238,-55.5076777],[145.0242198,-55.4990278],[145.0242158,-55.4903773],[145.0242119,-55.4817262],[145.0242079,-55.4730747],[145.0242039,-55.4644227],[145.0242,-55.4557701],[145.024196,-55.447117],[145.0241921,-55.4384633],[145.0241881,-55.4298092],[145.0241841,-55.4211545],[145.0241802,-55.4124993],[145.0241762,-55.4038436]]}},{"type":"Feature","properties":{"axis":"E","value":2501750,"spacing":250,"datum":"vicgrid66","anchor":false},"geometry":{"type":"LineString","coordinates":[[145.0279563,-55.5076771],[145.0279517,-55.4990272],[145.0279472,-55.4903767],[145.0279426,-55.4817257],[145.0279381,-55.4730741],[145.0279335,-55.4644221],[145.0279289,-55.4557695],[145.0279244,-55.4471164],[145.0279198,-55.4384627],[145.0279153,-55.4298086],[145.0279107,-55.4211539],[145.0279062,-55.4124987],[145.0279016,-55.403843]]}},{"type":"Feature","properties":{"axis":"E","value":2502250,"spacing":250,"datum":"vicgrid66","anchor":false},"geometry":{"type":"LineString","coordinates":[[145.0354214,-55.5076757],[145.0354156,-55.4990257],[145.0354099,-55.4903752],[145.0354041,-55.4817242],[145.0353984,-55.4730727],[145.0353926,-55.4644206],[145.0353869,-55.455768],[145.0353811,-55.4471149],[145.0353754,-55.4384613],[145.0353696,-55.4298072],[145.0353639,-55.4211525],[145.0353581,-55.4124973],[145.0353524,-55.4038416]]}},{"type":"Feature","properties":{"axis":"E","value":2502500,"spacing":250,"datum":"vicgrid66","anchor":false},"geometry":{"type":"LineString","coordinates":[[145.039154,-55.5076748],[145.0391476,-55.4990249],[145.0391412,-55.4903744],[145.0391349,-55.4817234],[145.0391285,-55.4730718],[145.0391222,-55.4644198],[145.0391158,-55.4557672],[145.0391095,-55.4471141],[145.0391031,-55.4384605],[145.0390968,-55.4298063],[145.0390905,-55.4211516],[145.0390841,-55.4124965],[145.0390778,-55.4038407]]}},{"type":"Feature","properties":{"axis":"E","value":2502750,"spacing":250,"datum":"vicgrid66","anchor":false},"geometry":{"type":"LineString","coordinates":[[145.0428865,-55.5076739],[145.0428796,-55.499024],[145.0428726,-55.4903735],[145.0428656,-55.4817225],[145.0428587,-55.4730709],[145.0428517,-55.4644189],[145.0428448,-55.4557663],[145.0428379,-55.4471132],[145.0428309,-55.4384595],[145.042824,-55.4298054],[145.042817,-55.4211507],[145.0428101,-55.4124955],[145.0428032,-55.4038398]]}},{"type":"Feature","properties":{"axis":"N","value":2403500,"spacing":250,"datum":"vicgrid66","anchor":false},"geometry":{"type":"LineString","coordinates":[[144.8637243,-55.5076247],[144.8789655,-55.5076363],[144.8942067,-55.5076465],[144.9094479,-55.5076554],[144.9246891,-55.5076629],[144.9399304,-55.507669],[144.9551716,-55.5076737],[144.9704129,-55.507677],[144.9856541,-55.507679],[145.0008953,-55.5076795],[145.0161366,-55.5076787],[145.0313778,-55.5076765],[145.0466191,-55.5076729]]}},{"type":"Feature","properties":{"axis":"N","value":2403750,"spacing":250,"datum":"vicgrid66","anchor":false},"geometry":{"type":"LineString","coordinates":[[144.8637296,-55.5055064],[144.8789702,-55.505518],[144.8942108,-55.5055282],[144.9094514,-55.5055371],[144.9246921,-55.5055446],[144.9399327,-55.5055507],[144.9551734,-55.5055554],[144.970414,-55.5055587],[144.9856546,-55.5055607],[145.0008953,-55.5055612],[145.0161359,-55.5055604],[145.0313766,-55.5055582],[145.0466172,-55.5055546]]}},{"type":"Feature","properties":{"axis":"N","value":2404250,"spacing":250,"datum":"vicgrid66","anchor":false},"geometry":{"type":"LineString","coordinates":[[144.8637402,-55.5012696],[144.8789796,-55.5012813],[144.8942191,-55.5012915],[144.9094585,-55.5013004],[144.9246979,-55.5013079],[144.9399374,-55.501314],[144.9551768,-55.5013187],[144.9704163,-55.501322],[144.9856557,-55.501324],[145.0008952,-55.5013245],[145.0161346,-55.5013237],[145.0313741,-55.5013215],[145.0466135,-55.5013179]]}},{"type":"Feature","properties":{"axis":"N","value":2404500,"spacing":250,"datum":"vicgrid66","anchor":false},"geometry":{"type":"LineString","coordinates":[[144.8637455,-55.4991512],[144.8789844,-55.4991629],[144.8942232,-55.4991731],[144.909462,-55.499182],[144.9247009,-55.4991895],[144.9399397,-55.4991956],[144.9551786,-55.4992003],[144.9704174,-55.4992036],[144.9856563,-55.4992056],[145.0008951,-55.4992061],[145.016134,-55.4992053],[145.0313728,-55.4992031],[145.0466117,-55.4991995]]}},{"type":"Feature","properties":{"axis":"N","value":2404750,"spacing":250,"datum":"vicgrid66","anchor":false},"geometry":{"type":"LineString","coordinates":[[144.8637509,-55.4970328],[144.8789891,-55.4970444],[144.8942273,-55.4970547],[144.9094656,-55.4970636],[144.9247038,-55.497071],[144.939942,-55.4970771],[144.9551803,-55.4970818],[144.9704185,-55.4970852],[144.9856568,-55.4970871],[145.000895,-55.4970877],[145.0161333,-55.4970869],[145.0313716,-55.4970846],[145.0466098,-55.497081]]}},{"type":"Feature","properties":{"axis":"N","value":2405250,"spacing":250,"datum":"vicgrid66","anchor":false},"geometry":{"type":"LineString","coordinates":[[144.8637615,-55.4927958],[144.8789985,-55.4928075],[144.8942356,-55.4928177],[144.9094726,-55.4928266],[144.9247097,-55.4928341],[144.9399467,-55.4928402],[144.9551838,-55.4928449],[144.9704208,-55.4928482],[144.9856579,-55.4928502],[145.0008949,-55.4928507],[145.016132,-55.4928499],[145.0313691,-55.4928477],[145.0466061,-55.4928441]]}},{"type":"Feature","properties":{"axis":"N","value":2405500,"spacing":250,"datum":"vicgrid66","anchor":false},"geometry":{"type":"LineString","coordinates":[[144.8637668,-55.4906773],[144.8790032,-55.4906889],[144.8942397,-55.4906992],[144.9094761,-55.4907081],[144.9247126,-55.4907155],[144.939949,-55.4907216],[144.9551855,-55.4907263],[144.970422,-55.4907297],[144.9856584,-55.4907316],[145.0008949,-55.4907322],[145.0161313,-55.4907314],[145.0313678,-55.4907291],[145.0466043,-55.4907255]]}},{"type":"Feature","properties":{"axis":"N","value":2405750,"spacing":250,"datum":"vicgrid66","anchor":false},"geometry":{"type":"LineString","coordinates":[[144.8637721,-55.4885587],[144.879008,-55.4885704],[144.8942438,-55.4885806],[144.9094797,-55.4885895],[144.9247155,-55.488597],[144.9399514,-55.4886031],[144.9551872,-55.4886078],[144.9704231,-55.4886111],[144.985659,-55.4886131],[145.0008948,-55.4886136],[145.0161307,-55.4886128],[145.0313665,-55.4886106],[145.0466024,-55.488607]]}},{"type":"Feature","properties":{"axis":"N","value":2406250,"spacing":250,"datum":"vicgrid66","anchor":false},"geometry":{"type":"LineString","coordinates":[[144.8637828,-55.4843215],[144.8790174,-55.4843332],[144.8942521,-55.4843434],[144.9094867,-55.4843523],[144.9247214,-55.4843598],[144.939956,-55.4843659],[144.9551907,-55.4843706],[144.9704254,-55.4843739],[144.98566,-55.4843758],[145.0008947,-55.4843764],[145.0161294,-55.4843756],[145.031364,-55.4843734],[145.0465987,-55.4843698]]}},{"type":"Feature","properties":{"axis":"N","value":2406500,"spacing":250,"datum":"vicgrid66","anchor":false},"geometry":{"type":"LineString","coordinates":[[144.8637881,-55.4822029],[144.8790221,-55.4822145],[144.8942562,-55.4822248],[144.9094902,-55.4822336],[144.9247243,-55.4822411],[144.9399584,-55.4822472],[144.9551924,-55.4822519],[144.9704265,-55.4822552],[144.9856606,-55.4822572],[145.0008946,-55.4822577],[145.0161287,-55.4822569],[145.0313628,-55.4822547],[145.0465969,-55.4822511]]}},{"type":"Feature","properties":{"axis":"N","value":2406750,"spacing":250,"datum":"vicgrid66","anchor":false},"geometry":{"type":"LineString","coordinates":[[144.8637934,-55.4800842],[144.8790268,-55.4800958],[144.8942603,-55.4801061],[144.9094938,-55.4801149],[144.9247272,-55.4801224],[144.9399607,-55.4801285],[144.9551942,-55.4801332],[144.9704276,-55.4801366],[144.9856611,-55.4801385],[145.0008946,-55.4801391],[145.0161281,-55.4801382],[145.0313615,-55.480136],[145.046595,-55.4801324]]}},{"type":"Feature","properties":{"axis":"N","value":2407250,"spacing":250,"datum":"vicgrid66","anchor":false},"geometry":{"type":"LineString","coordinates":[[144.863804,-55.4758467],[144.8790363,-55.4758584],[144.8942685,-55.4758686],[144.9095008,-55.4758775],[144.9247331,-55.4758849],[144.9399654,-55.475891],[144.9551976,-55.4758958],[144.9704299,-55.4758991],[144.9856622,-55.475901],[145.0008945,-55.4759016],[145.0161268,-55.4759008],[145.031359,-55.4758986],[145.0465913,-55.475895]]}},{"type":"Feature","properties":{"axis":"N","value":2407500,"spacing":250,"datum":"vicgrid66","anchor":false},"geometry":{"type":"LineString","coordinates":[[144.8638093,-55.4737279],[144.879041,-55.4737396],[144.8942727,-55.4737498],[144.9095043,-55.4737587],[144.924736,-55.4737662],[144.9399677,-55.4737723],[144.9551994,-55.473777],[144.970431,-55.4737803],[144.9856627,-55.4737822],[145.0008944,-55.4737828],[145.0161261,-55.473782],[145.0313578,-55.4737798],[145.0465895,-55.4737762]]}},{"type":"Feature","properties":{"axis":"N","value":2407750,"spacing":250,"datum":"vicgrid66","anchor":false},"geometry":{"type":"LineString","coordinates":[[144.8638146,-55.4716091],[144.8790457,-55.4716208],[144.8942768,-55.471631],[144.9095079,-55.4716399],[144.9247389,-55.4716474],[144.93997,-55.4716534],[144.9552011,-55.4716582],[144.9704322,-55.4716615],[144.9856633,-55.4716634],[145.0008944,-55.471664],[145.0161254,-55.4716632],[145.0313565,-55.471661],[145.0465876,-55.4716574]]}},{"type":"Feature","properties":{"axis":"N","value":2408250,"spacing":250,"datum":"vicgrid66","anchor":false},"geometry":{"type":"LineString","coordinates":[[144.8638253,-55.4673714],[144.8790551,-55.467383],[144.894285,-55.4673933],[144.9095149,-55.4674022],[144.9247448,-55.4674096],[144.9399747,-55.4674157],[144.9552046,-55.4674204],[144.9704345,-55.4674238],[144.9856643,-55.4674257],[145.0008942,-55.4674263],[145.0161241,-55.4674254],[145.031354,-55.4674232],[145.0465839,-55.4674196]]}},{"type":"Feature","properties":{"axis":"N","value":2408500,"spacing":250,"datum":"vicgrid66","anchor":false},"geometry":{"type":"LineString","coordinates":[[144.8638306,-55.4652525],[144.8790599,-55.4652641],[144.8942891,-55.4652744],[144.9095184,-55.4652832],[144.9247477,-55.4652907],[144.939977,-55.4652968],[144.9552063,-55.4653015],[144.9704356,-55.4653049],[144.9856649,-55.4653068],[145.0008942,-55.4653074],[145.0161235,-55.4653065],[145.0313528,-55.4653043],[145.0465821,-55.4653007]]}},{"type":"Feature","properties":{"axis":"N","value":2408750,"spacing":250,"datum":"vicgrid66","anchor":false},"geometry":{"type":"LineString","coordinates":[[144.8638359,-55.4631336],[144.8790646,-55.4631452],[144.8942933,-55.4631554],[144.9095219,-55.4631643],[144.9247506,-55.4631718],[144.9399793,-55.4631779],[144.955208,-55.4631826],[144.9704367,-55.4631859],[144.9856654,-55.4631879],[145.0008941,-55.4631884],[145.0161228,-55.4631876],[145.0313515,-55.4631854],[145.0465802,-55.4631818]]}},{"type":"Feature","properties":{"axis":"N","value":2409250,"spacing":250,"datum":"vicgrid66","anchor":false},"geometry":{"type":"LineString","coordinates":[[144.8638465,-55.4588956],[144.879074,-55.4589072],[144.8943015,-55.4589175],[144.909529,-55.4589263],[144.9247565,-55.4589338],[144.939984,-55.4589399],[144.9552115,-55.4589446],[144.970439,-55.458948],[144.9856665,-55.4589499],[145.000894,-55.4589505],[145.0161215,-55.4589496],[145.031349,-55.4589474],[145.0465765,-55.4589438]]}},{"type":"Feature","properties":{"axis":"N","value":2409500,"spacing":250,"datum":"vicgrid66","anchor":false},"geometry":{"type":"LineString","coordinates":[[144.8638518,-55.4567766],[144.8790787,-55.4567882],[144.8943056,-55.4567984],[144.9095325,-55.4568073],[144.9247594,-55.4568148],[144.9399863,-55.4568209],[144.9552132,-55.4568256],[144.9704401,-55.4568289],[144.985667,-55.4568309],[145.000894,-55.4568314],[145.0161209,-55.4568306],[145.0313478,-55.4568284],[145.0465747,-55.4568248]]}},{"type":"Feature","properties":{"axis":"N","value":2409750,"spacing":250,"datum":"vicgrid66","anchor":false},"geometry":{"type":"LineString","coordinates":[[144.8638571,-55.4546575],[144.8790834,-55.4546691],[144.8943097,-55.4546794],[144.909536,-55.4546882],[144.9247623,-55.4546957],[144.9399886,-55.4547018],[144.955215,-55.4547065],[144.9704413,-55.4547099],[144.9856676,-55.4547118],[145.0008939,-55.4547124],[145.0161202,-55.4547115],[145.0313465,-55.4547093],[145.0465728,-55.4547057]]}},{"type":"Feature","properties":{"axis":"N","value":2410250,"spacing":250,"datum":"vicgrid66","anchor":false},"geometry":{"type":"LineString","coordinates":[[144.8638678,-55.4504193],[144.8790929,-55.4504309],[144.894318,-55.4504412],[144.9095431,-55.45045],[144.9247682,-55.4504575],[144.9399933,-55.4504636],[144.9552184,-55.4504683],[144.9704435,-55.4504716],[144.9856687,-55.4504736],[145.0008938,-55.4504741],[145.0161189,-55.4504733],[145.031344,-55.4504711],[145.0465692,-55.4504675]]}},{"type":"Feature","properties":{"axis":"N","value":2410500,"spacing":250,"datum":"vicgrid66","anchor":false},"geometry":{"type":"LineString","coordinates":[[144.8638731,-55.4483001],[144.8790976,-55.4483118],[144.8943221,-55.448322],[144.9095466,-55.4483309],[144.9247711,-55.4483383],[144.9399956,-55.4483444],[144.9552202,-55.4483492],[144.9704447,-55.4483525],[144.9856692,-55.4483544],[145.0008937,-55.448355],[145.0161183,-55.4483542],[145.0313428,-55.4483519],[145.0465673,-55.4483484]]}},{"type":"Feature","properties":{"axis":"N","value":2410750,"spacing":250,"datum":"vicgrid66","anchor":false},"geometry":{"type":"LineString","coordinates":[[144.8638784,-55.4461809],[144.8791023,-55.4461926],[144.8943262,-55.4462028],[144.9095501,-55.4462117],[144.924774,-55.4462192],[144.939998,-55.4462253],[144.9552219,-55.44623],[144.9704458,-55.4462333],[144.9856697,-55.4462352],[145.0008937,-55.4462358],[145.0161176,-55.446235],[145.0313415,-55.4462328],[145.0465655,-55.4462292]]}},{"type":"Feature","properties":{"axis":"N","value":2411250,"spacing":250,"datum":"vicgrid66","anchor":false},"geometry":{"type":"LineString","coordinates":[[144.863889,-55.4419425],[144.8791117,-55.4419541],[144.8943344,-55.4419643],[144.9095571,-55.4419732],[144.9247799,-55.4419807],[144.9400026,-55.4419868],[144.9552253,-55.4419915],[144.9704481,-55.4419948],[144.9856708,-55.4419968],[145.0008936,-55.4419973],[145.0161163,-55.4419965],[145.031339,-55.4419943],[145.0465618,-55.4419907]]}},{"type":"Feature","properties":{"axis":"N","value":2411500,"spacing":250,"datum":"vicgrid66","anchor":false},"geometry":{"type":"LineString","coordinates":[[144.8638943,-55.4398232],[144.8791164,-55.4398348],[144.8943385,-55.4398451],[144.9095607,-55.4398539],[144.9247828,-55.4398614],[144.9400049,-55.4398675],[144.9552271,-55.4398722],[144.9704492,-55.4398755],[144.9856714,-55.4398775],[145.0008935,-55.439878],[145.0161156,-55.4398772],[145.0313378,-55.439875],[145.0465599,-55.4398714]]}},{"type":"Feature","properties":{"axis":"N","value":2411750,"spacing":250,"datum":"vicgrid66","anchor":false},"geometry":{"type":"LineString","coordinates":[[144.8638996,-55.4377039],[144.8791211,-55.4377155],[144.8943427,-55.4377258],[144.9095642,-55.4377346],[144.9247857,-55.4377421],[144.9400073,-55.4377482],[144.9552288,-55.4377529],[144.9704504,-55.4377562],[144.9856719,-55.4377582],[145.0008934,-55.4377587],[145.016115,-55.4377579],[145.0313365,-55.4377557],[145.0465581,-55.4377521]]}},{"type":"Feature","properties":{"axis":"N","value":2412250,"spacing":250,"datum":"vicgrid66","anchor":false},"geometry":{"type":"LineString","coordinates":[[144.8639102,-55.4334652],[144.8791306,-55.4334768],[144.8943509,-55.433487],[144.9095712,-55.4334959],[144.9247916,-55.4335034],[144.9400119,-55.4335095],[144.9552323,-55.4335142],[144.9704526,-55.4335175],[144.985673,-55.4335194],[145.0008933,-55.43352],[145.0161137,-55.4335192],[145.031334,-55.433517],[145.0465544,-55.4335134]]}},{"type":"Feature","properties":{"axis":"N","value":2412500,"spacing":250,"datum":"vicgrid66","anchor":false},"geometry":{"type":"LineString","coordinates":[[144.8639155,-55.4313457],[144.8791353,-55.4313574],[144.894355,-55.4313676],[144.9095747,-55.4313765],[144.9247945,-55.431384],[144.9400142,-55.4313901],[144.955234,-55.4313948],[144.9704538,-55.4313981],[144.9856735,-55.4314],[145.0008933,-55.4314006],[145.016113,-55.4313998],[145.0313328,-55.4313976],[145.0465525,-55.431394]]}},{"type":"Feature","properties":{"axis":"N","value":2412750,"spacing":250,"datum":"vicgrid66","anchor":false},"geometry":{"type":"LineString","coordinates":[[144.8639208,-55.4292263],[144.87914,-55.4292379],[144.8943591,-55.4292482],[144.9095783,-55.429257],[144.9247974,-55.4292645],[144.9400166,-55.4292706],[144.9552357,-55.4292753],[144.9704549,-55.4292786],[144.9856741,-55.4292806],[145.0008932,-55.4292811],[145.0161124,-55.4292803],[145.0313315,-55.4292781],[145.0465507,-55.4292745]]}},{"type":"Feature","properties":{"axis":"N","value":2413250,"spacing":250,"datum":"vicgrid66","anchor":false},"geometry":{"type":"LineString","coordinates":[[144.8639314,-55.4249873],[144.8791494,-55.424999],[144.8943673,-55.4250092],[144.9095853,-55.4250181],[144.9248033,-55.4250255],[144.9400212,-55.4250316],[144.9552392,-55.4250363],[144.9704572,-55.4250397],[144.9856751,-55.4250416],[145.0008931,-55.4250422],[145.0161111,-55.4250414],[145.031329,-55.4250391],[145.046547,-55.4250356]]}},{"type":"Feature","properties":{"axis":"N","value":2413500,"spacing":250,"datum":"vicgrid66","anchor":false},"geometry":{"type":"LineString","coordinates":[[144.8639367,-55.4228678],[144.8791541,-55.4228794],[144.8943715,-55.4228897],[144.9095888,-55.4228985],[144.9248062,-55.422906],[144.9400235,-55.4229121],[144.9552409,-55.4229168],[144.9704583,-55.4229201],[144.9856757,-55.4229221],[145.000893,-55.4229226],[145.0161104,-55.4229218],[145.0313278,-55.4229196],[145.0465452,-55.422916]]}},{"type":"Feature","properties":{"axis":"N","value":2413750,"spacing":250,"datum":"vicgrid66","anchor":false},"geometry":{"type":"LineString","coordinates":[[144.8639421,-55.4207482],[144.8791588,-55.4207599],[144.8943756,-55.4207701],[144.9095923,-55.420779],[144.9248091,-55.4207864],[144.9400259,-55.4207925],[144.9552426,-55.4207973],[144.9704594,-55.4208006],[144.9856762,-55.4208025],[145.000893,-55.4208031],[145.0161098,-55.4208023],[145.0313265,-55.4208],[145.0465433,-55.4207965]]}},{"type":"Feature","properties":{"axis":"N","value":2414250,"spacing":250,"datum":"vicgrid66","anchor":false},"geometry":{"type":"LineString","coordinates":[[144.8639527,-55.416509],[144.8791682,-55.4165207],[144.8943838,-55.4165309],[144.9095994,-55.4165398],[144.9248149,-55.4165472],[144.9400305,-55.4165533],[144.9552461,-55.416558],[144.9704617,-55.4165614],[144.9856773,-55.4165633],[145.0008929,-55.4165639],[145.0161085,-55.416563],[145.031324,-55.4165608],[145.0465396,-55.4165572]]}},{"type":"Feature","properties":{"axis":"N","value":2414500,"spacing":250,"datum":"vicgrid66","anchor":false},"geometry":{"type":"LineString","coordinates":[[144.863958,-55.4143894],[144.8791729,-55.414401],[144.8943879,-55.4144112],[144.9096029,-55.4144201],[144.9248179,-55.4144276],[144.9400328,-55.4144337],[144.9552478,-55.4144384],[144.9704628,-55.4144417],[144.9856778,-55.4144436],[145.0008928,-55.4144442],[145.0161078,-55.4144434],[145.0313228,-55.4144412],[145.0465378,-55.4144376]]}},{"type":"Feature","properties":{"axis":"N","value":2414750,"spacing":250,"datum":"vicgrid66","anchor":false},"geometry":{"type":"LineString","coordinates":[[144.8639633,-55.4122697],[144.8791776,-55.4122813],[144.894392,-55.4122915],[144.9096064,-55.4123004],[144.9248208,-55.4123079],[144.9400352,-55.412314],[144.9552496,-55.4123187],[144.970464,-55.412322],[144.9856784,-55.4123239],[145.0008928,-55.4123245],[145.0161072,-55.4123237],[145.0313216,-55.4123215],[145.0465359,-55.4123179]]}},{"type":"Feature","properties":{"axis":"N","value":2415250,"spacing":250,"datum":"vicgrid66","anchor":false},"geometry":{"type":"LineString","coordinates":[[144.8639739,-55.4080302],[144.879187,-55.4080418],[144.8944002,-55.4080521],[144.9096134,-55.4080609],[144.9248266,-55.4080684],[144.9400398,-55.4080745],[144.955253,-55.4080792],[144.9704662,-55.4080825],[144.9856794,-55.4080845],[145.0008926,-55.408085],[145.0161059,-55.4080842],[145.0313191,-55.408082],[145.0465323,-55.4080784]]}},{"type":"Feature","properties":{"axis":"N","value":2415500,"spacing":250,"datum":"vicgrid66","anchor":false},"geometry":{"type":"LineString","coordinates":[[144.8639792,-55.4059104],[144.8791918,-55.4059221],[144.8944043,-55.4059323],[144.9096169,-55.4059411],[144.9248295,-55.4059486],[144.9400421,-55.4059547],[144.9552548,-55.4059594],[144.9704674,-55.4059627],[144.98568,-55.4059647],[145.0008926,-55.4059652],[145.0161052,-55.4059644],[145.0313178,-55.4059622],[145.0465304,-55.4059586]]}},{"type":"Feature","properties":{"axis":"N","value":2415750,"spacing":250,"datum":"vicgrid66","anchor":false},"geometry":{"type":"LineString","coordinates":[[144.8639845,-55.4037906],[144.8791965,-55.4038022],[144.8944085,-55.4038125],[144.9096205,-55.4038213],[144.9248325,-55.4038288],[144.9400445,-55.4038349],[144.9552565,-55.4038396],[144.9704685,-55.4038429],[144.9856805,-55.4038449],[145.0008925,-55.4038454],[145.0161045,-55.4038446],[145.0313166,-55.4038424],[145.0465286,-55.4038388]]}}]}