{"type":"FeatureCollection","features":[{"type":"Feature","properties":{"axis":"E","value":2490000,"spacing":1000,"datum":"vicgrid94","anchor":false},"geometry":{"type":"LineString","coordinates":[[144.8863429,-37.8740172],[144.8863564,-37.8650074],[144.88637,-37.8559976],[144.8863836,-37.8469877],[144.8863971,-37.8379777],[144.8864107,-37.8289678],[144.8864242,-37.8199578],[144.8864378,-37.8109477],[144.8864513,-37.8019377],[144.8864649,-37.7929276],[144.8864784,-37.7839174],[144.8864919,-37.7749073],[144.8865055,-37.7658971],[144.886519,-37.7568869]]}},{"type":"Feature","properties":{"axis":"E","value":2491000,"spacing":1000,"datum":"vicgrid94","anchor":false},"geometry":{"type":"LineString","coordinates":[[144.8977092,-37.8740275],[144.8977214,-37.8650176],[144.8977336,-37.8560078],[144.8977458,-37.8469979],[144.897758,-37.837988],[144.8977702,-37.828978],[144.8977824,-37.819968],[144.8977946,-37.810958],[144.8978068,-37.8019479],[144.897819,-37.7929378],[144.8978312,-37.7839277],[144.8978433,-37.7749175],[144.8978555,-37.7659073],[144.8978677,-37.7568971]]}},{"type":"Feature","properties":{"axis":"E","value":2492000,"spacing":1000,"datum":"vicgrid94","anchor":false},"geometry":{"type":"LineString","coordinates":[[144.9090755,-37.8740366],[144.9090863,-37.8650268],[144.9090972,-37.8560169],[144.909108,-37.847007],[144.9091189,-37.8379971],[144.9091297,-37.8289871],[144.9091405,-37.8199771],[144.9091514,-37.8109671],[144.9091622,-37.801957],[144.9091731,-37.7929469],[144.9091839,-37.7839368],[144.9091947,-37.7749266],[144.9092056,-37.7659164],[144.9092164,-37.7569062]]}},{"type":"Feature","properties":{"axis":"E","value":2493000,"spacing":1000,"datum":"vicgrid94","anchor":false},"geometry":{"type":"LineString","coordinates":[[144.9204418,-37.8740447],[144.9204513,-37.8650348],[144.9204608,-37.856025],[144.9204702,-37.8470151],[144.9204797,-37.8380052],[144.9204892,-37.8289952],[144.9204987,-37.8199852],[144.9205082,-37.8109752],[144.9205177,-37.8019651],[144.9205272,-37.792955],[144.9205366,-37.7839448],[144.9205461,-37.7749347],[144.9205556,-37.7659245],[144.9205651,-37.7569142]]}},{"type":"Feature","properties":{"axis":"E","value":2494000,"spacing":1000,"datum":"vicgrid94","anchor":false},"geometry":{"type":"LineString","coordinates":[[144.9318081,-37.8740517],[144.9318162,-37.8650418],[144.9318243,-37.856032],[144.9318325,-37.8470221],[144.9318406,-37.8380121],[144.9318488,-37.8290022],[144.9318569,-37.8199922],[144.931865,-37.8109821],[144.9318731,-37.8019721],[144.9318813,-37.792962],[144.9318894,-37.7839518],[144.9318975,-37.7749417],[144.9319056,-37.7659315],[144.9319138,-37.7569212]]}},{"type":"Feature","properties":{"axis":"E","value":2495000,"spacing":1000,"datum":"vicgrid94","anchor":false},"geometry":{"type":"LineString","coordinates":[[144.9431744,-37.8740576],[144.9431812,-37.8650478],[144.9431879,-37.8560379],[144.9431947,-37.847028],[144.9432015,-37.8380181],[144.9432083,-37.8290081],[144.9432151,-37.8199981],[144.9432218,-37.8109881],[144.9432286,-37.801978],[144.9432354,-37.7929679],[144.9432422,-37.7839577],[144.9432489,-37.7749476],[144.9432557,-37.7659374],[144.9432625,-37.7569271]]}},{"type":"Feature","properties":{"axis":"E","value":2496000,"spacing":1000,"datum":"vicgrid94","anchor":false},"geometry":{"type":"LineString","coordinates":[[144.9545407,-37.8740624],[144.9545461,-37.8650526],[144.9545515,-37.8560427],[144.954557,-37.8470328],[144.9545624,-37.8380229],[144.9545678,-37.8290129],[144.9545732,-37.8200029],[144.9545787,-37.8109929],[144.9545841,-37.8019828],[144.9545895,-37.7929727],[144.9545949,-37.7839626],[144.9546003,-37.7749524],[144.9546057,-37.7659422],[144.9546111,-37.756932]]}},{"type":"Feature","properties":{"axis":"E","value":2497000,"spacing":1000,"datum":"vicgrid94","anchor":true},"geometry":{"type":"LineString","coordinates":[[144.965907,-37.8740662],[144.9659111,-37.8650564],[144.9659151,-37.8560465],[144.9659192,-37.8470366],[144.9659233,-37.8380267],[144.9659273,-37.8290167],[144.9659314,-37.8200067],[144.9659355,-37.8109967],[144.9659395,-37.8019866],[144.9659436,-37.7929765],[144.9659477,-37.7839663],[144.9659517,-37.7749562],[144.9659558,-37.765946],[144.9659598,-37.7569357]]}},{"type":"Feature","properties":{"axis":"E","value":2498000,"spacing":1000,"datum":"vicgrid94","anchor":false},"geometry":{"type":"LineString","coordinates":[[144.9772733,-37.8740689],[144.977276,-37.8650591],[144.9772787,-37.8560492],[144.9772814,-37.8470393],[144.9772842,-37.8380294],[144.9772869,-37.8290194],[144.9772896,-37.8200094],[144.9772923,-37.8109993],[144.977295,-37.8019893],[144.9772977,-37.7929792],[144.9773004,-37.783969],[144.9773031,-37.7749589],[144.9773058,-37.7659487],[144.9773085,-37.7569384]]}},{"type":"Feature","properties":{"axis":"E","value":2499000,"spacing":1000,"datum":"vicgrid94","anchor":false},"geometry":{"type":"LineString","coordinates":[[144.9886396,-37.8740705],[144.988641,-37.8650607],[144.9886423,-37.8560508],[144.9886437,-37.8470409],[144.988645,-37.838031],[144.9886464,-37.829021],[144.9886478,-37.820011],[144.9886491,-37.811001],[144.9886505,-37.8019909],[144.9886518,-37.7929808],[144.9886532,-37.7839706],[144.9886545,-37.7749605],[144.9886559,-37.7659503],[144.9886572,-37.75694]]}},{"type":"Feature","properties":{"axis":"E","value":2500000,"spacing":1000,"datum":"vicgrid94","anchor":false},"geometry":{"type":"LineString","coordinates":[[145.0000059,-37.874071],[145.0000059,-37.8650612],[145.0000059,-37.8560513],[145.0000059,-37.8470414],[145.0000059,-37.8380315],[145.0000059,-37.8290215],[145.0000059,-37.8200115],[145.0000059,-37.8110015],[145.0000059,-37.8019914],[145.0000059,-37.7929813],[145.0000059,-37.7839712],[145.0000059,-37.774961],[145.0000059,-37.7659508],[145.0000059,-37.7569406]]}},{"type":"Feature","properties":{"axis":"E","value":2501000,"spacing":1000,"datum":"vicgrid94","anchor":false},"geometry":{"type":"LineString","coordinates":[[145.0113722,-37.8740705],[145.0113709,-37.8650607],[145.0113695,-37.8560508],[145.0113682,-37.8470409],[145.0113668,-37.838031],[145.0113655,-37.829021],[145.0113641,-37.820011],[145.0113628,-37.811001],[145.0113614,-37.8019909],[145.01136,-37.7929808],[145.0113587,-37.7839706],[145.0113573,-37.7749605],[145.011356,-37.7659503],[145.0113546,-37.75694]]}},{"type":"Feature","properties":{"axis":"E","value":2502000,"spacing":1000,"datum":"vicgrid94","anchor":false},"geometry":{"type":"LineString","coordinates":[[145.0227385,-37.8740689],[145.0227358,-37.8650591],[145.0227331,-37.8560492],[145.0227304,-37.8470393],[145.0227277,-37.8380294],[145.022725,-37.8290194],[145.0227223,-37.8200094],[145.0227196,-37.8109993],[145.0227169,-37.8019893],[145.0227142,-37.7929792],[145.0227114,-37.783969],[145.0227087,-37.7749589],[145.022706,-37.7659487],[145.0227033,-37.7569384]]}},{"type":"Feature","properties":{"axis":"E","value":2503000,"spacing":1000,"datum":"vicgrid94","anchor":false},"geometry":{"type":"LineString","coordinates":[[145.0341049,-37.8740662],[145.0341008,-37.8650564],[145.0340967,-37.8560465],[145.0340927,-37.8470366],[145.0340886,-37.8380267],[145.0340845,-37.8290167],[145.0340805,-37.8200067],[145.0340764,-37.8109967],[145.0340723,-37.8019866],[145.0340683,-37.7929765],[145.0340642,-37.7839663],[145.0340601,-37.7749562],[145.0340561,-37.765946],[145.034052,-37.7569357]]}},{"type":"Feature","properties":{"axis":"N","value":2403000,"spacing":1000,"datum":"vicgrid94","anchor":false},"geometry":{"type":"LineString","coordinates":[[144.8863429,-37.8740172],[144.8977092,-37.8740275],[144.9090755,-37.8740366],[144.9204418,-37.8740447],[144.9318081,-37.8740517],[144.9431744,-37.8740576],[144.9545407,-37.8740624],[144.965907,-37.8740662],[144.9772733,-37.8740689],[144.9886396,-37.8740705],[145.0000059,-37.874071],[145.0113722,-37.8740705],[145.0227385,-37.8740689],[145.0341049,-37.8740662]]}},{"type":"Feature","properties":{"axis":"N","value":2404000,"spacing":1000,"datum":"vicgrid94","anchor":false},"geometry":{"type":"LineString","coordinates":[[144.8863564,-37.8650074],[144.8977214,-37.8650176],[144.9090863,-37.8650268],[144.9204513,-37.8650348],[144.9318162,-37.8650418],[144.9431812,-37.8650478],[144.9545461,-37.8650526],[144.9659111,-37.8650564],[144.977276,-37.8650591],[144.988641,-37.8650607],[145.0000059,-37.8650612],[145.0113709,-37.8650607],[145.0227358,-37.8650591],[145.0341008,-37.8650564]]}},{"type":"Feature","properties":{"axis":"N","value":2405000,"spacing":1000,"datum":"vicgrid94","anchor":false},"geometry":{"type":"LineString","coordinates":[[144.88637,-37.8559976],[144.8977336,-37.8560078],[144.9090972,-37.8560169],[144.9204608,-37.856025],[144.9318243,-37.856032],[144.9431879,-37.8560379],[144.9545515,-37.8560427],[144.9659151,-37.8560465],[144.9772787,-37.8560492],[144.9886423,-37.8560508],[145.0000059,-37.8560513],[145.0113695,-37.8560508],[145.0227331,-37.8560492],[145.0340967,-37.8560465]]}},{"type":"Feature","properties":{"axis":"N","value":2406000,"spacing":1000,"datum":"vicgrid94","anchor":false},"geometry":{"type":"LineString","coordinates":[[144.8863836,-37.8469877],[144.8977458,-37.8469979],[144.909108,-37.847007],[144.9204702,-37.8470151],[144.9318325,-37.8470221],[144.9431947,-37.847028],[144.954557,-37.8470328],[144.9659192,-37.8470366],[144.9772814,-37.8470393],[144.9886437,-37.8470409],[145.0000059,-37.8470414],[145.0113682,-37.8470409],[145.0227304,-37.8470393],[145.0340927,-37.8470366]]}},{"type":"Feature","properties":{"axis":"N","value":2407000,"spacing":1000,"datum":"vicgrid94","anchor":false},"geometry":{"type":"LineString","coordinates":[[144.8863971,-37.8379777],[144.897758,-37.837988],[144.9091189,-37.8379971],[144.9204797,-37.8380052],[144.9318406,-37.8380121],[144.9432015,-37.8380181],[144.9545624,-37.8380229],[144.9659233,-37.8380267],[144.9772842,-37.8380294],[144.988645,-37.838031],[145.0000059,-37.8380315],[145.0113668,-37.838031],[145.0227277,-37.8380294],[145.0340886,-37.8380267]]}},{"type":"Feature","properties":{"axis":"N","value":2408000,"spacing":1000,"datum":"vicgrid94","anchor":false},"geometry":{"type":"LineString","coordinates":[[144.8864107,-37.8289678],[144.8977702,-37.828978],[144.9091297,-37.8289871],[144.9204892,-37.8289952],[144.9318488,-37.8290022],[144.9432083,-37.8290081],[144.9545678,-37.8290129],[144.9659273,-37.8290167],[144.9772869,-37.8290194],[144.9886464,-37.829021],[145.0000059,-37.8290215],[145.0113655,-37.829021],[145.022725,-37.8290194],[145.0340845,-37.8290167]]}},{"type":"Feature","properties":{"axis":"N","value":2409000,"spacing":1000,"datum":"vicgrid94","anchor":false},"geometry":{"type":"LineString","coordinates":[[144.8864242,-37.8199578],[144.8977824,-37.819968],[144.9091405,-37.8199771],[144.9204987,-37.8199852],[144.9318569,-37.8199922],[144.9432151,-37.8199981],[144.9545732,-37.8200029],[144.9659314,-37.8200067],[144.9772896,-37.8200094],[144.9886478,-37.820011],[145.0000059,-37.8200115],[145.0113641,-37.820011],[145.0227223,-37.8200094],[145.0340805,-37.8200067]]}},{"type":"Feature","properties":{"axis":"N","value":2410000,"spacing":1000,"datum":"vicgrid94","anchor":true},"geometry":{"type":"LineString","coordinates":[[144.8864378,-37.8109477],[144.8977946,-37.810958],[144.9091514,-37.8109671],[144.9205082,-37.8109752],[144.931865,-37.8109821],[144.9432218,-37.8109881],[144.9545787,-37.8109929],[144.9659355,-37.8109967],[144.9772923,-37.8109993],[144.9886491,-37.811001],[145.0000059,-37.8110015],[145.0113628,-37.811001],[145.0227196,-37.8109993],[145.0340764,-37.8109967]]}},{"type":"Feature","properties":{"axis":"N","value":2411000,"spacing":1000,"datum":"vicgrid94","anchor":false},"geometry":{"type":"LineString","coordinates":[[144.8864513,-37.8019377],[144.8978068,-37.8019479],[144.9091622,-37.801957],[144.9205177,-37.8019651],[144.9318731,-37.8019721],[144.9432286,-37.801978],[144.9545841,-37.8019828],[144.9659395,-37.8019866],[144.977295,-37.8019893],[144.9886505,-37.8019909],[145.0000059,-37.8019914],[145.0113614,-37.8019909],[145.0227169,-37.8019893],[145.0340723,-37.8019866]]}},{"type":"Feature","properties":{"axis":"N","value":2412000,"spacing":1000,"datum":"vicgrid94","anchor":false},"geometry":{"type":"LineString","coordinates":[[144.8864649,-37.7929276],[144.897819,-37.7929378],[144.9091731,-37.7929469],[144.9205272,-37.792955],[144.9318813,-37.792962],[144.9432354,-37.7929679],[144.9545895,-37.7929727],[144.9659436,-37.7929765],[144.9772977,-37.7929792],[144.9886518,-37.7929808],[145.0000059,-37.7929813],[145.01136,-37.7929808],[145.0227142,-37.7929792],[145.0340683,-37.7929765]]}},{"type":"Feature","properties":{"axis":"N","value":2413000,"spacing":1000,"datum":"vicgrid94","anchor":false},"geometry":{"type":"LineString","coordinates":[[144.8864784,-37.7839174],[144.8978312,-37.7839277],[144.9091839,-37.7839368],[144.9205366,-37.7839448],[144.9318894,-37.7839518],[144.9432422,-37.7839577],[144.9545949,-37.7839626],[144.9659477,-37.7839663],[144.9773004,-37.783969],[144.9886532,-37.7839706],[145.0000059,-37.7839712],[145.0113587,-37.7839706],[145.0227114,-37.783969],[145.0340642,-37.7839663]]}},{"type":"Feature","properties":{"axis":"N","value":2414000,"spacing":1000,"datum":"vicgrid94","anchor":false},"geometry":{"type":"LineString","coordinates":[[144.8864919,-37.7749073],[144.8978433,-37.7749175],[144.9091947,-37.7749266],[144.9205461,-37.7749347],[144.9318975,-37.7749417],[144.9432489,-37.7749476],[144.9546003,-37.7749524],[144.9659517,-37.7749562],[144.9773031,-37.7749589],[144.9886545,-37.7749605],[145.0000059,-37.774961],[145.0113573,-37.7749605],[145.0227087,-37.7749589],[145.0340601,-37.7749562]]}},{"type":"Feature","properties":{"axis":"N","value":2415000,"spacing":1000,"datum":"vicgrid94","anchor":false},"geometry":{"type":"LineString","coordinates":[[144.8865055,-37.7658971],[144.8978555,-37.7659073],[144.9092056,-37.7659164],[144.9205556,-37.7659245],[144.9319056,-37.7659315],[144.9432557,-37.7659374],[144.9546057,-37.7659422],[144.9659558,-37.765946],[144.9773058,-37.7659487],[144.9886559,-37.7659503],[145.0000059,-37.7659508],[145.011356,-37.7659503],[145.022706,-37.7659487],[145.0340561,-37.765946]]}},{"type":"Feature","properties":{"axis":"N","value":2416000,"spacing":1000,"datum":"vicgrid94","anchor":false},"geometry":{"type":"LineString","coordinates":[[144.886519,-37.7568869],[144.8978677,-37.7568971],[144.9092164,-37.7569062],[144.9205651,-37.7569142],[144.9319138,-37.7569212],[144.9432625,-37.7569271],[144.9546111,-37.756932],[144.9659598,-37.7569357],[144.9773085,-37.7569384],[144.9886572,-37.75694],[145.0000059,-37.7569406],[145.0113546,-37.75694],[145.0227033,-37.7569384],[145.034052,-37.7569357]]}},{"type":"Feature","properties":{"axis":"E","value":2490750,"spacing":250,"datum":"vicgrid94","anchor":false},"geometry":{"type":"LineString","coordinates":[[144.8948739,-37.8695201],[144.8948867,-37.8603226],[144.8948995,-37.851125],[144.8949123,-37.8419273],[144.8949251,-37.8327297],[144.8949379,-37.823532],[144.8949507,-37.8143343],[144.8949635,-37.8051365],[144.8949763,-37.7959387],[144.8949891,-37.7867409],[144.8950018,-37.777543],[144.8950146,-37.7683451],[144.8950274,-37.7591472]]}},{"type":"Feature","properties":{"axis":"E","value":2491250,"spacing":250,"datum":"vicgrid94","anchor":false},"geometry":{"type":"LineString","coordinates":[[144.9005567,-37.8695249],[144.9005688,-37.8603274],[144.9005809,-37.8511298],[144.900593,-37.8419322],[144.9006051,-37.8327345],[144.9006172,-37.8235368],[144.9006293,-37.8143391],[144.9006414,-37.8051413],[144.9006535,-37.7959435],[144.9006656,-37.7867457],[144.9006777,-37.7775478],[144.9006898,-37.7683499],[144.9007019,-37.759152]]}},{"type":"Feature","properties":{"axis":"E","value":2491500,"spacing":250,"datum":"vicgrid94","anchor":false},"geometry":{"type":"LineString","coordinates":[[144.9033981,-37.8695273],[144.9034098,-37.8603297],[144.9034216,-37.8511321],[144.9034334,-37.8419345],[144.9034451,-37.8327368],[144.9034569,-37.8235392],[144.9034687,-37.8143414],[144.9034804,-37.8051437],[144.9034922,-37.7959459],[144.9035039,-37.786748],[144.9035157,-37.7775502],[144.9035274,-37.7683523],[144.9035392,-37.7591543]]}},{"type":"Feature","properties":{"axis":"E","value":2491750,"spacing":250,"datum":"vicgrid94","anchor":false},"geometry":{"type":"LineString","coordinates":[[144.9062395,-37.8695295],[144.9062509,-37.860332],[144.9062623,-37.8511344],[144.9062737,-37.8419368],[144.9062852,-37.8327391],[144.9062966,-37.8235414],[144.906308,-37.8143437],[144.9063194,-37.8051459],[144.9063308,-37.7959481],[144.9063422,-37.7867503],[144.9063536,-37.7775524],[144.906365,-37.7683545],[144.9063764,-37.7591566]]}},{"type":"Feature","properties":{"axis":"E","value":2492250,"spacing":250,"datum":"vicgrid94","anchor":false},"geometry":{"type":"LineString","coordinates":[[144.9119223,-37.8695338],[144.911933,-37.8603363],[144.9119438,-37.8511387],[144.9119545,-37.8419411],[144.9119652,-37.8327434],[144.9119759,-37.8235457],[144.9119867,-37.814348],[144.9119974,-37.8051502],[144.9120081,-37.7959524],[144.9120188,-37.7867546],[144.9120295,-37.7775567],[144.9120402,-37.7683588],[144.9120509,-37.7591609]]}},{"type":"Feature","properties":{"axis":"E","value":2492500,"spacing":250,"datum":"vicgrid94","anchor":false},"geometry":{"type":"LineString","coordinates":[[144.9147637,-37.8695359],[144.9147741,-37.8603383],[144.9147845,-37.8511407],[144.9147949,-37.8419431],[144.9148052,-37.8327454],[144.9148156,-37.8235478],[144.914826,-37.81435],[144.9148364,-37.8051523],[144.9148467,-37.7959545],[144.9148571,-37.7867566],[144.9148675,-37.7775588],[144.9148778,-37.7683609],[144.9148882,-37.7591629]]}},{"type":"Feature","properties":{"axis":"E","value":2492750,"spacing":250,"datum":"vicgrid94","anchor":false},"geometry":{"type":"LineString","coordinates":[[144.9176051,-37.8695378],[144.9176151,-37.8603403],[144.9176252,-37.8511427],[144.9176352,-37.8419451],[144.9176453,-37.8327474],[144.9176553,-37.8235497],[144.9176653,-37.814352],[144.9176753,-37.8051542],[144.9176854,-37.7959564],[144.9176954,-37.7867586],[144.9177054,-37.7775607],[144.9177154,-37.7683628],[144.9177254,-37.7591649]]}},{"type":"Feature","properties":{"axis":"E","value":2493250,"spacing":250,"datum":"vicgrid94","anchor":false},"geometry":{"type":"LineString","coordinates":[[144.9232879,-37.8695416],[144.9232973,-37.8603441],[144.9233066,-37.8511465],[144.923316,-37.8419489],[144.9233253,-37.8327512],[144.9233346,-37.8235535],[144.923344,-37.8143558],[144.9233533,-37.805158],[144.9233626,-37.7959602],[144.923372,-37.7867624],[144.9233813,-37.7775645],[144.9233906,-37.7683666],[144.9234,-37.7591687]]}},{"type":"Feature","properties":{"axis":"E","value":2493500,"spacing":250,"datum":"vicgrid94","anchor":false},"geometry":{"type":"LineString","coordinates":[[144.9261293,-37.8695434],[144.9261383,-37.8603458],[144.9261473,-37.8511483],[144.9261563,-37.8419506],[144.9261653,-37.832753],[144.9261743,-37.8235553],[144.9261833,-37.8143575],[144.9261923,-37.8051598],[144.9262013,-37.795962],[144.9262103,-37.7867641],[144.9262193,-37.7775663],[144.9262282,-37.7683684],[144.9262372,-37.7591704]]}},{"type":"Feature","properties":{"axis":"E","value":2493750,"spacing":250,"datum":"vicgrid94","anchor":false},"geometry":{"type":"LineString","coordinates":[[144.9289707,-37.8695451],[144.9289794,-37.8603476],[144.928988,-37.85115],[144.9289967,-37.8419523],[144.9290053,-37.8327547],[144.929014,-37.823557],[144.9290226,-37.8143593],[144.9290313,-37.8051615],[144.9290399,-37.7959637],[144.9290486,-37.7867659],[144.9290572,-37.777568],[144.9290658,-37.7683701],[144.9290745,-37.7591721]]}},{"type":"Feature","properties":{"axis":"E","value":2494250,"spacing":250,"datum":"vicgrid94","anchor":false},"geometry":{"type":"LineString","coordinates":[[144.9346535,-37.8695483],[144.9346615,-37.8603508],[144.9346695,-37.8511532],[144.9346774,-37.8419556],[144.9346854,-37.8327579],[144.9346933,-37.8235602],[144.9347013,-37.8143625],[144.9347093,-37.8051647],[144.9347172,-37.7959669],[144.9347252,-37.7867691],[144.9347331,-37.7775712],[144.934741,-37.7683733],[144.934749,-37.7591754]]}},{"type":"Feature","properties":{"axis":"E","value":2494500,"spacing":250,"datum":"vicgrid94","anchor":false},"geometry":{"type":"LineString","coordinates":[[144.9374949,-37.8695498],[144.9375026,-37.8603523],[144.9375102,-37.8511547],[144.9375178,-37.8419571],[144.9375254,-37.8327594],[144.937533,-37.8235617],[144.9375406,-37.814364],[144.9375482,-37.8051662],[144.9375558,-37.7959684],[144.9375634,-37.7867706],[144.937571,-37.7775727],[144.9375786,-37.7683748],[144.9375862,-37.7591769]]}},{"type":"Feature","properties":{"axis":"E","value":2494750,"spacing":250,"datum":"vicgrid94","anchor":false},"geometry":{"type":"LineString","coordinates":[[144.9403364,-37.8695513],[144.9403436,-37.8603537],[144.9403509,-37.8511562],[144.9403582,-37.8419585],[144.9403654,-37.8327609],[144.9403727,-37.8235632],[144.94038,-37.8143654],[144.9403872,-37.8051677],[144.9403945,-37.7959699],[144.9404017,-37.786772],[144.940409,-37.7775742],[144.9404163,-37.7683763],[144.9404235,-37.7591783]]}},{"type":"Feature","properties":{"axis":"E","value":2495250,"spacing":250,"datum":"vicgrid94","anchor":false},"geometry":{"type":"LineString","coordinates":[[144.9460192,-37.869554],[144.9460257,-37.8603564],[144.9460323,-37.8511588],[144.9460389,-37.8419612],[144.9460455,-37.8327636],[144.9460521,-37.8235659],[144.9460586,-37.8143681],[144.9460652,-37.8051704],[144.9460718,-37.7959726],[144.9460783,-37.7867747],[144.9460849,-37.7775769],[144.9460915,-37.7683789],[144.946098,-37.759181]]}},{"type":"Feature","properties":{"axis":"E","value":2495500,"spacing":250,"datum":"vicgrid94","anchor":false},"geometry":{"type":"LineString","coordinates":[[144.9488606,-37.8695552],[144.9488668,-37.8603577],[144.948873,-37.8511601],[144.9488793,-37.8419625],[144.9488855,-37.8327648],[144.9488917,-37.8235671],[144.948898,-37.8143694],[144.9489042,-37.8051716],[144.9489104,-37.7959738],[144.9489166,-37.786776],[144.9489228,-37.7775781],[144.9489291,-37.7683802],[144.9489353,-37.7591822]]}},{"type":"Feature","properties":{"axis":"E","value":2495750,"spacing":250,"datum":"vicgrid94","anchor":false},"geometry":{"type":"LineString","coordinates":[[144.951702,-37.8695564],[144.9517079,-37.8603589],[144.9517138,-37.8511613],[144.9517196,-37.8419636],[144.9517255,-37.832766],[144.9517314,-37.8235683],[144.9517373,-37.8143706],[144.9517432,-37.8051728],[144.951749,-37.795975],[144.9517549,-37.7867771],[144.9517608,-37.7775793],[144.9517667,-37.7683814],[144.9517725,-37.7591834]]}},{"type":"Feature","properties":{"axis":"E","value":2496250,"spacing":250,"datum":"vicgrid94","anchor":false},"geometry":{"type":"LineString","coordinates":[[144.9573848,-37.8695586],[144.95739,-37.860361],[144.9573952,-37.8511634],[144.9574004,-37.8419658],[144.9574056,-37.8327681],[144.9574108,-37.8235704],[144.9574159,-37.8143727],[144.9574211,-37.8051749],[144.9574263,-37.7959771],[144.9574315,-37.7867793],[144.9574367,-37.7775814],[144.9574419,-37.7683835],[144.9574471,-37.7591856]]}},{"type":"Feature","properties":{"axis":"E","value":2496500,"spacing":250,"datum":"vicgrid94","anchor":false},"geometry":{"type":"LineString","coordinates":[[144.9602262,-37.8695595],[144.9602311,-37.860362],[144.9602359,-37.8511644],[144.9602407,-37.8419668],[144.9602456,-37.8327691],[144.9602504,-37.8235714],[144.9602553,-37.8143737],[144.9602601,-37.8051759],[144.960265,-37.7959781],[144.9602698,-37.7867803],[144.9602746,-37.7775824],[144.9602795,-37.7683845],[144.9602843,-37.7591865]]}},{"type":"Feature","properties":{"axis":"E","value":2496750,"spacing":250,"datum":"vicgrid94","anchor":false},"geometry":{"type":"LineString","coordinates":[[144.9630676,-37.8695604],[144.9630721,-37.8603629],[144.9630766,-37.8511653],[144.9630811,-37.8419677],[144.9630856,-37.83277],[144.9630901,-37.8235723],[144.9630946,-37.8143746],[144.9630991,-37.8051768],[144.9631036,-37.795979],[144.9631081,-37.7867812],[144.9631126,-37.7775833],[144.9631171,-37.7683854],[144.9631216,-37.7591875]]}},{"type":"Feature","properties":{"axis":"E","value":2497250,"spacing":250,"datum":"vicgrid94","anchor":false},"geometry":{"type":"LineString","coordinates":[[144.9687504,-37.8695621],[144.9687542,-37.8603645],[144.9687581,-37.8511669],[144.9687619,-37.8419693],[144.9687657,-37.8327716],[144.9687695,-37.8235739],[144.9687733,-37.8143762],[144.9687771,-37.8051784],[144.9687809,-37.7959806],[144.9687847,-37.7867828],[144.9687885,-37.7775849],[144.9687923,-37.768387],[144.9687961,-37.7591891]]}},{"type":"Feature","properties":{"axis":"E","value":2497500,"spacing":250,"datum":"vicgrid94","anchor":false},"geometry":{"type":"LineString","coordinates":[[144.9715918,-37.8695628],[144.9715953,-37.8603652],[144.9715988,-37.8511676],[144.9716022,-37.84197],[144.9716057,-37.8327723],[144.9716091,-37.8235746],[144.9716126,-37.8143769],[144.9716161,-37.8051791],[144.9716195,-37.7959813],[144.971623,-37.7867835],[144.9716264,-37.7775856],[144.9716299,-37.7683877],[144.9716333,-37.7591898]]}},{"type":"Feature","properties":{"axis":"E","value":2497750,"spacing":250,"datum":"vicgrid94","anchor":false},"geometry":{"type":"LineString","coordinates":[[144.9744332,-37.8695634],[144.9744364,-37.8603658],[144.9744395,-37.8511683],[144.9744426,-37.8419706],[144.9744457,-37.832773],[144.9744488,-37.8235753],[144.9744519,-37.8143775],[144.9744551,-37.8051798],[144.9744582,-37.795982],[144.9744613,-37.7867841],[144.9744644,-37.7775863],[144.9744675,-37.7683883],[144.9744706,-37.7591904]]}},{"type":"Feature","properties":{"axis":"E","value":2498250,"spacing":250,"datum":"vicgrid94","anchor":false},"geometry":{"type":"LineString","coordinates":[[144.9801161,-37.8695645],[144.9801185,-37.8603669],[144.9801209,-37.8511693],[144.9801233,-37.8419717],[144.9801258,-37.832774],[144.9801282,-37.8235763],[144.9801306,-37.8143786],[144.980133,-37.8051808],[144.9801354,-37.795983],[144.9801379,-37.7867852],[144.9801403,-37.7775873],[144.9801427,-37.7683894],[144.9801451,-37.7591915]]}},{"type":"Feature","properties":{"axis":"E","value":2498500,"spacing":250,"datum":"vicgrid94","anchor":false},"geometry":{"type":"LineString","coordinates":[[144.9829575,-37.8695649],[144.9829596,-37.8603674],[144.9829616,-37.8511698],[144.9829637,-37.8419721],[144.9829658,-37.8327745],[144.9829679,-37.8235768],[144.9829699,-37.8143791],[144.982972,-37.8051813],[144.9829741,-37.7959835],[144.9829762,-37.7867856],[144.9829782,-37.7775878],[144.9829803,-37.7683899],[144.9829824,-37.7591919]]}},{"type":"Feature","properties":{"axis":"E","value":2498750,"spacing":250,"datum":"vicgrid94","anchor":false},"geometry":{"type":"LineString","coordinates":[[144.9857989,-37.8695653],[144.9858006,-37.8603677],[144.9858023,-37.8511701],[144.9858041,-37.8419725],[144.9858058,-37.8327749],[144.9858075,-37.8235772],[144.9858093,-37.8143794],[144.985811,-37.8051817],[144.9858127,-37.7959838],[144.9858145,-37.786786],[144.9858162,-37.7775881],[144.9858179,-37.7683902],[144.9858196,-37.7591923]]}},{"type":"Feature","properties":{"axis":"E","value":2499250,"spacing":250,"datum":"vicgrid94","anchor":false},"geometry":{"type":"LineString","coordinates":[[144.9914817,-37.8695658],[144.9914827,-37.8603683],[144.9914838,-37.8511707],[144.9914848,-37.8419731],[144.9914859,-37.8327754],[144.9914869,-37.8235777],[144.9914879,-37.81438],[144.991489,-37.8051822],[144.99149,-37.7959844],[144.991491,-37.7867865],[144.9914921,-37.7775887],[144.9914931,-37.7683908],[144.9914942,-37.7591928]]}},{"type":"Feature","properties":{"axis":"E","value":2499500,"spacing":250,"datum":"vicgrid94","anchor":false},"geometry":{"type":"LineString","coordinates":[[144.9943231,-37.869566],[144.9943238,-37.8603684],[144.9943245,-37.8511708],[144.9943252,-37.8419732],[144.9943259,-37.8327756],[144.9943266,-37.8235779],[144.9943273,-37.8143801],[144.994328,-37.8051824],[144.9943287,-37.7959846],[144.9943293,-37.7867867],[144.99433,-37.7775888],[144.9943307,-37.7683909],[144.9943314,-37.759193]]}},{"type":"Feature","properties":{"axis":"E","value":2499750,"spacing":250,"datum":"vicgrid94","anchor":false},"geometry":{"type":"LineString","coordinates":[[144.9971645,-37.8695661],[144.9971649,-37.8603685],[144.9971652,-37.8511709],[144.9971656,-37.8419733],[144.9971659,-37.8327757],[144.9971663,-37.823578],[144.9971666,-37.8143802],[144.9971669,-37.8051825],[144.9971673,-37.7959847],[144.9971676,-37.7867868],[144.997168,-37.7775889],[144.9971683,-37.768391],[144.9971687,-37.7591931]]}},{"type":"Feature","properties":{"axis":"E","value":2500250,"spacing":250,"datum":"vicgrid94","anchor":false},"geometry":{"type":"LineString","coordinates":[[145.0028473,-37.8695661],[145.002847,-37.8603685],[145.0028466,-37.8511709],[145.0028463,-37.8419733],[145.002846,-37.8327757],[145.0028456,-37.823578],[145.0028453,-37.8143802],[145.0028449,-37.8051825],[145.0028446,-37.7959847],[145.0028442,-37.7867868],[145.0028439,-37.7775889],[145.0028435,-37.768391],[145.0028432,-37.7591931]]}},{"type":"Feature","properties":{"axis":"E","value":2500500,"spacing":250,"datum":"vicgrid94","anchor":false},"geometry":{"type":"LineString","coordinates":[[145.0056887,-37.869566],[145.005688,-37.8603684],[145.0056874,-37.8511708],[145.0056867,-37.8419732],[145.005686,-37.8327756],[145.0056853,-37.8235779],[145.0056846,-37.8143801],[145.0056839,-37.8051824],[145.0056832,-37.7959846],[145.0056825,-37.7867867],[145.0056818,-37.7775888],[145.0056811,-37.7683909],[145.0056805,-37.759193]]}},{"type":"Feature","properties":{"axis":"E","value":2500750,"spacing":250,"datum":"vicgrid94","anchor":false},"geometry":{"type":"LineString","coordinates":[[145.0085301,-37.8695658],[145.0085291,-37.8603683],[145.0085281,-37.8511707],[145.008527,-37.8419731],[145.008526,-37.8327754],[145.008525,-37.8235777],[145.0085239,-37.81438],[145.0085229,-37.8051822],[145.0085219,-37.7959844],[145.0085208,-37.7867865],[145.0085198,-37.7775887],[145.0085187,-37.7683908],[145.0085177,-37.7591928]]}},{"type":"Feature","properties":{"axis":"E","value":2501250,"spacing":250,"datum":"vicgrid94","anchor":false},"geometry":{"type":"LineString","coordinates":[[145.014213,-37.8695653],[145.0142112,-37.8603677],[145.0142095,-37.8511701],[145.0142078,-37.8419725],[145.014206,-37.8327749],[145.0142043,-37.8235772],[145.0142026,-37.8143794],[145.0142009,-37.8051817],[145.0141991,-37.7959839],[145.0141974,-37.786786],[145.0141957,-37.7775881],[145.014194,-37.7683902],[145.0141922,-37.7591923]]}},{"type":"Feature","properties":{"axis":"E","value":2501500,"spacing":250,"datum":"vicgrid94","anchor":false},"geometry":{"type":"LineString","coordinates":[[145.0170544,-37.8695649],[145.0170523,-37.8603674],[145.0170502,-37.8511698],[145.0170481,-37.8419721],[145.0170461,-37.8327745],[145.017044,-37.8235768],[145.0170419,-37.8143791],[145.0170399,-37.8051813],[145.0170378,-37.7959835],[145.0170357,-37.7867856],[145.0170336,-37.7775878],[145.0170316,-37.7683899],[145.0170295,-37.7591919]]}},{"type":"Feature","properties":{"axis":"E","value":2501750,"spacing":250,"datum":"vicgrid94","anchor":false},"geometry":{"type":"LineString","coordinates":[[145.0198958,-37.8695645],[145.0198934,-37.8603669],[145.0198909,-37.8511693],[145.0198885,-37.8419717],[145.0198861,-37.832774],[145.0198837,-37.8235764],[145.0198813,-37.8143786],[145.0198788,-37.8051808],[145.0198764,-37.795983],[145.019874,-37.7867852],[145.0198716,-37.7775873],[145.0198692,-37.7683894],[145.0198667,-37.7591915]]}},{"type":"Feature","properties":{"axis":"E","value":2502250,"spacing":250,"datum":"vicgrid94","anchor":false},"geometry":{"type":"LineString","coordinates":[[145.0255786,-37.8695634],[145.0255755,-37.8603658],[145.0255724,-37.8511683],[145.0255693,-37.8419706],[145.0255661,-37.832773],[145.025563,-37.8235753],[145.0255599,-37.8143775],[145.0255568,-37.8051798],[145.0255537,-37.795982],[145.0255506,-37.7867841],[145.0255475,-37.7775863],[145.0255444,-37.7683884],[145.0255413,-37.7591904]]}},{"type":"Feature","properties":{"axis":"E","value":2502500,"spacing":250,"datum":"vicgrid94","anchor":false},"geometry":{"type":"LineString","coordinates":[[145.02842,-37.8695628],[145.0284165,-37.8603652],[145.0284131,-37.8511676],[145.0284096,-37.84197],[145.0284062,-37.8327723],[145.0284027,-37.8235746],[145.0283993,-37.8143769],[145.0283958,-37.8051791],[145.0283923,-37.7959813],[145.0283889,-37.7867835],[145.0283854,-37.7775856],[145.028382,-37.7683877],[145.0283785,-37.7591898]]}},{"type":"Feature","properties":{"axis":"E","value":2502750,"spacing":250,"datum":"vicgrid94","anchor":false},"geometry":{"type":"LineString","coordinates":[[145.0312614,-37.8695621],[145.0312576,-37.8603645],[145.0312538,-37.8511669],[145.03125,-37.8419693],[145.0312462,-37.8327716],[145.0312424,-37.8235739],[145.0312386,-37.8143762],[145.0312348,-37.8051784],[145.031231,-37.7959806],[145.0312272,-37.7867828],[145.0312234,-37.7775849],[145.0312196,-37.768387],[145.0312158,-37.7591891]]}},{"type":"Feature","properties":{"axis":"N","value":2403500,"spacing":250,"datum":"vicgrid94","anchor":false},"geometry":{"type":"LineString","coordinates":[[144.8948739,-37.8695201],[144.9064763,-37.8695297],[144.9180787,-37.8695382],[144.9296811,-37.8695455],[144.9412835,-37.8695518],[144.9528859,-37.8695569],[144.9644883,-37.8695609],[144.9760907,-37.8695637],[144.9876932,-37.8695655],[144.9992956,-37.8695661],[145.010898,-37.8695656],[145.0225004,-37.869564],[145.0341028,-37.8695613]]}},{"type":"Feature","properties":{"axis":"N","value":2403750,"spacing":250,"datum":"vicgrid94","anchor":false},"geometry":{"type":"LineString","coordinates":[[144.894877,-37.8672676],[144.906479,-37.8672772],[144.9180811,-37.8672857],[144.9296832,-37.8672931],[144.9412852,-37.8672993],[144.9528873,-37.8673044],[144.9644894,-37.8673084],[144.9760915,-37.8673113],[144.9876935,-37.867313],[144.9992956,-37.8673137],[145.0108977,-37.8673132],[145.0224997,-37.8673116],[145.0341018,-37.8673088]]}},{"type":"Feature","properties":{"axis":"N","value":2404250,"spacing":250,"datum":"vicgrid94","anchor":false},"geometry":{"type":"LineString","coordinates":[[144.8948833,-37.8627627],[144.9064846,-37.8627723],[144.918086,-37.8627808],[144.9296874,-37.8627881],[144.9412887,-37.8627944],[144.9528901,-37.8627995],[144.9644915,-37.8628035],[144.9760929,-37.8628064],[144.9876943,-37.8628081],[144.9992956,-37.8628087],[145.010897,-37.8628082],[145.0224984,-37.8628066],[145.0340998,-37.8628039]]}},{"type":"Feature","properties":{"axis":"N","value":2404500,"spacing":250,"datum":"vicgrid94","anchor":false},"geometry":{"type":"LineString","coordinates":[[144.8948864,-37.8605103],[144.9064874,-37.8605199],[144.9180884,-37.8605283],[144.9296895,-37.8605357],[144.9412905,-37.8605419],[144.9528915,-37.860547],[144.9644926,-37.860551],[144.9760936,-37.8605539],[144.9876946,-37.8605556],[144.9992957,-37.8605563],[145.0108967,-37.8605558],[145.0224977,-37.8605542],[145.0340988,-37.8605514]]}},{"type":"Feature","properties":{"axis":"N","value":2404750,"spacing":250,"datum":"vicgrid94","anchor":false},"geometry":{"type":"LineString","coordinates":[[144.8948895,-37.8582578],[144.9064902,-37.8582674],[144.9180909,-37.8582759],[144.9296916,-37.8582832],[144.9412923,-37.8582894],[144.9528929,-37.8582946],[144.9644936,-37.8582986],[144.9760943,-37.8583014],[144.987695,-37.8583032],[144.9992957,-37.8583038],[145.0108964,-37.8583033],[145.0224971,-37.8583017],[145.0340977,-37.858299]]}},{"type":"Feature","properties":{"axis":"N","value":2405250,"spacing":250,"datum":"vicgrid94","anchor":false},"geometry":{"type":"LineString","coordinates":[[144.8948958,-37.8537529],[144.9064958,-37.8537624],[144.9180958,-37.8537709],[144.9296958,-37.8537783],[144.9412958,-37.8537845],[144.9528957,-37.8537896],[144.9644957,-37.8537936],[144.9760957,-37.8537965],[144.9876957,-37.8537982],[144.9992957,-37.8537989],[145.0108957,-37.8537984],[145.0224957,-37.8537968],[145.0340957,-37.853794]]}},{"type":"Feature","properties":{"axis":"N","value":2405500,"spacing":250,"datum":"vicgrid94","anchor":false},"geometry":{"type":"LineString","coordinates":[[144.894899,-37.8515004],[144.9064986,-37.85151],[144.9180982,-37.8515184],[144.9296979,-37.8515258],[144.9412975,-37.851532],[144.9528972,-37.8515371],[144.9644968,-37.8515411],[144.9760964,-37.851544],[144.9876961,-37.8515458],[144.9992957,-37.8515464],[145.0108954,-37.8515459],[145.022495,-37.8515443],[145.0340947,-37.8515416]]}},{"type":"Feature","properties":{"axis":"N","value":2405750,"spacing":250,"datum":"vicgrid94","anchor":false},"geometry":{"type":"LineString","coordinates":[[144.8949021,-37.8492479],[144.9065014,-37.8492575],[144.9181007,-37.849266],[144.9297,-37.8492733],[144.9412993,-37.8492796],[144.9528986,-37.8492847],[144.9644979,-37.8492887],[144.9760972,-37.8492915],[144.9876965,-37.8492933],[144.9992958,-37.8492939],[145.0108951,-37.8492934],[145.0224944,-37.8492918],[145.0340937,-37.8492891]]}},{"type":"Feature","properties":{"axis":"N","value":2406250,"spacing":250,"datum":"vicgrid94","anchor":false},"geometry":{"type":"LineString","coordinates":[[144.8949084,-37.8447429],[144.906507,-37.8447525],[144.9181056,-37.844761],[144.9297042,-37.8447684],[144.9413028,-37.8447746],[144.9529014,-37.8447797],[144.9645,-37.8447837],[144.9760986,-37.8447866],[144.9876972,-37.8447883],[144.9992958,-37.844789],[145.0108944,-37.8447885],[145.022493,-37.8447869],[145.0340916,-37.8447841]]}},{"type":"Feature","properties":{"axis":"N","value":2406500,"spacing":250,"datum":"vicgrid94","anchor":false},"geometry":{"type":"LineString","coordinates":[[144.8949115,-37.8424905],[144.9065097,-37.8425001],[144.918108,-37.8425085],[144.9297063,-37.8425159],[144.9413045,-37.8425221],[144.9529028,-37.8425272],[144.964501,-37.8425312],[144.9760993,-37.8425341],[144.9876976,-37.8425358],[144.9992958,-37.8425365],[145.0108941,-37.842536],[145.0224924,-37.8425344],[145.0340906,-37.8425316]]}},{"type":"Feature","properties":{"axis":"N","value":2406750,"spacing":250,"datum":"vicgrid94","anchor":false},"geometry":{"type":"LineString","coordinates":[[144.8949146,-37.840238],[144.9065125,-37.8402476],[144.9181104,-37.8402561],[144.9297084,-37.8402634],[144.9413063,-37.8402696],[144.9529042,-37.8402747],[144.9645021,-37.8402787],[144.9761,-37.8402816],[144.9876979,-37.8402834],[144.9992959,-37.840284],[145.0108938,-37.8402835],[145.0224917,-37.8402819],[145.0340896,-37.8402792]]}},{"type":"Feature","properties":{"axis":"N","value":2407250,"spacing":250,"datum":"vicgrid94","anchor":false},"geometry":{"type":"LineString","coordinates":[[144.8949209,-37.835733],[144.9065181,-37.8357426],[144.9181153,-37.8357511],[144.9297126,-37.8357584],[144.9413098,-37.8357647],[144.952907,-37.8357698],[144.9645042,-37.8357738],[144.9761014,-37.8357766],[144.9876987,-37.8357784],[144.9992959,-37.835779],[145.0108931,-37.8357785],[145.0224903,-37.8357769],[145.0340876,-37.8357742]]}},{"type":"Feature","properties":{"axis":"N","value":2407500,"spacing":250,"datum":"vicgrid94","anchor":false},"geometry":{"type":"LineString","coordinates":[[144.894924,-37.8334805],[144.9065209,-37.8334901],[144.9181178,-37.8334986],[144.9297146,-37.8335059],[144.9413115,-37.8335122],[144.9529084,-37.8335173],[144.9645053,-37.8335213],[144.9761022,-37.8335241],[144.987699,-37.8335259],[144.9992959,-37.8335265],[145.0108928,-37.833526],[145.0224897,-37.8335244],[145.0340866,-37.8335217]]}},{"type":"Feature","properties":{"axis":"N","value":2407750,"spacing":250,"datum":"vicgrid94","anchor":false},"geometry":{"type":"LineString","coordinates":[[144.8949272,-37.831228],[144.9065237,-37.8312376],[144.9181202,-37.8312461],[144.9297167,-37.8312534],[144.9413133,-37.8312597],[144.9529098,-37.8312648],[144.9645063,-37.8312688],[144.9761029,-37.8312716],[144.9876994,-37.8312734],[144.9992959,-37.831274],[145.0108925,-37.8312735],[145.022489,-37.8312719],[145.0340855,-37.8312692]]}},{"type":"Feature","properties":{"axis":"N","value":2408250,"spacing":250,"datum":"vicgrid94","anchor":false},"geometry":{"type":"LineString","coordinates":[[144.8949334,-37.826723],[144.9065293,-37.8267326],[144.9181251,-37.8267411],[144.9297209,-37.8267485],[144.9413168,-37.8267547],[144.9529126,-37.8267598],[144.9645085,-37.8267638],[144.9761043,-37.8267667],[144.9877001,-37.8267684],[144.999296,-37.826769],[145.0108918,-37.8267685],[145.0224877,-37.8267669],[145.0340835,-37.8267642]]}},{"type":"Feature","properties":{"axis":"N","value":2408500,"spacing":250,"datum":"vicgrid94","anchor":false},"geometry":{"type":"LineString","coordinates":[[144.8949366,-37.8244705],[144.9065321,-37.8244801],[144.9181275,-37.8244886],[144.929723,-37.824496],[144.9413185,-37.8245022],[144.952914,-37.8245073],[144.9645095,-37.8245113],[144.976105,-37.8245142],[144.9877005,-37.8245159],[144.999296,-37.8245165],[145.0108915,-37.824516],[145.022487,-37.8245144],[145.0340825,-37.8245117]]}},{"type":"Feature","properties":{"axis":"N","value":2408750,"spacing":250,"datum":"vicgrid94","anchor":false},"geometry":{"type":"LineString","coordinates":[[144.8949397,-37.822218],[144.9065348,-37.8222276],[144.91813,-37.8222361],[144.9297251,-37.8222435],[144.9413203,-37.8222497],[144.9529154,-37.8222548],[144.9645106,-37.8222588],[144.9761057,-37.8222617],[144.9877009,-37.8222634],[144.999296,-37.822264],[145.0108912,-37.8222635],[145.0224863,-37.8222619],[145.0340815,-37.8222592]]}},{"type":"Feature","properties":{"axis":"N","value":2409250,"spacing":250,"datum":"vicgrid94","anchor":false},"geometry":{"type":"LineString","coordinates":[[144.894946,-37.817713],[144.9065404,-37.8177226],[144.9181349,-37.8177311],[144.9297293,-37.8177384],[144.9413238,-37.8177447],[144.9529182,-37.8177498],[144.9645127,-37.8177538],[144.9761071,-37.8177566],[144.9877016,-37.8177584],[144.9992961,-37.817759],[145.0108905,-37.8177585],[145.022485,-37.8177569],[145.0340794,-37.8177542]]}},{"type":"Feature","properties":{"axis":"N","value":2409500,"spacing":250,"datum":"vicgrid94","anchor":false},"geometry":{"type":"LineString","coordinates":[[144.8949491,-37.8154605],[144.9065432,-37.8154701],[144.9181373,-37.8154786],[144.9297314,-37.8154859],[144.9413255,-37.8154922],[144.9529196,-37.8154973],[144.9645137,-37.8155013],[144.9761079,-37.8155041],[144.987702,-37.8155059],[144.9992961,-37.8155065],[145.0108902,-37.815506],[145.0224843,-37.8155044],[145.0340784,-37.8155017]]}},{"type":"Feature","properties":{"axis":"N","value":2409750,"spacing":250,"datum":"vicgrid94","anchor":false},"geometry":{"type":"LineString","coordinates":[[144.8949522,-37.813208],[144.906546,-37.8132176],[144.9181398,-37.8132261],[144.9297335,-37.8132334],[144.9413273,-37.8132397],[144.952921,-37.8132448],[144.9645148,-37.8132488],[144.9761086,-37.8132516],[144.9877023,-37.8132534],[144.9992961,-37.813254],[145.0108899,-37.8132535],[145.0224836,-37.8132519],[145.0340774,-37.8132492]]}},{"type":"Feature","properties":{"axis":"N","value":2410250,"spacing":250,"datum":"vicgrid94","anchor":false},"geometry":{"type":"LineString","coordinates":[[144.8949585,-37.808703],[144.9065516,-37.8087126],[144.9181446,-37.808721],[144.9297377,-37.8087284],[144.9413308,-37.8087346],[144.9529239,-37.8087397],[144.9645169,-37.8087437],[144.97611,-37.8087466],[144.9877031,-37.8087483],[144.9992962,-37.808749],[145.0108892,-37.8087485],[145.0224823,-37.8087469],[145.0340754,-37.8087441]]}},{"type":"Feature","properties":{"axis":"N","value":2410500,"spacing":250,"datum":"vicgrid94","anchor":false},"geometry":{"type":"LineString","coordinates":[[144.8949616,-37.8064505],[144.9065544,-37.8064601],[144.9181471,-37.8064685],[144.9297398,-37.8064759],[144.9413325,-37.8064821],[144.9529253,-37.8064872],[144.964518,-37.8064912],[144.9761107,-37.8064941],[144.9877034,-37.8064958],[144.9992962,-37.8064965],[145.0108889,-37.806496],[145.0224816,-37.8064944],[145.0340744,-37.8064916]]}},{"type":"Feature","properties":{"axis":"N","value":2410750,"spacing":250,"datum":"vicgrid94","anchor":false},"geometry":{"type":"LineString","coordinates":[[144.8949648,-37.804198],[144.9065571,-37.8042075],[144.9181495,-37.804216],[144.9297419,-37.8042234],[144.9413343,-37.8042296],[144.9529267,-37.8042347],[144.964519,-37.8042387],[144.9761114,-37.8042416],[144.9877038,-37.8042433],[144.9992962,-37.8042439],[145.0108886,-37.8042435],[145.022481,-37.8042418],[145.0340733,-37.8042391]]}},{"type":"Feature","properties":{"axis":"N","value":2411250,"spacing":250,"datum":"vicgrid94","anchor":false},"geometry":{"type":"LineString","coordinates":[[144.894971,-37.7996929],[144.9065627,-37.7997025],[144.9181544,-37.799711],[144.9297461,-37.7997183],[144.9413378,-37.7997246],[144.9529295,-37.7997297],[144.9645212,-37.7997336],[144.9761129,-37.7997365],[144.9877045,-37.7997383],[144.9992962,-37.7997389],[145.0108879,-37.7997384],[145.0224796,-37.7997368],[145.0340713,-37.7997341]]}},{"type":"Feature","properties":{"axis":"N","value":2411500,"spacing":250,"datum":"vicgrid94","anchor":false},"geometry":{"type":"LineString","coordinates":[[144.8949742,-37.7974404],[144.9065655,-37.79745],[144.9181568,-37.7974584],[144.9297482,-37.7974658],[144.9413395,-37.797472],[144.9529309,-37.7974771],[144.9645222,-37.7974811],[144.9761136,-37.797484],[144.9877049,-37.7974857],[144.9992963,-37.7974864],[145.0108876,-37.7974859],[145.022479,-37.7974843],[145.0340703,-37.7974815]]}},{"type":"Feature","properties":{"axis":"N","value":2411750,"spacing":250,"datum":"vicgrid94","anchor":false},"geometry":{"type":"LineString","coordinates":[[144.8949773,-37.7951879],[144.9065683,-37.7951975],[144.9181593,-37.7952059],[144.9297503,-37.7952133],[144.9413413,-37.7952195],[144.9529323,-37.7952246],[144.9645233,-37.7952286],[144.9761143,-37.7952315],[144.9877053,-37.7952332],[144.9992963,-37.7952338],[145.0108873,-37.7952334],[145.0224783,-37.7952317],[145.0340693,-37.795229]]}},{"type":"Feature","properties":{"axis":"N","value":2412250,"spacing":250,"datum":"vicgrid94","anchor":false},"geometry":{"type":"LineString","coordinates":[[144.8949836,-37.7906828],[144.9065739,-37.7906924],[144.9181642,-37.7907009],[144.9297545,-37.7907082],[144.9413448,-37.7907144],[144.9529351,-37.7907195],[144.9645254,-37.7907235],[144.9761157,-37.7907264],[144.987706,-37.7907282],[144.9992963,-37.7907288],[145.0108866,-37.7907283],[145.0224769,-37.7907267],[145.0340673,-37.790724]]}},{"type":"Feature","properties":{"axis":"N","value":2412500,"spacing":250,"datum":"vicgrid94","anchor":false},"geometry":{"type":"LineString","coordinates":[[144.8949867,-37.7884303],[144.9065767,-37.7884399],[144.9181666,-37.7884483],[144.9297566,-37.7884557],[144.9413465,-37.7884619],[144.9529365,-37.788467],[144.9645265,-37.788471],[144.9761164,-37.7884739],[144.9877064,-37.7884756],[144.9992963,-37.7884763],[145.0108863,-37.7884758],[145.0224763,-37.7884741],[145.0340662,-37.7884714]]}},{"type":"Feature","properties":{"axis":"N","value":2412750,"spacing":250,"datum":"vicgrid94","anchor":false},"geometry":{"type":"LineString","coordinates":[[144.8949898,-37.7861777],[144.9065794,-37.7861873],[144.918169,-37.7861958],[144.9297587,-37.7862031],[144.9413483,-37.7862094],[144.9529379,-37.7862145],[144.9645275,-37.7862185],[144.9761171,-37.7862213],[144.9877067,-37.7862231],[144.9992964,-37.7862237],[145.010886,-37.7862232],[145.0224756,-37.7862216],[145.0340652,-37.7862189]]}},{"type":"Feature","properties":{"axis":"N","value":2413250,"spacing":250,"datum":"vicgrid94","anchor":false},"geometry":{"type":"LineString","coordinates":[[144.8949961,-37.7816727],[144.906585,-37.7816823],[144.9181739,-37.7816907],[144.9297629,-37.7816981],[144.9413518,-37.7817043],[144.9529407,-37.7817094],[144.9645296,-37.7817134],[144.9761186,-37.7817163],[144.9877075,-37.781718],[144.9992964,-37.7817186],[145.0108853,-37.7817181],[145.0224743,-37.7817165],[145.0340632,-37.7817138]]}},{"type":"Feature","properties":{"axis":"N","value":2413500,"spacing":250,"datum":"vicgrid94","anchor":false},"geometry":{"type":"LineString","coordinates":[[144.8949992,-37.7794201],[144.9065878,-37.7794297],[144.9181764,-37.7794382],[144.9297649,-37.7794455],[144.9413535,-37.7794518],[144.9529421,-37.7794569],[144.9645307,-37.7794608],[144.9761193,-37.7794637],[144.9877078,-37.7794655],[144.9992964,-37.7794661],[145.010885,-37.7794656],[145.0224736,-37.779464],[145.0340622,-37.7794613]]}},{"type":"Feature","properties":{"axis":"N","value":2413750,"spacing":250,"datum":"vicgrid94","anchor":false},"geometry":{"type":"LineString","coordinates":[[144.8950024,-37.7771676],[144.9065906,-37.7771772],[144.9181788,-37.7771856],[144.929767,-37.777193],[144.9413553,-37.7771992],[144.9529435,-37.7772043],[144.9645317,-37.7772083],[144.97612,-37.7772112],[144.9877082,-37.7772129],[144.9992965,-37.7772136],[145.0108847,-37.7772131],[145.0224729,-37.7772115],[145.0340612,-37.7772087]]}},{"type":"Feature","properties":{"axis":"N","value":2414250,"spacing":250,"datum":"vicgrid94","anchor":false},"geometry":{"type":"LineString","coordinates":[[144.8950086,-37.7726625],[144.9065962,-37.7726721],[144.9181837,-37.7726805],[144.9297712,-37.7726879],[144.9413588,-37.7726941],[144.9529463,-37.7726992],[144.9645339,-37.7727032],[144.9761214,-37.7727061],[144.9877089,-37.7727078],[144.9992965,-37.7727085],[145.010884,-37.772708],[145.0224716,-37.7727064],[145.0340591,-37.7727036]]}},{"type":"Feature","properties":{"axis":"N","value":2414500,"spacing":250,"datum":"vicgrid94","anchor":false},"geometry":{"type":"LineString","coordinates":[[144.8950117,-37.7704099],[144.9065989,-37.7704195],[144.9181861,-37.770428],[144.9297733,-37.7704353],[144.9413605,-37.7704416],[144.9529477,-37.7704467],[144.9645349,-37.7704507],[144.9761221,-37.7704535],[144.9877093,-37.7704553],[144.9992965,-37.7704559],[145.0108837,-37.7704554],[145.0224709,-37.7704538],[145.0340581,-37.7704511]]}},{"type":"Feature","properties":{"axis":"N","value":2414750,"spacing":250,"datum":"vicgrid94","anchor":false},"geometry":{"type":"LineString","coordinates":[[144.8950149,-37.7681574],[144.9066017,-37.768167],[144.9181886,-37.7681754],[144.9297754,-37.7681828],[144.9413623,-37.768189],[144.9529491,-37.7681941],[144.964536,-37.7681981],[144.9761228,-37.768201],[144.9877097,-37.7682027],[144.9992965,-37.7682034],[145.0108834,-37.7682029],[145.0224702,-37.7682013],[145.0340571,-37.7681985]]}},{"type":"Feature","properties":{"axis":"N","value":2415250,"spacing":250,"datum":"vicgrid94","anchor":false},"geometry":{"type":"LineString","coordinates":[[144.8950211,-37.7636523],[144.9066073,-37.7636619],[144.9181934,-37.7636703],[144.9297796,-37.7636777],[144.9413658,-37.7636839],[144.9529519,-37.763689],[144.9645381,-37.763693],[144.9761242,-37.7636959],[144.9877104,-37.7636976],[144.9992966,-37.7636982],[145.0108827,-37.7636978],[145.0224689,-37.7636961],[145.0340551,-37.7636934]]}},{"type":"Feature","properties":{"axis":"N","value":2415500,"spacing":250,"datum":"vicgrid94","anchor":false},"geometry":{"type":"LineString","coordinates":[[144.8950243,-37.7613997],[144.9066101,-37.7614093],[144.9181959,-37.7614178],[144.9297817,-37.7614251],[144.9413675,-37.7614313],[144.9529533,-37.7614365],[144.9645391,-37.7614404],[144.976125,-37.7614433],[144.9877108,-37.7614451],[144.9992966,-37.7614457],[145.0108824,-37.7614452],[145.0224682,-37.7614436],[145.0340541,-37.7614409]]}},{"type":"Feature","properties":{"axis":"N","value":2415750,"spacing":250,"datum":"vicgrid94","anchor":false},"geometry":{"type":"LineString","coordinates":[[144.8950274,-37.7591472],[144.9066129,-37.7591568],[144.9181983,-37.7591652],[144.9297838,-37.7591726],[144.9413693,-37.7591788],[144.9529547,-37.7591839],[144.9645402,-37.7591879],[144.9761257,-37.7591907],[144.9877111,-37.7591925],[144.9992966,-37.7591931],[145.0108821,-37.7591926],[145.0224676,-37.759191],[145.034053,-37.7591883]]}}]}